METAR RJCC 060000Z 16017KT 9999 FEW006 BKN008 BKN010 06/03 Q1014
METAR RJBB 060000Z 17004KT 130V230 9999 FEW025 BKN/// 18/12 Q1014 NOSIG
METAR RJAA 060000Z 04010KT 9999 FEW015 19/13 Q1014 BECMG 08006KT
METAR RJSN 060000Z 18009KT 9999 FEW003 14/09 Q1012
METAR ROAH 060000Z 12006KT 9999 FEW014 SCT120 BKN/// 23/21 Q1013
METAR RJFF 060000Z 16019KT CAVOK 16/09 Q1012 NOSIG
METAR RJNK 060000Z 19005KT 140V220 9999 FEW030 17/12 Q1013
METAR RJGG 060000Z 28003KT 9999 FEW005 BKN/// 15/13 Q1014 NOSIG
METAR RJTT 060000Z 04004KT 9999 FEW030 BKN/// 18/14 Q1014 BECMG 08006KT
METAR RJOO 060000Z 24004KT 190V300 9999 FEW030 BKN/// 19/12 Q1014
METAR RJNT 060000Z 27007KT 230V310 9999 FEW030 18/11 Q1012
METAR RJNS 060000Z VRB03KT 9999 FEW030 BKN/// 18/13 Q1013
METAR RJNW 060000Z 23009KT 9999 FEW015 16/10 Q1012
METAR RJOA 060000Z VRB02KT CAVOK 13/09 Q1014
METAR RJOB 060000Z 25005KT CAVOK 16/09 Q1013
METAR RJOC 060000Z 13006KT 100V170 CAVOK 17/06 Q1011
METAR RJOK 060000Z 33006KT CAVOK 18/12 Q1014
METAR RJOH 060000Z VRB02KT 9999 SCT250 16/09 Q1012
METAR RJOM 060000Z 18003KT 150V210 9999 FEW025 BKN/// 17/10 Q1014
METAR RJOW 060000Z 16012KT CAVOK 17/09 Q1012
METAR RJSA 060000Z 36004KT 330V040 9999 FEW010 SCT050 10/08 Q1012
METAR RJOS 060000Z 09003KT 9999 FEW030 BKN/// 16/11 Q1014
METAR RJOY 060000Z 25003KT 160V330 9999 FEW030 BKN/// 19/12 Q1014
METAR RJOT 060000Z VRB02KT CAVOK 18/09 Q1014
METAR RJOR 060000Z 15007KT 120V190 CAVOK 18/09 Q1012
METAR RJSC 060000Z 25006KT 220V280 9999 FEW015 SCT040 14/11 Q1013
METAR RJSK 060000Z 16007KT 110V200 9999 FEW007 SCT070 12/09 Q1012
METAR RJSI 060000Z 18005KT 140V220 9999 FEW015 14/10 Q1013
METAR RJSF 060000Z 21005KT 180V250 5000 BR SCT002 BKN003 11/11 Q1014
METAR RJTO 060000Z 33004KT 240V050 9999 FEW030 BKN/// 19/15 Q1013
METAR RJSR 060000Z 06003KT 290V100 9999 FEW002 BKN006 BKN010 10/08 Q1012
METAR RJSY 060000Z 13003KT 080V230 9999 FEW010 15/10 Q1012
METAR RJSM 060000Z 13004KT 100V170 4000 -DZ BR FEW001 BKN003 OVC005 07/07 Q1014
METAR RJSS 060000Z 13007KT 5000 BR FEW002 SCT008 BKN010 13/12 Q1013
METAR RJTI 060000Z 13004KT 080V170 9999 FEW030 SCT/// 19/13 Q1013
METAR RJTF 060000Z VRB02KT 9999 FEW030 SCT050 21/13 Q1014
METAR ROMY 060000Z 16009KT 9999 -SHRA FEW007 SCT009 BKN060 24/23 Q1012
METAR ROYN 060000Z AUTO 18015G27KT 150V220 6000 -RA FEW007 SCT010 BKN023 25/24 Q1010
METAR RORS 060000Z AUTO 16011KT 9999 SCT008 BKN010 BKN050 24/23 Q1011
METAR ROIG 060000Z 18012KT 6000 SHRA FEW009 SCT015 BKN050 24/23 Q1011
METAR RJTT 062300Z 19019KT CAVOK 18/14 Q1004 NOSIG
METAR RJTT 062230Z 19019KT CAVOK 18/14 Q1004 NOSIG
METAR RJTT 062200Z 19012KT CAVOK 18/14 Q1004 NOSIG
METAR RJTT 062130Z 20013KT CAVOK 18/14 Q1005 NOSIG
METAR RJTT 062100Z 20010KT CAVOK 17/14 Q1005 NOSIG
METAR RJTT 062030Z 20016KT 9999 FEW030 BKN/// 17/14 Q1005 NOSIG
METAR RJTT 062000Z 20018KT CAVOK 18/14 Q1005 NOSIG
METAR RJTT 061930Z 20015KT CAVOK 17/15 Q1006 NOSIG
METAR RJTT 061900Z 21014KT CAVOK 17/15 Q1007 NOSIG
METAR RJTT 061830Z 21013KT 9999 FEW015 BKN150 BKN/// 17/14 Q1007 NOSIG
METAR RJTT 061800Z 20016KT CAVOK 18/12 Q1007 NOSIG
METAR RJSN 062300Z 19010KT 9999 BKN020 BKN030 15/10 Q1005
METAR RJSN 062230Z 19005KT 160V230 9999 FEW030 BKN120 15/10 Q1005
METAR RJSN 062200Z AUTO 20007KT 9999 NSC 16/09 Q1005
METAR RJSN 062100Z AUTO 21008KT 9999 NSC 15/08 Q1004
METAR RJSN 062000Z AUTO 20008KT 9999 FEW070 SCT130 BKN200 14/08 Q1004
METAR RJSN 061900Z AUTO 19007KT 9999 NSC 15/08 Q1003
METAR RJSN 061800Z AUTO 18011KT 9999 NSC 14/08 Q1003
METAR RJGG 062300Z 22003KT 170V270 5000 -RA BR FEW020 SCT090 OVC100 15/14 Q1005 TEMPO 4000 -RA BR
METAR RJGG 062230Z 31003KT 6000 FEW010 SCT090 BKN100 15/14 Q1006 NOSIG
METAR RJGG 062200Z 11003KT 060V150 6000 FEW010 BKN110 OVC120 16/15 Q1006 NOSIG
METAR RJGG 062130Z 17003KT 110V190 6000 VCSH FEW010 BKN110 OVC120 15/14 Q1007 TEMPO 4000 -RA BR
METAR RJGG 062100Z 06007KT 6000 VCSH NSC 16/14 Q1006 TEMPO 4000 -RA BR
METAR RJGG 062030Z AUTO 14003KT 110V180 7000 NSC 15/14 Q1007 TEMPO 4000 -RA BR
METAR RJGG 062000Z AUTO 15004KT 110V210 5000 BR NSC 15/14 Q1007 TEMPO 4000 -RA BR
METAR RJGG 061930Z AUTO 12004KT 7000 FEW005 SCT090 BKN100 15/14 Q1007 NOSIG
METAR RJGG 061900Z AUTO 20005KT 160V240 9999 NSC 15/14 Q1007 NOSIG
METAR RJGG 061830Z AUTO 13009KT 9999 NSC 16/15 Q1007 NOSIG
METAR RJGG 061800Z AUTO 11007KT 9999 NSC 17/15 Q1007 NOSIG
METAR RJFF 062300Z 36008KT 310V050 CAVOK 14/05 Q1011 NOSIG
METAR RJFF 062230Z VRB05KT 9999 FEW004 BKN/// 13/08 Q1011 BECMG 35011KT
METAR RJFF 062200Z 01007KT 340V050 9999 FEW004 SCT070 BKN/// 13/08 Q1011 NOSIG
METAR RJFF 062130Z 36006KT 9999 FEW004 SCT025 BKN060 13/07 Q1011 NOSIG
METAR RJFF 062100Z 34008KT 9999 FEW003 BKN050 OVC/// 13/06 Q1011 NOSIG
METAR RJFF 062030Z AUTO 34005KT 9999 NSC 13/11 Q1011 NOSIG
METAR RJFF 062000Z AUTO 32008KT 9999 -RA FEW017 SCT026 BKN044 13/11 Q1011 NOSIG
METAR RJFF 061930Z AUTO 35009KT 300V040 7000 RA FEW013 BKN017 BKN020 13/10 Q1010 TEMPO 4000 SHRA BR BKN008 BKN035
METAR RJFF 061900Z AUTO 01012G24KT 340V050 9999 -RA FEW009 BKN015 OVC037 13/11 Q1009 TEMPO 4000 SHRA BR BKN008 BKN035
METAR RJFF 061830Z AUTO 36016KT 6000 RA FEW006 SCT010 BKN020 14/12 Q1008 TEMPO 4000 SHRA BR BKN008 BKN025
METAR RJFF 061800Z AUTO 32017KT 290V350 2800 -RA BR BKN005 OVC038 //////TCU 18/16 Q1007 NOSIG
METAR RJCC 062300Z 16020KT 9999 -SHRA FEW002 BKN004 BKN006 08/07 Q0998
METAR RJCC 062230Z 16018KT 9999 FEW002 SCT005 BKN007 08/08 Q0998
METAR RJCC 062200Z 16015KT 9999 -SHRA FEW002 SCT005 BKN007 08/07 Q0999
METAR RJCC 062130Z 17016KT 7000 -SHRA FEW001 SCT003 BKN006 08/07 Q0999
METAR RJCC 062100Z 18017KT 3200 -SHRA BR FEW001 SCT003 BKN004 06/06 Q1000
METAR RJCC 062030Z 17023KT 3000 -SHRA BR FEW001 SCT002 BKN003 06/06 Q1001
METAR RJCC 062000Z 17019KT 3000 -SHRA BR FEW001 SCT002 BKN003 06/06 Q1001
METAR RJCC 061930Z 17018KT 3000 -SHRA BR FEW001 SCT002 BKN003 06/05 Q1002
METAR RJCC 061900Z 17017KT 3000 -SHRA BR FEW001 SCT002 BKN003 05/05 Q1003
METAR RJCC 061830Z 17016KT 2500 -SHRA BR FEW001 SCT002 BKN003 05/05 Q1003
METAR RJCC 061800Z 20013KT 5000 -SHRA BR FEW001 SCT002 BKN003 05/05 Q1004
METAR RJBB 062300Z 21006KT 9999 FEW010 SCT070 BKN120 17/15 Q1006 NOSIG
METAR RJBB 062230Z 23006KT 9999 FEW015 SCT045 BKN120 16/15 Q1006 NOSIG
METAR RJBB 062200Z 23010KT 9999 VCSH FEW015 SCT040 BKN100 16/14 Q1006 NOSIG
METAR RJBB 062130Z 21015KT 9999 -SHRA FEW015 SCT040 BKN100 17/14 Q1006 NOSIG
METAR RJBB 062100Z 21017KT 9999 -SHRA FEW020 SCT045 BKN120 18/14 Q1006 NOSIG
METAR RJBB 062030Z AUTO 20020KT 9999 NSC 18/14 Q1006 NOSIG
METAR RJBB 062000Z AUTO 20015KT 9999 NSC 18/14 Q1006 NOSIG
METAR RJBB 061930Z AUTO 19018KT 9999 NSC 18/14 Q1005 NOSIG
METAR RJBB 061900Z AUTO 20012KT 9999 NSC 18/14 Q1006 NOSIG
METAR RJBB 061830Z AUTO 19011KT 9999 NSC 18/14 Q1006 NOSIG
METAR RJBB 061800Z AUTO 19016KT 9999 NSC 18/14 Q1007 NOSIG
METAR RJAA 062300Z 20009KT 170V230 9999 FEW030 BKN110 18/13 Q1004 NOSIG
METAR RJAA 062230Z 18006KT 150V220 9999 FEW030 BKN120 BKN/// 17/13 Q1004 NOSIG
METAR RJAA 062200Z 20009KT 9999 FEW030 BKN130 BKN/// 17/14 Q1005 NOSIG
METAR RJAA 062130Z 19010KT 160V230 9999 FEW030 SCT160 BKN/// 17/14 Q1005 NOSIG
METAR RJAA 062100Z 19009KT 150V220 9999 FEW030 BKN/// 17/13 Q1005 NOSIG
METAR RJAA 062030Z AUTO 18004KT 140V210 9999 NSC 16/14 Q1005 NOSIG
METAR RJAA 062000Z AUTO 18008KT 9999 NSC 17/14 Q1006 NOSIG
METAR RJAA 061930Z AUTO 19005KT 9999 NSC 17/14 Q1006 NOSIG
METAR RJAA 061900Z AUTO 19007KT 9999 NSC 17/14 Q1007 NOSIG
METAR RJAA 061830Z AUTO 20011KT 170V240 9999 NSC 18/14 Q1007 NOSIG
METAR RJAA 061800Z AUTO 21010KT 170V250 9999 NSC 18/13 Q1007 NOSIG
METAR RJOO 062300Z 23006KT 160V280 9999 FEW025 SCT030 BKN110 18/14 Q1006
METAR RJOO 062200Z VRB02KT 9999 VCSH FEW020 SCT030 BKN090 18/12 Q1006
METAR RJOO 062100Z AUTO VRB01KT 9999 FEW032 SCT040 BKN130 16/11 Q1006
METAR RJOO 062000Z AUTO VRB02KT 9999 FEW034 SCT120 BKN170 17/11 Q1006
METAR RJOO 061900Z AUTO VRB01KT 9999 NSC 17/13 Q1007
METAR RJOO 061800Z AUTO VRB02KT 9999 NSC 18/14 Q1007
METAR RJNK 062300Z 25004KT 9999 -SHRA FEW020 BKN030 BKN050 10/08 Q1010
METAR RJNK 062200Z VRB02KT 9999 -SHRA FEW015 BKN020 BKN030 11/06 Q1009
METAR RJNK 062100Z 33012KT 9999 FEW008 SCT010 BKN015 12/08 Q1008
METAR RJNK 062000Z 29016KT 9999 FEW030 SCT050 BKN070 15/12 Q1006
METAR RJNK 061900Z 20013KT 9999 FEW030 SCT080 BKN130 19/09 Q1004
METAR RJNK 061800Z 20010KT 9999 FEW030 BKN130 BKN180 19/10 Q1005
METAR ROAH 062300Z 27017KT 2000 R36R/0600VP2000U R36L/0600VP2000N +SHRA BR FEW005 SCT007 BKN010 SCT020CB 22/22 Q1009
METAR ROAH 062230Z 21019KT 5000 +SHRA BR SCT008 BKN010 FEW020CB 24/23 Q1008
METAR ROAH 062200Z 21020KT 9999 -SHRA SCT008 BKN010 FEW020CB 24/23 Q1007
METAR ROAH 062130Z 21022KT 9999 -SHRA SCT007 BKN010 FEW020CB 24/23 Q1007
METAR ROAH 062100Z 21021KT 9999 -SHRA FEW007 SCT010 FEW020CB BKN050 24/23 Q1007
METAR ROAH 062030Z AUTO 21020KT 9999 FEW008 SCT010 BKN011 //////TCU 24/23 Q1007
METAR ROAH 062000Z AUTO 20022KT 9999 SCT008 BKN010 OVC110 24/23 Q1007
METAR ROAH 061930Z AUTO 20020KT 9999 FEW008 OVC010 24/23 Q1007
METAR ROAH 061900Z AUTO 20019KT 9999 SCT007 OVC010 24/23 Q1007
METAR ROAH 061830Z AUTO 20019KT 9999 SCT008 OVC010 24/23 Q1007
METAR ROAH 061800Z AUTO 21022KT 9999 BKN010 BKN011 OVC110 24/23 Q1007
METAR RJNS 062300Z 25008KT 8000 -RA FEW000 SCT005 BKN008 16/16 Q1006
METAR RJNS 062230Z 23005KT 190V270 8000 -RA FEW000 SCT080 OVC100 16/15 Q1006
METAR RJNS 062200Z AUTO 28010KT 9999 -RA FEW017 SCT029 BKN090 16/15 Q1006
METAR RJNS 062100Z AUTO 26007KT 9999 FEW038 SCT130 BKN140 16/14 Q1008
METAR RJNS 062000Z AUTO 23005KT 9999 FEW011 SCT023 BKN027 16/14 Q1008
METAR RJNS 061900Z AUTO 22003KT 9999 FEW017 OVC020 16/14 Q1009
METAR RJNS 061800Z AUTO VRB02KT 9999 FEW016 SCT140 BKN170 16/13 Q1009
METAR RJNW 062300Z 29009G22KT 240V350 7000 -SHRA FEW000 SCT010 BKN045 07/06 Q1007
METAR RJNW 062200Z AUTO 28008KT 240V320 9999 -RA BKN033 BKN044 OVC060 07/05 Q1007
METAR RJNW 062100Z AUTO VRB07KT 9999 -RA FEW008 SCT014 BKN042 08/07 Q1006
METAR RJNW 062000Z AUTO 30007G18KT 240V040 9999 -RA BKN005 BKN007 OVC009 11/10 Q1005
METAR RJNW 061900Z AUTO 27012KT 240V330 9999 -RA NSC 13/10 Q1005
METAR RJNW 061800Z AUTO 23005KT 9999 NSC 14/09 Q1004
METAR RJNT 062300Z 27011KT 9999 -SHRA FEW010 SCT020 BKN030 10/06 Q1008
METAR RJNT 062200Z 27014KT 9999 -RA FEW010 SCT080 BKN130 12/09 Q1006
METAR RJNT 062100Z AUTO 27012KT 9999 SCT080 SCT110 BKN120 15/11 Q1006
METAR RJNT 062000Z AUTO 18011G21KT 130V200 9999 FEW080 BKN090 BKN100 19/09 Q1004
METAR RJNT 061900Z AUTO 17011KT 120V210 9999 NSC 20/09 Q1004
METAR RJNT 061800Z AUTO 18011G23KT 140V210 9999 NSC 20/09 Q1004
METAR RJOA 062300Z 34017KT 310V020 9999 -SHRA FEW015 SCT030 BKN040 10/06 Q1008
METAR RJOA 062230Z 34016G26KT 9999 -SHRA FEW015 SCT030 BKN040 10/07 Q1008
METAR RJOA 062200Z AUTO 34021G32KT 9999 OVC034 10/07 Q1008
METAR RJOA 062100Z AUTO 34020G32KT 9999 -RA FEW011 SCT036 BKN038 10/09 Q1008
METAR RJOA 062000Z AUTO 35010KT 7000 -RA BKN018 BKN023 OVC041 14/11 Q1007
METAR RJOA 061900Z AUTO 29008KT 9999 FEW030 BKN031 BKN037 16/11 Q1007
METAR RJOA 061800Z AUTO 24004KT 220V280 9999 NSC 16/09 Q1007
METAR RJOC 062300Z 18006KT 9999 FEW004 BKN060 10/07 Q1011
METAR RJOC 062230Z 18005KT 9999 FEW002 SCT040 BKN060 09/08 Q1011
METAR RJOC 062200Z AUTO 32005KT 9999 -RA FEW026 BKN042 BKN047 10/06 Q1011
METAR RJOC 062100Z AUTO 31007KT 280V350 9999 -RA SCT020 BKN026 BKN032 11/10 Q1011
METAR RJOC 062000Z AUTO VRB02KT 9999 -RA FEW029 SCT041 BKN043 12/09 Q1010
METAR RJOC 061900Z AUTO 23005KT 9999 -RA FEW028 SCT038 BKN043 12/10 Q1009
METAR RJOC 061800Z AUTO 29013KT 9999 -RA SCT015 OVC021 12/11 Q1008
METAR RJOB 062300Z 34005KT 270V060 9999 FEW007 SCT020 BKN035 10/08 Q1008
METAR RJOB 062200Z 33009KT 290V010 9999 -SHRA FEW008 SCT015 BKN030 12/09 Q1008
METAR RJOR 062300Z 32015KT 5000 -SHRA BR FEW010 SCT015 BKN025 09/07 Q1012
METAR RJOR 062200Z 20004KT 160V240 9999 VCSH FEW015 SCT025 BKN050 10/09 Q1011
METAR RJOR 062100Z AUTO 33011KT 9999 FEW021 SCT026 OVC030 11/07 Q1010
METAR RJOR 062000Z AUTO 35016KT 3900 -RA BR BKN009 OVC021 12/10 Q1009
METAR RJOR 061900Z AUTO 34013KT 9999 BKN008 BKN010 BKN012 13/11 Q1008
METAR RJOR 061800Z AUTO 29018KT 9999 SCT009 SCT016 BKN090 15/13 Q1008
METAR RJOM 062300Z 36016KT 9999 -SHRA FEW008 SCT020 BKN030 13/12 Q1009
METAR RJOM 062200Z 33012KT 6000 SHRA FEW010 SCT015 BKN020 14/12 Q1008
METAR RJOM 062100Z AUTO 31017KT 9999 FEW044 SCT046 OVC050 16/14 Q1007
METAR RJOM 062000Z AUTO 18005KT 9999 SCT060 BKN080 OVC200 19/12 Q1005
METAR RJOM 061900Z AUTO 18011KT 9999 NSC 19/12 Q1005
METAR RJOM 061800Z AUTO 02004KT 9999 NSC 18/11 Q1006
METAR RJOK 062300Z 33004KT 9999 -SHRA FEW003 SCT020 BKN025 15/14 Q1007
METAR RJOK 062200Z 34005KT 9999 FEW003 BKN025 BKN090 15/13 Q1007
METAR RJOK 062100Z AUTO 03003KT 320V080 9999 FEW036 SCT038 BKN050 14/12 Q1007
METAR RJOK 062000Z AUTO 33004KT 310V010 9999 -RA OVC031 14/12 Q1007
METAR RJOK 061900Z AUTO 34005KT 9999 -RA SCT032 BKN034 BKN038 14/12 Q1007
METAR RJOK 061800Z AUTO 32004KT 9999 -RA FEW032 SCT080 BKN110 15/11 Q1008
METAR RJOH 062300Z 22005KT 9999 FEW020 SCT030 BKN060 10/09 Q1012
METAR RJOH 062200Z COR 33012KT 9999 -SHRA FEW020 BKN030 BKN050 10/08 Q1012
METAR RJOH 062100Z COR 27005KT 9999 -SHRA FEW015 SCT020 BKN030 12/12 Q1011
METAR RJOH 062000Z 31003KT 9999 -SHRA FEW015 BKN020 BKN030 11/11 Q1010
METAR RJOH 061900Z 29011KT 9999 -SHRA FEW015 BKN020 BKN030 13/13 Q1009
METAR RJOH 061800Z 30008KT 9999 FEW010 SCT015 BKN030 14/13 Q1008
METAR RJOS 062300Z VRB02KT 9999 FEW030 BKN100 BKN150 16/12 Q1007
METAR RJOS 062200Z 01006KT 9999 FEW030 BKN100 BKN150 16/12 Q1006
METAR RJOS 062100Z 02003KT 360V070 9999 -RA FEW030 OVC100 15/12 Q1006
METAR RJOS 062000Z 29003KT 250V340 9999 FEW030 BKN120 16/12 Q1006
METAR RJOS 061900Z VRB02KT 9999 FEW030 BKN120 16/10 Q1006
METAR RJOS 061800Z 16009KT 9999 FEW030 BKN120 17/10 Q1006
METAR RJOI 062256Z 34004KT 10SM FEW015 BKN047 BKN070 13/08 A2981 RMK AO2 RAE03B11E20 SLP095 P0000 T01330078 $
SPECI RJOI 062222Z 31003KT 10SM FEW015 BKN045 13/09 A2982 RMK AO2 RAE03B11E20 P0000 T01280089 $
SPECI RJOI 062216Z 31006KT 10SM -RA FEW015 BKN045 13/08 A2982 RMK AO2 RAE03B11 P0000 T01280083 $
SPECI RJOI 062203Z 31006KT 10SM FEW015 BKN045 13/09 A2981 RMK AO2 RAE03 P0000 T01330089 $
METAR RJOI 062156Z 33006KT 7SM -RA FEW015 BKN045 13/09 A2980 RMK AO2 RAB01E37B49 SLP092 P0001 T01330089 $
SPECI RJOI 062138Z 32005KT 10SM FEW015 BKN042 13/09 A2979 RMK AO2 RAB01E37 P0000 T01330089 $
SPECI RJOI 062104Z 33007KT 8SM -RA FEW010 BKN040 14/10 A2978 RMK AO2 RAB01 P0000 T01390100 $
METAR RJOI 062056Z 33008KT 10SM FEW015 BKN036 BKN045 14/11 A2977 RMK AO2 RAE15 SLP082 P0001 60001 T01390106 53018 $
SPECI RJOI 062017Z 31008KT 10SM FEW015 BKN035 BKN045 14/11 A2975 RMK AO2 RAE15 P0000 T01390111 $
METAR RJOI 061956Z 30009G20KT 8000 -SHRA BR FEW010 BKN035 OVC050 14/12 A2975 RMK AO2A SHRAB42 SLP073 P0000 T01440117
SPECI RJOI 061943Z 29014KT 10SM -RA FEW020 BKN032 OVC065 16/11 A2974 RMK AO2 RAB42 P0000 T01610106 $
METAR RJOI 061856Z 31008KT 10SM FEW025 BKN065 BKN130 17/12 A2973 RMK AO2 SLP068 T01670122 $
METAR RJOI 061756Z 26006KT 10SM FEW025 BKN140 BKN210 17/13 A2972 RMK AO2 SLP064 T01670133 10189 20161 58022 $
METAR RJSC 062300Z VRB02KT 9999 FEW070 BKN/// 11/09 Q1002
METAR RJOT 062300Z COR 27005KT 9999 -RA FEW015 SCT035 BKN080 13/12 Q1008
METAR RJOT 062200Z 15005KT 130V200 9999 -RA FEW030 SCT080 BKN120 14/10 Q1007
METAR RJOT 062100Z AUTO 15004KT 9999 NSC 13/10 Q1007
METAR RJOT 062000Z AUTO 04001KT 9999 NSC 14/09 Q1006
METAR RJOT 061900Z AUTO 14007KT 9999 NSC 14/08 Q1006
METAR RJOT 061800Z AUTO 16003KT 9999 NSC 14/09 Q1007
METAR RJOW 062300Z 05008KT 340V080 9999 FEW003 SCT025 BKN045 12/07 Q1011
METAR RJOY 062300Z VRB02KT 9999 FEW030 SCT045 BKN100 17/12 Q1006
METAR RJSA 062300Z 23015KT 9999 -SHRA FEW020 BKN030 BKN050 11/09 Q0999
METAR RJSA 062230Z 21013KT 9999 -SHRA FEW040 BKN060 BKN080 12/09 Q0999
METAR RJSA 062200Z AUTO 20013KT 9999 -RA NSC 11/09 Q0999
METAR RJSA 062100Z AUTO 20013G23KT 9999 NSC 11/07 Q1000
METAR RJSA 062000Z AUTO 19008KT 9999 -RA FEW045 SCT060 BKN070 10/08 Q1001
METAR RJSA 061900Z AUTO 16003KT 9999 -RA NSC 05/05 Q1002
METAR RJSA 061800Z AUTO 10005KT 0000 R24/0225V0300N FG OVC000 05/05 Q1002
METAR RJSF 062300Z 20006KT 8000 FEW010 BKN130 13/12 Q1003
METAR RJSF 062200Z AUTO 20005KT 9999 NSC 12/12 Q1004
METAR RJSF 062100Z AUTO 16002KT 7000 SCT008 OVC140 12/11 Q1005
METAR RJSF 062000Z AUTO 17007KT 7000 NSC 12/11 Q1005
METAR RJSF 061900Z AUTO 15005KT 9999 NSC 12/11 Q1006
METAR RJSF 061800Z AUTO 16007KT 9999 NSC 13/11 Q1006
METAR RJSM 062300Z 07004KT 9999 FEW030 SCT080 BKN160 12/11 Q0999
METAR RJSM 062200Z 00000KT 9999 FEW003 SCT080 BKN150 10/10 Q1001
METAR RJSM 062100Z 16005KT 140V200 9999 MIFG FEW003 SCT080 BKN230 08/08 Q1002
METAR RJSM 062000Z 21003KT 170V240 8000 FEW003 SCT080 BKN150 05/05 Q1002
METAR RJSM 061900Z 27003KT 230V290 3000 R10/0800VP1800U BR MIFG FEW001 SCT003 BKN080 07/07 Q1003
METAR RJSM 061800Z VRB02KT 0400 R10/0400N FG BKN000 BKN001 05/05 Q1003
METAR RJSK 062300Z 22003KT 170V270 7000 -SHRA FEW015 SCT020 BKN025 11/10 Q1002
METAR RJSK 062200Z 12005KT 9999 -SHRA FEW045 BKN060 BKN070 10/09 Q1002
METAR RJSI 062300Z 25003KT 200V290 6000 FEW004 BKN005 12/11 Q1002
METAR RJSY 062300Z 24013KT 9999 -SHRA FEW008 SCT010 BKN030 13/11 Q1004
METAR RJSY 062200Z 22004KT 140V280 9999 -RA FEW050 SCT080 BKN100 14/10 Q1003
METAR RJSS 062300Z 02004KT 340V040 4000 BR FEW001 BKN004 10/10 Q1002
METAR RJSS 062230Z 02004KT 340V050 4000 BR FEW001 BKN004 10/10 Q1002
METAR RJSS 062200Z AUTO 03004KT 5000 BR FEW001 OVC003 10/10 Q1003
METAR RJSS 062100Z AUTO VRB01KT 0100 R27/0300N FG OVC000 10/10 Q1004
METAR RJSS 062000Z AUTO VRB02KT 0400 R27/0900VP2000D FG OVC001 10/10 Q1005
METAR RJSS 061900Z AUTO VRB02KT 5000 BR OVC003 11/10 Q1006
METAR RJSS 061800Z AUTO VRB01KT 9000 OVC005 11/10 Q1006
METAR RJSR 062300Z 12002KT 2500 BCFG -SHRA BR FEW000 SCT001 BKN020 08/08 Q1001
METAR ROIG 062300Z 17006KT 9999 VCSH FEW016 SCT030 BKN036 25/24 Q1009
METAR ROIG 062200Z AUTO VRB02KT 9999 BKN045 BKN048 OVC180 25/24 Q1008
METAR ROIG 062100Z AUTO 20006KT 9999 BKN046 OVC180 25/23 Q1008
METAR ROIG 062000Z AUTO 21007KT 9000 FEW016 SCT022 OVC043 25/24 Q1007
METAR ROIG 061900Z AUTO 22008KT 9999 FEW012 SCT029 OVC043 25/24 Q1007
METAR ROIG 061800Z AUTO 23007KT 9999 FEW007 BKN012 OVC013 25/24 Q1007
METAR RJTO 062300Z 21016KT 9999 -RA SCT009 BKN015 OVC080 17/16 Q1005
SPECI RODN 062250Z COR 23017G24KT 1 1/2SM +VCTSRA 22/22 A2981 RMK AO2A LTG DSNT E AND SW RAB2157E07DZB08E11RAB11E12DZB12E16RAB16E41 TSB16E42 SLP096 FZRANO $ COR 2254
SPECI RODN 062242Z 26016G22KT 2SM +VCTSRA 010 OVC010 23/21 A2981 RMK AO2A TWR VIS 1/2 V1 1/2 LTG DSNT E AND SW-W RAE2155RAB2157E07DZB08E11RAB11E12DZB12E16RAB16 TSE2155TSB16 SLP096 FZRANO $
SPECI RODN 062220Z 27020G32KT 2SM -TSRA OVC010 24/23 A2980 RMK AO2A TWR VIS 3 DZE16RAB16 CIG 010V012 OVC V BKN CIG 009 RWY05 SLP092 FZRANO $
METAR RODN 062155Z 20022G28KT 10SM -VCTSRA BKN009 OVC014 24/23 A2976 RMK AO2A PK WND 21030/32 LTG DSNT W-NW RAB2059E00DZB00E04RAB04E12RAB29E32 SLP079 P0002 T02430229 FZRANO $
SPECI RODN 062001Z 20017G25KT 10SM OVC011 24/23 A2975 RMK AO2A DZE01 CIG 009 RWY05 SLP075 FZRANO $
METAR RODN 061955Z 20016G25KT 10SM -DZ BKN010 OVC017 24/23 A2975 RMK AO2A PK WND 21028/36 DZE1856DZB1858E08RAB08E09DZB34E44RAB44E52DZB52 CIG 009 RWY05 SLP075 P0001 T02410227 FZRANO $
SPECI RODN 061934Z 20021G26KT 10SM -DZ OVC011 24/23 A2975 RMK AO2A DZB1858E08RAB08E09DZB34 CIG 010 RWY05 SLP075 FZRANO $
METAR RODN 061755Z 21016G24KT 10SM BKN013 BKN024 24/22 A2978 RMK AO2A PK WND 20028/39 DZB10E19 CIG 013V100 BKN013 V SCT CIG 011 RWY05 SLP085 P0001 60003 T02420224 10244 20224 55013 FZRANO $
SPECI RODN 061749Z 20019G28KT 10SM BKN013 24/22 A2977 RMK AO2A DZB10E19 CIG 013V100 BKN V SCT CIG 012 RWY05 SLP082 FZRANO $
SPECI ROTM 062310Z 24013G19KT 3SM TSRA BR BKN008 OVC017 22/21 A2982 RMK AO2 P0004 T02220211 $
METAR ROTM 062256Z 25018G29KT 1SM TSRA BR BKN008 BKN013 22/21 A2982 RMK AO2 PK WND 21030/2208 TWR VIS 3 RAB18 TSB56 SLP082 L5 SET T1 SET T2 WND WRNG XWND ADV P0030 T02220211 $
SPECI ROTM 062252Z 26020G28KT 3/4SM RA BR SCT008 BKN015 OVC032 23/22 A2982 RMK AO2 PK WND 21030/2208 TWR VIS 3 VIS M1/4V4 RAB18 PRESRR L5 SET T1 SET T2 WND WRNG XWND ADV P0022 $
METAR ROTM 062156Z 21019G29KT 10SM OVC008 24/22 A2978 RMK AO2 PK WND 21032/2133 CIG 006V012 SLP070 T2 SET WND WRNG SET XWND ADV SET FIRST T02390222 $
METAR ROTM 062056Z AUTO 21017G27KT 10SM OVC008 24/22 A2978 RMK AO2 PK WND 20031/2014 RAE05 CIG 006V012 SLP069 P0000 60001 T02390222 55002 $
METAR ROTM 061956Z AUTO 20015G29KT 9SM -RA OVC009 24/22 A2976 RMK AO2 PK WND 21033/1859 RAB38 CIG 007V011 SLP063 P0001 T02390222 $
SPECI ROTM 061926Z AUTO 21020G29KT 10SM OVC008 24/22 A2977 RMK AO2 PK WND 21033/1859 CIG 007V011 T02390222 $
METAR ROTM 061856Z AUTO 21020G29KT 10SM OVC010 24/22 A2977 RMK AO2 PK WND 20031/1813 CIG 007V012 SLP067 T02390222 $
SPECI ROTM 061839Z AUTO 20019G28KT 10SM BKN008 BKN012 OVC080 24/22 A2977 RMK AO2 PK WND 20031/1813 T02390222 $
SPECI ROTM 061815Z AUTO 21016G31KT 10SM OVC009 24/22 A2979 RMK AO2 PK WND 20031/1813 CIG 007V012 T02390222 $
METAR ROTM 061756Z AUTO 21018G25KT 10SM BKN011 OVC022 24/22 A2978 RMK AO2 PK WND 22031/1738 RAB11E23 SLP072 P0000 60001 T02390222 10239 20222 56013 $
METAR ROYN 062300Z AUTO 12005KT 9999 NCD 26/24 Q1008
METAR ROYN 062200Z AUTO 11007KT 9999 NSC 25/24 Q1007
METAR ROYN 062100Z AUTO 13007KT 9999 NSC 25/24 Q1006
METAR ROYN 062000Z AUTO 15011KT 9999 NSC 25/24 Q1006
METAR ROYN 061900Z AUTO 14010KT 9999 NCD 25/24 Q1006
METAR ROYN 061800Z AUTO 15006KT 9999 OVC034 25/24 Q1007
METAR ROMY 062300Z 19008KT 9999 FEW018 SCT050 BKN120 25/24 Q1009
METAR ROMY 062200Z AUTO 19009KT 9999 FEW018 BKN050 OVC180 24/24 Q1009
METAR ROMY 062100Z AUTO 19009KT 9999 SCT004 BKN040 BKN042 24/24 Q1008
METAR ROMY 062000Z AUTO 20009KT 9999 FEW005 SCT011 BKN019 24/24 Q1008
METAR ROMY 061900Z AUTO 21013KT 9999 FEW005 BKN007 BKN009 24/24 Q1008
METAR ROMY 061800Z AUTO 20015KT 9999 FEW005 BKN007 OVC018 24/24 Q1008
METAR RORS 062300Z AUTO 18005KT 9999 FEW048 SCT050 BKN120 25/24 Q1009
METAR RORS 062200Z AUTO 18005KT 9000 FEW010 SCT026 BKN050 25/24 Q1009
METAR RORS 062100Z AUTO 19006KT 160V220 9999 FEW017 BKN050 BKN190 25/24 Q1008
METAR RORS 062000Z AUTO 19007KT 9999 FEW037 SCT044 BKN050 25/24 Q1007
METAR RORS 061900Z AUTO 21007KT 170V250 9999 FEW009 SCT018 BKN029 25/24 Q1008
METAR RORS 061800Z AUTO 20006KT 160V230 9999 OVC010 25/24 Q1008
SPECI RJTY 062220Z 01005KT 3SM BR SCT005 BKN120 BKN200 14/13 A2970 RMK AO2A TWR VIS 2 SLP060 $
METAR RJTY 062155Z 34007KT 7SM BR SCT005 BKN120 BKN200 14/13 A2972 RMK AO2A SLP067 T01440128 $
METAR RJTY 062055Z 00000KT 6SM BR FEW050 BKN120 14/12 A2974 RMK AO2A SLP074 T01390118 56021
METAR RJTY 061955Z 00000KT 4SM BR BKN100 13/12 A2974 RMK AO2A SLP074 T01320116
METAR RJCC 062330Z 18018KT 7000 -SHRA FEW002 BKN005 BKN007 08/07 Q0997
METAR ROAH 062330Z 25015KT 6000 SHRA FEW005 SCT012 FEW020CB BKN050 23/22 Q1009
METAR RJFF 062330Z 36008KT 310V070 CAVOK 15/03 Q1011 NOSIG
METAR RJBB 062330Z 23009KT 9999 FEW015 SCT070 BKN120 17/14 Q1007 NOSIG
METAR RJGG 062330Z VRB01KT 4500 -RA BR FEW020 BKN060 BKN080 15/14 Q1005 NOSIG
METAR RJTT 062330Z 20017KT 9999 FEW020 BKN120 18/14 Q1003 NOSIG
METAR RJAA 062330Z 19012KT 9999 -SHRA FEW030 BKN100 18/13 Q1003 TEMPO 4000 -RA BR
METAR RJOI 062356Z 05006KT 10SM FEW020 SCT070 BKN210 14/07 A2982 RMK AO2 SLP098 60002 T01440072 10178 20128 51016 $
SPECI RODN 062336Z 26012KT 8SM OVC007 BR 23/22 A2982 RMK AO2A LTG DSNT SE-S RAE2255RAB2255E2257RAB19E29DZB29E36 SLP099 FZRANO $
SPECI RODN 062333Z 26014G20KT 4SM -RA BR OVC007 23/22 A2982 RMK AO2A LTG DSNT SE-S RAE2255RAB2255E2257RAB19E29DZB29 SLP099 FZRANO $
METAR RODN 062255Z COR 24016G24KT 3SM VCTS RA BKN010 22/21 A2980 RMK AO2A PK WND 30032/17 LTG DSNT SW RAB2157E07DZB08E11RAB11E12DZB12E16RAB16E41 TSB16E42 SLP093 P0089 T02230213 FZRANO $ COR 2323
METAR ROTM 062356Z 28010KT 3SM VCTS RA BR BKN005 OVC011 22/22 A2984 RMK AO2 TSE40 CIG 003V007 SLP089 L5 END T1 WND WRNG XWND ADV P0009 60040 T02220217 10239 20222 53020 $
SPECI ROTM 062346Z 26011KT 3SM VCTS RA BR BKN005 OVC011 22/22 A2983 RMK AO2 TSE40 CIG 003V009 L5 END T1 WND WRNG XWND ADV P0009 T02220217 $
METAR RJTF 062330Z 35003KT 310V020 5000 BR FEW030 BKN140 BKN170 17/14 Q1003
METAR RJTI 062330Z 18014KT 9999 FEW050 OVC120 17/14 Q1003
