TAF AMD ROIG 060009Z 0600/0706 19016KT 8000 -SHRA FEW008 BKN015 
  TEMPO 0600/0603 19018G28KT 3000 +TSRA BR FEW006 BKN008 SCT020CB 
  TEMPO 0603/0615 20020G30KT 
  TEMPO 0615/0621 21020G30KT FEW006 BKN008 
  BECMG 0703/0706 26010KT
TAF RJOA 052305Z 0600/0706 22006KT 9999 FEW030 
  BECMG 0618/0621 32016KT
TAF RJOB 052305Z 0600/0706 20006KT 9999 FEW030 
  BECMG 0608/0610 35004KT
TAF RORS 052305Z 0600/0706 18014KT 9999 FEW008 BKN015 
  TEMPO 0600/0601 FEW006 BKN008 
  TEMPO 0601/0604 4000 SHRA BR FEW006 BKN008 FEW020CB 
  TEMPO 0618/0700 FEW006 BKN008 
  BECMG 0703/0706 24010KT
TAF RJOH 052305Z 0600/0706 22006KT 9999 FEW030 
  BECMG 0700/0703 31010KT
TAF RJOC 052305Z 0600/0706 24006KT 9999 FEW030 
  BECMG 0700/0703 33014KT 
  TEMPO 0700/0706 33016G26KT=
