METAR ROAH 080230Z 07013KT 9999 FEW030 23/15 Q1017
METAR ROAH 080200Z 07013KT 9999 FEW025 24/16 Q1017
METAR ROAH 080130Z 07012KT CAVOK 23/16 Q1017
METAR ROAH 080100Z 08014KT 9999 FEW025 SCT080 22/15 Q1017
METAR ROAH 080030Z 07011KT 9999 FEW025 BKN080 22/15 Q1017
METAR ROAH 080000Z 07011KT 9999 FEW025 BKN080 21/15 Q1017
METAR RJAA 080230Z VRB06KT 9999 FEW040 14/00 Q1018 BECMG 32006KT
METAR RJAA 080200Z 33005KT 270V040 9999 FEW030 13/M02 Q1018 NOSIG
METAR RJAA 080130Z 32006KT 240V020 9999 FEW030 13/M00 Q1018 NOSIG
METAR RJAA 080100Z 32008KT 270V350 9999 FEW030 13/M01 Q1018 NOSIG
METAR RJAA 080030Z 30009KT 270V340 9999 FEW030 12/M01 Q1018 NOSIG
METAR RJAA 080000Z 31011KT 280V340 9999 FEW030 12/M02 Q1018 NOSIG
METAR RJCC 080230Z VRB05KT 9999 FEW050 10/M04 Q1011
METAR RJCC 080200Z VRB04G15KT 9999 FEW050 11/M02 Q1011
METAR RJCC 080130Z 36003KT 250V060 9999 FEW050 09/M03 Q1011
METAR RJCC 080100Z 31008KT 260V350 9999 FEW030 09/M02 Q1011
METAR RJCC 080030Z 32015KT 9999 FEW030 09/M02 Q1011
METAR RJCC 080000Z 32016KT 9999 FEW020 SCT035 08/M01 Q1011
METAR RJFF 080230Z VRB02KT CAVOK 16/M02 Q1020 BECMG 33006KT
METAR RJFF 080200Z VRB04KT CAVOK 15/M02 Q1020 BECMG 33006KT
METAR RJFF 080130Z VRB02KT CAVOK 16/M01 Q1021 NOSIG
METAR RJFF 080100Z VRB02KT CAVOK 14/M02 Q1021 NOSIG
METAR RJFF 080030Z VRB02KT CAVOK 14/M01 Q1021 NOSIG
METAR RJFF 080000Z 17004KT 090V220 CAVOK 13/M01 Q1021 NOSIG
METAR RJBB 080230Z 34006KT 280V360 9999 FEW030 12/03 Q1021 BECMG 31008KT
METAR RJBB 080200Z 34006KT 9999 FEW030 12/02 Q1021 NOSIG
METAR RJBB 080130Z 35007KT 9999 FEW030 11/02 Q1022 NOSIG
METAR RJBB 080100Z 34006KT 320V030 9999 FEW030 11/02 Q1022 NOSIG
METAR RJBB 080030Z 35006KT 9999 FEW025 11/02 Q1022 NOSIG
METAR RJBB 080000Z 02005KT 9999 FEW025 11/01 Q1022 NOSIG
METAR RJGG 080230Z 33007KT 9999 FEW030 14/02 Q1019 NOSIG
METAR RJGG 080200Z 34010KT 9999 FEW030 14/02 Q1020 NOSIG
METAR RJGG 080130Z 34011KT 9999 FEW030 14/01 Q1020 NOSIG
METAR RJGG 080100Z 34013KT 9999 FEW030 14/02 Q1020 NOSIG
METAR RJGG 080030Z 34013KT 9999 FEW030 13/01 Q1020 NOSIG
METAR RJGG 080000Z 33014KT 9999 FEW030 12/01 Q1020 NOSIG
METAR RJTT 080230Z 35013KT 9999 FEW030 16/M02 Q1018 NOSIG
METAR RJTT 080200Z 35013KT 9999 FEW030 15/M03 Q1018 NOSIG
METAR RJTT 080130Z 34015KT 9999 FEW030 15/M03 Q1018 NOSIG
METAR RJTT 080100Z 34017G27KT 9999 FEW030 14/M01 Q1018 NOSIG
METAR RJTT 080030Z 32020KT 9999 FEW030 14/M04 Q1018 NOSIG
METAR RJTT 080000Z 32021KT CAVOK 14/M03 Q1018 NOSIG
METAR RJNW 080200Z VRB02KT 9999 FEW045 SCT050 11/00 Q1021
METAR RJNW 080100Z VRB04KT 9999 FEW040 SCT045 10/M02 Q1021
METAR RJNW 080000Z VRB04KT 9999 FEW040 SCT045 09/M02 Q1021
METAR RJOO 080200Z VRB05KT 9999 FEW040 14/01 Q1021
METAR RJOO 080100Z VRB06KT 9999 FEW040 13/M00 Q1021
METAR RJOO 080000Z VRB02KT 9999 FEW035 11/M00 Q1021
METAR RJSN 080200Z 30009KT 9999 FEW040 12/00 Q1021
METAR RJSN 080100Z 29009KT 9999 FEW040 11/00 Q1020
METAR RJSN 080000Z 29010KT 9999 FEW030 11/M00 Q1020
METAR RJNK 080200Z 35010KT 9999 FEW030 12/M00 Q1021
METAR RJNK 080100Z 01009KT 330V050 9999 FEW030 12/M00 Q1022
METAR RJNK 080000Z 05007KT 010V080 9999 FEW030 SCT050 11/00 Q1021
METAR RJNS 080200Z 16007KT 110V240 9999 FEW035 15/05 Q1018
METAR RJNS 080100Z VRB05KT 9999 FEW035 14/03 Q1018
METAR RJNS 080000Z 11003KT 060V200 9999 FEW030 13/03 Q1017
METAR RJNT 080200Z VRB05KT 9999 FEW030 13/M01 Q1021
METAR RJNT 080100Z VRB05KT 9999 FEW030 12/M01 Q1022
METAR RJNT 080000Z VRB03KT 9999 FEW030 10/M01 Q1021
METAR RJOC 080200Z 02004KT 9999 FEW030 13/02 Q1021
METAR RJOC 080100Z 36005KT 9999 FEW030 12/03 Q1022
METAR RJOC 080000Z 14004KT 120V180 9999 FEW025 10/03 Q1021
METAR RJOM 080200Z 36015KT CAVOK 13/02 Q1021
METAR RJOM 080100Z 33006KT 270V360 CAVOK 12/03 Q1021
METAR RJOM 080000Z 33003KT 290V360 9999 FEW025 11/M01 Q1021
METAR RJOH 080200Z VRB02KT 9999 FEW030 14/02 Q1022
METAR RJOH 080100Z 06006KT 010V090 9999 FEW030 13/02 Q1022
METAR RJOH 080000Z 19003KT 110V240 9999 FEW030 11/03 Q1022
METAR RJOK 080200Z 18009KT CAVOK 15/M00 Q1020
METAR RJOK 080100Z VRB02KT CAVOK 15/M04 Q1020
METAR RJOK 080000Z 35010KT CAVOK 14/M02 Q1020
METAR RJOB 080200Z VRB03KT 9999 FEW030 13/00 Q1020
METAR RJOB 080100Z VRB04KT 9999 FEW030 11/01 Q1021
METAR RJOB 080000Z VRB03KT 9999 FEW030 09/M00 Q1021
METAR RJOA 080200Z VRB04KT CAVOK 11/00 Q1021
METAR RJOA 080100Z 14006KT 050V190 CAVOK 10/M00 Q1021
METAR RJOA 080000Z 15006KT 100V200 CAVOK 09/M02 Q1021
METAR RJOI 080156Z 14004KT 9999 SKC 12/00 A3018 RMK AO2A SLP221 T01220000
METAR RJOI 080056Z VRB03KT 10SM CLR 12/M01 A3020 RMK AO2 SLP225 T01171011 $
METAR RJSC 080200Z 27010KT 240V320 9999 FEW060 11/M02 Q1018
METAR RJSC 080100Z 28009KT 220V330 9999 FEW050 11/00 Q1018
METAR RJSC 080000Z 29007KT 240V330 9999 FEW050 SCT060 10/M03 Q1017
METAR RJOR 080200Z 02007KT 9999 FEW030 12/01 Q1022
METAR RJOR 080100Z 36005KT 9999 FEW035 12/00 Q1022
METAR RJOR 080000Z 10004KT 050V140 9999 FEW035 11/M02 Q1022
METAR RJOY 080200Z 04007KT 330V100 9999 FEW030 13/M00 Q1021
METAR RJOY 080100Z 06006KT 360V120 9999 FEW030 12/M00 Q1021
METAR RJOY 080000Z VRB04KT 9999 FEW030 11/00 Q1021
METAR RJOS 080200Z 33008KT 300V010 9999 NSC 12/M02 Q1022
METAR RJOS 080100Z 34010KT 310V010 9999 FEW030 13/M01 Q1022
METAR RJOS 080000Z 36008KT 320V030 9999 FEW030 12/M01 Q1022
METAR RJOT 080200Z 03006KT 320V100 CAVOK 12/M00 Q1021
METAR RJOT 080100Z VRB03KT 9999 FEW030 11/M00 Q1021
METAR RJOT 080000Z VRB03KT 9999 FEW030 10/M01 Q1021
METAR RJOW 080200Z 02008KT CAVOK 13/M02 Q1021
METAR RJOW 080100Z 33005KT 290V020 CAVOK 13/M01 Q1021
METAR RJOW 080000Z 16004KT 120V190 CAVOK 12/00 Q1021
METAR RJSA 080200Z 27015KT 250V310 9999 FEW030 07/M01 Q1016
METAR RJSA 080100Z 27017KT 9999 FEW025 SCT035 07/01 Q1015
METAR RJSA 080000Z 27014KT 9999 FEW030 SCT040 07/00 Q1014
METAR RJSR 080200Z 27015KT 9999 FEW030 SCT040 09/01 Q1017
METAR RJSR 080100Z 26012KT 210V300 9999 FEW025 SCT040 08/00 Q1017
METAR RJSR 080000Z 27012KT 9999 FEW020 SCT040 08/01 Q1016
METAR RJSS 080200Z 28018KT 9999 FEW050 14/M04 Q1016
METAR RJSS 080100Z 31013KT 260V350 9999 FEW050 12/M04 Q1017
METAR RJSS 080000Z 31015KT 9999 FEW050 11/M04 Q1016
METAR RJSF 080200Z 32013G24KT 270V350 9999 FEW050 11/M03 Q1017
METAR RJSF 080100Z 32016G26KT 300V360 9999 FEW050 10/M04 Q1017
METAR RJSF 080000Z 31017G31KT 270V340 9999 FEW045 09/M03 Q1016
METAR RJSI 080200Z 30010G20KT 270V330 9999 FEW045 12/M01 Q1016
METAR RJSI 080100Z 29009KT 250V340 9999 FEW040 SCT045 09/M00 Q1016
METAR RJSI 080000Z 30009G19KT 230V360 9999 VCSH FEW035 SCT045 08/M01 Q1016
METAR RJSM 080200Z 29018G30KT 260V320 9999 FEW030 12/M03 Q1015
METAR RJSM 080100Z 29020KT 9999 FEW030 11/M02 Q1014
METAR RJSM 080000Z 28022KT 9999 FEW015 SCT030 09/01 Q1013
METAR RJSK 080200Z 28015KT 250V320 9999 FEW030 BKN040 09/M00 Q1018
METAR RJSK 080100Z 30016KT 9999 FEW030 BKN040 08/M01 Q1018
METAR RJSK 080000Z 31016KT 9999 FEW030 08/M01 Q1017
METAR RJTF 080200Z 34007KT 280V030 9999 FEW030 17/M05 Q1018
METAR RJTF 080100Z 35009KT 260V060 9999 FEW030 16/M03 Q1018
METAR RJTF 080000Z 35011KT 300V020 9999 FEW030 13/M05 Q1018
METAR RJSY 080200Z 29011KT 9999 FEW030 SCT045 11/02 Q1020
METAR RJSY 080100Z 29012KT 9999 FEW030 BKN045 10/M00 Q1020
METAR RJSY 080000Z 28015KT 9999 FEW030 BKN045 10/M02 Q1019
METAR RJTI 080200Z 32011G24KT 220V010 CAVOK 15/M06 Q1018
METAR RJTI 080100Z 32012G23KT 270V050 CAVOK 14/M04 Q1018
METAR RJTI 080000Z 29014G24KT 230V330 CAVOK 13/M04 Q1018
METAR RJTO 080200Z 05009KT 010V090 CAVOK 15/00 Q1018
METAR RJTO 080100Z 03010KT 340V060 9999 FEW030 16/01 Q1018
METAR RJTO 080000Z 03013KT 9999 FEW030 14/M01 Q1018
METAR RORS 080200Z 09016KT 9999 FEW030 BKN060 25/17 Q1016
METAR RORS 080100Z 08015KT 9999 FEW028 SCT045 BKN060 24/16 Q1016
METAR RORS 080000Z AUTO 07014KT 9999 OVC046 23/17 Q1016
METAR ROMY 080200Z 08016KT 9999 FEW023 BKN060 24/18 Q1016
METAR ROMY 080100Z 07013KT 9999 FEW025 BKN045 23/17 Q1017
METAR ROMY 080000Z 07013KT 030V100 9999 FEW025 BKN045 22/17 Q1016
METAR ROIG 080200Z 08014KT 9999 SCT019 BKN026 23/19 Q1016
METAR ROIG 080100Z 07016KT 9999 BKN018 BKN022 23/19 Q1016
METAR ROIG 080000Z 07016KT 9999 BKN018 BKN022 22/19 Q1016
METAR ROYN 080200Z AUTO 08014KT 9999 FEW022 OVC046 25/20 Q1016
METAR ROYN 080100Z AUTO 09014KT 9999 FEW024 BKN034 OVC044 24/20 Q1016
METAR ROYN 080000Z AUTO 08015KT 9999 BKN022 OVC029 23/20 Q1015
METAR ROTM 080156Z 05014KT 10SM CLR 22/14 A3007 RMK AO2 SLP170 T02220139 $
METAR ROTM 080056Z 07012KT 10SM FEW025 BKN070 22/14 A3007 RMK AO2 SLP171 T02170144 $
METAR RJTY 080155Z AUTO 03005KT 10SM CLR 16/M07 A3011 RMK AO2 SLP200 T01571066 $
METAR RJTY 080055Z 01014G18KT 10SM CLR 15/M07 A3012 RMK AO2A SLP204 T01471074 $
METAR RODN 080152Z 07009KT 10SM FEW180 23/14 A3006 RMK SLP181 T02300143 FZRANO $
METAR RODN 080055Z 07011KT 10SM FEW080 22/14 A3006 RMK AO2A SLP181 T02230141 FZRANO $
METAR RJSA 080400Z 27016KT 9999 FEW030 10/M02 Q1015
METAR RJSA 080300Z 28013KT 240V310 9999 FEW030 09/M02 Q1015
METAR RJCH 080400Z 29013KT 9999 FEW030 12/M04 Q1014
METAR RJCH 080300Z 28014KT 9999 FEW030 12/M03 Q1014
METAR RJCH 080200Z 28015KT 260V320 9999 FEW030 11/M03 Q1014
METAR RJCH 080100Z 27014KT 9999 FEW020 10/M01 Q1014
METAR RJCH 080000Z 28017KT 9999 FEW020 08/M02 Q1013
METAR RJCM 080400Z 27009KT 200V360 CAVOK 11/M08 Q1006
METAR RJCM 080300Z 28009G19KT 220V340 CAVOK 11/M09 Q1006
METAR RJCM 080200Z 30008G19KT 240V340 9999 FEW040 10/M05 Q1006
METAR RJCM 080100Z 31009KT 260V360 9999 FEW040 09/M05 Q1006
METAR RJCM 080000Z 32011G21KT 270V360 9999 FEW040 07/M07 Q1006
METAR RJCC 080400Z 28012KT 210V340 9999 FEW030 13/M05 Q1010
METAR RJCC 080330Z VRB05KT 9999 FEW030 13/M05 Q1011
METAR RJCC 080300Z VRB04KT 9999 FEW030 SCT060 10/M05 Q1011
METAR RJCK 080400Z 26016KT 9999 FEW050 11/M06 Q1007
METAR RJCK 080300Z 24005KT 170V320 9999 FEW050 SCT080 10/M05 Q1007
METAR RJCK 080200Z 29008KT 180V360 9999 FEW050 SCT060 09/M04 Q1007
METAR RJCK 080100Z 31005KT 270V360 9999 FEW040 SCT050 08/M03 Q1007
METAR RJCK 080000Z 26008KT 210V310 9999 FEW030 SCT040 06/M03 Q1006
METAR RJCN 080400Z 29007KT 220V350 9999 FEW030 SCT080 11/M07 Q1006
METAR RJCN 080300Z 28010KT 220V350 9999 FEW020 SCT060 10/M08 Q1006
METAR RJCN 080200Z 31009KT 240V340 9999 FEW020 08/M09 Q1006
METAR RJCN 080100Z 30013KT 260V350 9999 FEW020 07/M06 Q1006
METAR RJCN 080000Z 29011G22KT 250V330 9999 FEW015 SCT040 BKN/// 06/M04 Q1005
METAR RJCB 080400Z 30014KT 260V330 9999 FEW040 SCT060 11/M07 Q1009
METAR RJCB 080300Z 28010KT 230V320 9999 FEW030 10/M05 Q1009
METAR RJCB 080200Z 32020KT 9999 FEW030 09/M05 Q1009
METAR RJCB 080100Z 34014KT 9999 FEW030 08/M04 Q1008
METAR RJCB 080000Z 32017KT 9999 FEW030 07/M04 Q1007
METAR RJCW 080400Z 24022KT 9999 FEW030 SCT/// 09/00 Q1004
METAR RJCW 080300Z 24023KT 9999 FEW030 09/01 Q1005
METAR RJCW 080200Z 24024KT 9999 FEW030 SCT/// 08/01 Q1005
METAR RJCW 080100Z 24024KT 9999 FEW030 SCT100 08/M00 Q1005
METAR RJCW 080000Z 26021KT 9999 FEW030 07/M01 Q1005
METAR RJCO 080400Z 30013KT 9999 FEW030 12/M05 Q1010
METAR RJCO 080300Z 32014G28KT 9999 FEW030 11/M05 Q1011
METAR RJCO 080200Z 30014KT 270V330 9999 FEW030 10/M03 Q1011
METAR RJCO 080100Z 31012KT 280V350 9999 FEW030 09/M02 Q1011
METAR RJCO 080000Z 31015KT 9999 FEW040 06/M02 Q1011
METAR RJEB 080400Z 26018G29KT 9999 FEW030 10/M04 Q1005
METAR RJEB 080300Z 26017G28KT 220V300 9999 FEW030 10/M03 Q1005
METAR RJEB 080200Z 26017KT 9999 FEW020 09/M05 Q1005
METAR RJEB 080100Z 26019KT 230V290 9999 FEW020 08/M03 Q1006
METAR RJEB 080000Z 27017KT 9999 FEW020 06/M03 Q1006
METAR RJEC 080400Z 27015G25KT 240V300 9999 FEW030 SCT040 09/M01 Q1009
METAR RJEC 080300Z 26012KT 220V310 9999 FEW030 SCT040 08/M01 Q1009
METAR RJEC 080200Z 24010KT 200V300 9999 FEW025 BKN040 07/M01 Q1009
METAR RJEC 080100Z 29010KT 230V340 9999 FEW020 BKN030 05/M02 Q1010
METAR RJEC 080000Z 32007KT 280V350 9999 FEW020 BKN030 03/M03 Q1009
METAR RJSM 080400Z 28014KT 260V320 9999 FEW030 13/M03 Q1015
METAR RJSM 080300Z 28015G25KT 250V320 9999 FEW030 12/M04 Q1015
METAR RJSN 080400Z 33007KT 290V360 9999 FEW040 11/00 Q1020
METAR RJSN 080300Z 31007KT 280V340 9999 FEW040 12/00 Q1020
METAR RJSC 080400Z 26010KT 220V290 9999 FEW050 13/M02 Q1018
METAR RJSC 080300Z 26012KT 9999 FEW050 12/M02 Q1017
METAR RJSK 080400Z 27013KT 210V290 9999 FEW030 BKN040 11/00 Q1018
METAR RJSK 080300Z 27015KT 9999 FEW030 BKN040 09/00 Q1018
METAR RJSF 080400Z 30013KT 260V350 9999 FEW050 12/M06 Q1017
METAR RJSF 080300Z 31012KT 270V360 9999 FEW050 11/M06 Q1017
METAR RJTT 080400Z 01011KT 9999 FEW030 17/M04 Q1018 BECMG FM0500 10008KT
METAR RJTT 080330Z 36012KT 9999 FEW030 17/M03 Q1018 NOSIG
METAR RJTT 080300Z 35015KT 9999 FEW030 16/M01 Q1018 NOSIG
METAR RJSR 080400Z 28011KT 250V320 9999 FEW030 SCT045 10/M00 Q1017
METAR RJSR 080300Z 28013KT 9999 FEW030 SCT045 10/00 Q1017
METAR RJSS 080400Z 27014KT 230V290 9999 FEW040 15/M06 Q1017
METAR RJSS 080300Z 29015KT 9999 FEW040 15/M05 Q1016
METAR RJAA 080400Z 34007KT 300V020 9999 FEW040 16/00 Q1018 NOSIG
METAR RJAA 080330Z 30007KT 250V360 9999 FEW040 15/00 Q1018 NOSIG
METAR RJAA 080300Z VRB06KT 9999 FEW040 14/M00 Q1018 BECMG 32005KT
METAR RJAH 080400Z VRB06KT 9999 FEW030 17/M02 Q1017
METAR RJAH 080300Z 21007KT 170V250 9999 FEW030 15/M02 Q1018
METAR RJAH 080200Z 21008KT 9999 FEW030 15/M00 Q1018
METAR RJAH 080100Z 24006KT 190V290 9999 FEW030 14/M00 Q1018
METAR RJAH 080000Z 30003KT 210V340 9999 FEW030 12/M01 Q1017
METAR RJTF 080400Z VRB06KT 9999 FEW030 19/M04 Q1017
METAR RJTF 080300Z 34010KT 9999 FEW030 17/M05 Q1018
METAR RJTO 080400Z VRB02KT 9999 FEW040 16/02 Q1018
METAR RJTO 080300Z 04008KT 010V080 CAVOK 15/M00 Q1018
METAR RJSI 080400Z 26011G21KT 210V300 9999 FEW050 12/M03 Q1016
METAR RJSI 080300Z 29013KT 260V330 9999 FEW050 12/M01 Q1016
METAR RJTY 080355Z AUTO 10004KT 10SM CLR 17/M05 A3009 RMK AO2 SLP194 T01721053 $
METAR RJNK 080400Z 33010KT 9999 FEW030 13/01 Q1020
METAR RJNK 080300Z 33010KT 9999 FEW030 13/02 Q1020
METAR RJAF 080400Z VRB03KT 9999 FEW040 11/M06 Q1017
METAR RJAF 080300Z VRB04KT 9999 FEW035 09/M06 Q1018
METAR RJAF 080200Z 33006KT 290V030 9999 FEW035 08/M05 Q1019
METAR RJAF 080100Z 35005KT 300V030 9999 FEW035 06/M05 Q1020
METAR RJAF 080000Z VRB03KT 9999 FEW035 06/M04 Q1019
METAR RJGG 080400Z 30006KT 9999 FEW030 15/01 Q1018 BECMG FM0430 TL0530 20005KT
METAR RJGG 080330Z 31007KT 9999 FEW030 15/03 Q1018 BECMG FM0400 TL0500 20005KT
METAR RJGG 080300Z 30007KT 9999 FEW030 14/04 Q1019 BECMG FM0430 24005KT
METAR RJNW 080400Z 22005KT 130V280 CAVOK 13/00 Q1019
METAR RJNW 080300Z 07007KT 040V100 9999 FEW045 SCT050 10/M01 Q1020
METAR RJNT 080400Z 01007KT 290V070 9999 FEW030 13/M04 Q1020
METAR RJNT 080300Z VRB03KT 9999 FEW030 12/M04 Q1021
METAR RJNS 080400Z 15011KT 120V200 9999 FEW035 16/05 Q1018
METAR RJNS 080300Z 13010KT 110V190 9999 FEW035 16/05 Q1018
METAR RJTR 080355Z AUTO 18006KT 10SM CLR 18/M06 A3006 RMK AO2 SLP182 T01771056 $
METAR RJTR 080255Z AUTO 05004KT 10SM CLR 17/M06 A3007 RMK AO2 SLP185 T01731059 58001 $
METAR RJTR 080155Z AUTO 34006KT 10SM CLR 16/M05 A3007 RMK AO2 SLP185 T01631055 $
METAR RJTR 080055Z AUTO 35007KT 10SM CLR 15/M06 A3008 RMK AO2 SLP189 T01531063 $
METAR RJBD 080400Z 31013KT CAVOK 16/05 Q1018
METAR RJBD 080300Z 30012KT 270V340 CAVOK 16/02 Q1019
METAR RJBD 080200Z 31009KT 270V330 CAVOK 15/00 Q1019
METAR RJBD 080100Z 33006KT 270V010 CAVOK 14/M00 Q1019
METAR RJBD 080000Z 36009KT 310V040 9999 FEW030 12/M00 Q1020
METAR RJOR 080400Z 04011KT 9999 FEW030 13/02 Q1020
METAR RJOR 080300Z 02009KT 9999 FEW030 13/01 Q1021
METAR RJDC 080400Z 09008KT CAVOK 14/02 Q1020
METAR RJDC 080300Z 10007KT CAVOK 13/04 Q1021
METAR RJDC 080200Z 11006KT CAVOK 12/05 Q1021
METAR RJDC 080100Z 10006KT CAVOK 12/06 Q1022
METAR RJDC 080000Z 09006KT CAVOK 11/05 Q1021
METAR RJOY 080400Z 29006KT 260V330 CAVOK 15/M01 Q1020
METAR RJOY 080300Z VRB02KT 9999 FEW030 15/01 Q1020
METAR RJBE 080400Z 26010KT CAVOK 14/02 Q1020
METAR RJBE 080300Z 25008KT 9999 FEW040 13/02 Q1021
METAR RJBE 080200Z 20005KT 160V230 9999 FEW040 12/02 Q1021
METAR RJBE 080100Z 20005KT 160V240 9999 FEW040 12/01 Q1022
METAR RJBE 080000Z 18005KT 9999 FEW035 11/01 Q1021
METAR RJOB 080400Z 14007KT 090V220 CAVOK 15/M00 Q1019
METAR RJOB 080300Z VRB03KT CAVOK 14/01 Q1020
METAR RJBT 080400Z VRB04KT 9999 FEW035 15/M00 Q1019
METAR RJBT 080300Z 27004KT 160V330 9999 FEW035 15/01 Q1020
METAR RJBT 080200Z VRB05KT 9999 FEW035 12/M01 Q1021
METAR RJBT 080100Z 02004KT 290V080 9999 FEW035 10/M01 Q1022
METAR RJBT 080000Z 04003KT 350V100 9999 FEW030 SCT035 09/M01 Q1022
METAR RJOH 080400Z 06012KT 9999 NSC 14/03 Q1020
METAR RJOH 080300Z 06008KT 020V090 9999 FEW050 14/03 Q1021
METAR RJOA 080400Z 13006KT 060V210 CAVOK 14/00 Q1019
METAR RJOA 080300Z VRB05KT CAVOK 12/M01 Q1020
METAR RJOO 080400Z VRB04KT 9999 FEW030 17/00 Q1019
METAR RJOO 080300Z 09004KT 360V150 9999 FEW040 15/M00 Q1020
METAR RJBB 080400Z 30008KT 260V340 CAVOK 13/04 Q1020 NOSIG
METAR RJBB 080330Z 31007KT CAVOK 13/04 Q1021 NOSIG
METAR RJBB 080300Z 31007KT 9999 FEW030 12/03 Q1021 NOSIG
METAR RJOC 080400Z 03006KT CAVOK 15/M00 Q1019
METAR RJOC 080300Z 04007KT CAVOK 14/M00 Q1020
METAR RJOI 080356Z 18008KT 10SM CLR 14/02 A3015 RMK AO2 SLP207 T01390017 $
METAR RJOI 080256Z COR 20007KT 9999 SKC 13/01 A3016 RMK AO2A SLP213 T01330006 58008
METAR RJFU 080400Z 30003KT CAVOK 18/M06 Q1019
METAR RJFU 080300Z VRB03KT CAVOK 17/M05 Q1020
METAR RJFU 080200Z 27005KT CAVOK 15/M00 Q1021
METAR RJFU 080100Z 30004KT CAVOK 13/M01 Q1021
METAR RJFU 080000Z 26003KT CAVOK 12/01 Q1021
METAR RJFT 080400Z 23006KT 160V290 CAVOK 18/M03 Q1019
METAR RJFT 080300Z 25006KT 210V360 CAVOK 17/M07 Q1020
METAR RJFT 080200Z 22006KT 160V270 CAVOK 16/M04 Q1020
METAR RJFT 080100Z VRB04KT CAVOK 14/M03 Q1020
METAR RJFT 080000Z 20003KT 120V260 CAVOK 12/M07 Q1020
METAR RJFS 080400Z 21005KT CAVOK 16/M00 Q1019
METAR RJFS 080300Z 24007KT CAVOK 15/02 Q1020
METAR RJFS 080200Z VRB02KT CAVOK 14/02 Q1021
METAR RJFS 080100Z 01005KT 330V070 CAVOK 14/01 Q1021
METAR RJFS 080000Z 01005KT 340V060 CAVOK 11/02 Q1021
METAR RJFR 080400Z 09006KT 060V140 CAVOK 13/06 Q1020
METAR RJFR 080300Z 07004KT CAVOK 13/05 Q1021
METAR RJFR 080200Z 12005KT 090V170 CAVOK 12/05 Q1021
METAR RJFR 080100Z 13006KT 100V170 CAVOK 12/04 Q1022
METAR RJFR 080000Z 14006KT CAVOK 11/03 Q1021
METAR RJFF 080400Z VRB03KT CAVOK 19/M05 Q1019 BECMG 33006KT
METAR RJFF 080330Z 27003KT 200V310 CAVOK 18/M03 Q1019 BECMG 33010KT
METAR RJFF 080300Z VRB02KT CAVOK 17/M03 Q1020 BECMG 33006KT
METAR RJFO 080400Z 12003KT 080V170 CAVOK 13/00 Q1020
METAR RJFO 080300Z 11003KT 360V180 CAVOK 13/02 Q1021
METAR RJFO 080200Z 06004KT 020V090 CAVOK 12/00 Q1022
METAR RJFO 080100Z 07005KT CAVOK 12/02 Q1022
METAR RJFO 080000Z 05004KT 010V090 CAVOK 12/01 Q1021
METAR RJFM 080400Z 03005KT 350V070 9999 FEW030 16/06 Q1020
METAR RJFM 080300Z 06005KT 020V100 9999 FEW030 16/05 Q1021
METAR RJFM 080200Z 05008KT 020V090 9999 FEW030 15/02 Q1022
METAR RJFM 080100Z 03010KT 9999 FEW030 14/M00 Q1022
METAR RJFM 080000Z 03005KT 340V070 9999 FEW030 13/M00 Q1021
METAR RJFK 080400Z 18005KT 090V270 CAVOK 17/M05 Q1019
METAR RJFK 080300Z 15006KT 070V220 CAVOK 17/M05 Q1020
METAR RJFK 080200Z 10009KT 070V150 CAVOK 16/M05 Q1020
METAR RJFK 080100Z 10009KT 070V130 CAVOK 15/M04 Q1021
METAR RJFK 080000Z 12006KT 080V140 CAVOK 12/M02 Q1020
METAR RJOW 080400Z 32007KT 280V350 CAVOK 14/02 Q1020
METAR RJOW 080300Z 02008KT CAVOK 13/01 Q1020
METAR RJOT 080400Z 06010KT 030V100 CAVOK 15/01 Q1020
METAR RJOT 080300Z 04007KT 310V080 CAVOK 14/01 Q1021
METAR RJOS 080400Z 01007KT 340V050 9999 NSC 15/M01 Q1021
METAR RJOS 080300Z 35007KT 300V030 9999 NSC 14/M01 Q1021
METAR RJOM 080400Z 36012KT CAVOK 14/02 Q1020
METAR RJOM 080300Z 36012KT CAVOK 14/02 Q1020
METAR RJOK 080400Z 18010KT CAVOK 16/06 Q1020
METAR RJOK 080300Z 18011KT CAVOK 16/03 Q1020
METAR ROMY 080400Z 07017KT 9999 SCT022 BKN060 25/19 Q1015
METAR ROMY 080300Z 08016G26KT 020V100 9999 SCT020 BKN060 24/18 Q1016
METAR RJFE 080400Z 14007KT 060V210 CAVOK 16/02 Q1019
METAR RJFE 080300Z 16009KT 120V200 CAVOK 16/02 Q1020
METAR RJFE 080200Z 16007KT 110V210 CAVOK 15/03 Q1020
METAR RJFE 080100Z 10005KT 040V190 CAVOK 15/03 Q1021
METAR RJFE 080000Z 05004KT 350V150 CAVOK 14/04 Q1020
METAR RJFG 080400Z 09009KT 060V130 9999 FEW030 SCT/// 16/05 Q1020
METAR RJFG 080300Z 09008KT 020V140 9999 FEW030 17/05 Q1020
METAR RJFG 080200Z 06010KT 360V110 9999 FEW030 16/05 Q1020
METAR RJFG 080100Z 07009KT 020V140 9999 FEW020 15/05 Q1020
METAR RJFG 080000Z 07008KT 010V130 9999 FEW020 15/06 Q1020
METAR ROMD 080400Z AUTO 05010KT 9999 NSC 24/17 Q1016
METAR ROMD 080300Z AUTO 05010KT 9999 NSC 23/16 Q1017
METAR ROMD 080200Z AUTO 05011KT 9999 NCD 23/16 Q1017
METAR ROMD 080100Z AUTO 04010KT 010V070 9999 NSC 23/17 Q1017
METAR ROMD 080000Z AUTO 02010KT 9999 NSC 21/15 Q1017
METAR ROAH 080400Z 08011KT CAVOK 24/15 Q1016
METAR ROAH 080330Z 10012KT CAVOK 24/15 Q1016
METAR ROAH 080300Z 09014KT 9999 FEW030 24/16 Q1017
METAR ROYN 080400Z AUTO 10013KT 9999 BKN023 OVC046 25/20 Q1015
METAR ROYN 080300Z AUTO 10012KT 9999 FEW022 BKN033 BKN035 24/19 Q1016
METAR ROIG 080400Z 08013KT 9999 SCT022 BKN035 BKN050 25/20 Q1015
METAR ROIG 080300Z 08014KT 9999 SCT021 BKN035 24/19 Q1016
METAR RORS 080400Z 09016KT 9999 SCT024 BKN060 25/18 Q1015
METAR RORS 080300Z 09016KT 9999 SCT025 BKN060 25/18 Q1016
METAR RODN 080355Z 06012KT 10SM FEW190 24/15 A3003 RMK SLP171 T02380150 FZRANO $
SPECI RODN 080306Z 06010KT 10SM FEW180 FEW210 23/14 A3005 RMK SLP177 FZRANO $
METAR RODN 080256Z 08012KT 10SM FEW180 24/15 A3005 RMK SLP177 T02370149 58001 FZRANO $
METAR RJTI 080400Z 35009KT 280V050 CAVOK 17/M07 Q1018
METAR RJTI 080300Z 36007KT 300V060 CAVOK 17/M06 Q1018
METAR ROTM 080256Z 08011KT 10SM SCT080 22/13 A3006 RMK AO2 SLP166 T02220133 58002 $
METAR RJEC 080500Z 25011G21KT 200V290 9999 FEW030 SCT050 09/M02 Q1009
METAR RJSA 080500Z 27015KT 230V320 9999 FEW030 10/M02 Q1015
METAR RJCW 080500Z 24023KT 9999 FEW030 BKN/// 07/M01 Q1005
METAR RJCB 080500Z 30011KT 250V330 9999 FEW060 12/M05 Q1009
METAR RJCC 080500Z 27012KT 9999 FEW030 13/M05 Q1011
METAR RJCC 080430Z 25016KT 220V280 9999 FEW030 13/M05 Q1011
METAR RJCH 080500Z 27015KT 240V310 9999 FEW030 12/M04 Q1014
METAR RJCK 080500Z 25016KT 220V290 9999 FEW050 12/M06 Q1008
METAR RJCM 080500Z 25009KT 210V350 CAVOK 12/M06 Q1006
METAR RJCN 080500Z 27012KT 240V300 9999 FEW030 12/M08 Q1006
METAR RJCO 080500Z 28013KT 240V310 9999 FEW030 12/M06 Q1010
METAR RJEB 080500Z 25019G33KT 220V280 9999 FEW030 11/M03 Q1005
METAR RJSS 080500Z 28011KT 250V340 9999 FEW040 15/M06 Q1017
METAR RJTF 080500Z 35003KT 290V040 9999 FEW030 18/M06 Q1017
METAR RJTO 080500Z 22007KT 190V260 9999 FEW040 16/03 Q1018
METAR RJTT 080500Z 08008KT 9999 FEW030 17/01 Q1017 NOSIG
METAR RJTT 080430Z 04008KT 9999 FEW030 17/M01 Q1017 BECMG TL0530 10008KT
METAR RJAH 080500Z 27006KT 230V350 9999 FEW030 17/M04 Q1017
METAR RJSC 080500Z 26012KT 230V300 9999 FEW050 13/M03 Q1018
METAR RJSF 080500Z 32012KT 290V360 9999 FEW040 12/M08 Q1017
METAR RJSI 080500Z 27011G22KT 220V310 9999 FEW050 12/M03 Q1016
METAR RJAA 080500Z VRB07KT CAVOK 16/M03 Q1017 BECMG 23006KT
METAR RJAA 080430Z 31007KT 240V010 CAVOK 17/00 Q1018 NOSIG
METAR RJSK 080500Z 27012KT 9999 FEW035 SCT040 10/M00 Q1018
METAR RJSM 080500Z 28017G27KT 9999 FEW030 13/M07 Q1015
METAR RJSN 080500Z 27013KT 9999 FEW040 13/02 Q1020
METAR RJSR 080500Z 28014KT 9999 FEW040 10/02 Q1017
METAR RJTY 080455Z AUTO 20007KT 10SM CLR 18/M06 A3008 RMK AO2 SLP190 T01761056 $
METAR RJAF 080500Z 35005KT 240V040 9999 FEW040 12/M06 Q1016
METAR RJNK 080500Z 33008KT 280V360 9999 FEW030 12/01 Q1020
METAR RJNT 080500Z 36006KT 320V050 9999 FEW030 14/M03 Q1019
METAR RJNW 080500Z 10007KT 060V150 9999 FEW045 12/00 Q1019
METAR RJGG 080500Z 30003KT 9999 FEW030 16/01 Q1018 BECMG TL0530 24005KT
METAR RJGG 080430Z 27005KT 220V340 9999 FEW030 17/00 Q1018 BECMG TL0530 20005KT
METAR RJNS 080500Z 15012KT 120V190 9999 FEW035 16/05 Q1018
METAR RJTR 080455Z AUTO 16009G15KT 10SM CLR 18/M02 A3007 RMK AO2 SLP185 T01781020 $
METAR RJOO 080500Z 22008KT 150V270 CAVOK 17/02 Q1019
METAR RJOR 080500Z 04013KT 9999 FEW030 13/03 Q1019
METAR RJOY 080500Z VRB03KT CAVOK 17/M01 Q1019
METAR RJBB 080500Z 31008KT CAVOK 13/04 Q1019 NOSIG
METAR RJBB 080430Z 30007KT CAVOK 13/04 Q1020 NOSIG
METAR RJBD 080500Z 30012KT 270V330 CAVOK 16/03 Q1018
METAR RJBE 080500Z 26008KT CAVOK 15/04 Q1019
METAR RJOB 080500Z 14006KT 090V210 CAVOK 15/M00 Q1019
METAR RJBT 080500Z VRB02KT 9999 FEW040 16/M00 Q1018
METAR RJDC 080500Z 09009KT CAVOK 15/02 Q1019
METAR RJOA 080500Z 12007KT 040V150 CAVOK 15/02 Q1019
METAR RJOC 080500Z 36005KT CAVOK 16/02 Q1019
METAR RJOH 080500Z 06011KT 9999 FEW050 15/03 Q1019
METAR RJOI 080456Z 16008KT 10SM CLR 14/02 A3012 RMK AO2 SLP201 T01440017 $
METAR RJOS 080500Z 04008KT 9999 NSC 16/M00 Q1020
METAR RJFO 080500Z 09006KT CAVOK 13/02 Q1020
METAR RJOT 080500Z 06010KT CAVOK 14/M00 Q1020
METAR RJFK 080500Z VRB05KT CAVOK 18/M02 Q1019
METAR RJOW 080500Z 35005KT 300V060 CAVOK 14/02 Q1019
METAR RJFF 080500Z 32011KT CAVOK 18/03 Q1018 NOSIG
METAR RJFF 080430Z 32012KT CAVOK 19/02 Q1018 NOSIG
METAR RJFR 080500Z 09007KT CAVOK 14/03 Q1020
METAR RJOK 080500Z 20007KT CAVOK 16/03 Q1020
METAR RJFU 080500Z 29005KT CAVOK 18/M04 Q1018
METAR RJOM 080500Z 36009KT CAVOK 15/02 Q1019
METAR RJFM 080500Z 07006KT 030V100 9999 FEW030 SCT/// 16/05 Q1020
METAR RJFT 080500Z 26007KT 190V300 CAVOK 19/M04 Q1019
METAR RJFS 080500Z 21005KT 180V240 CAVOK 17/M00 Q1019
METAR ROIG 080500Z 09012KT 9999 SCT022 BKN050 BKN150 25/19 Q1014
METAR RORS 080500Z 08016KT 9999 FEW025 SCT/// 25/18 Q1014
METAR ROMY 080500Z 08016KT 9999 SCT023 SCT/// 24/18 Q1015
METAR ROMD 080500Z AUTO 05009KT 020V080 9999 NCD 24/17 Q1015
METAR RJFG 080500Z 09008KT 040V120 9999 FEW030 SCT/// 16/06 Q1019
METAR ROAH 080500Z 09011KT CAVOK 24/15 Q1016
METAR ROAH 080430Z 09013KT CAVOK 23/16 Q1016
METAR ROYN 080500Z AUTO 10011KT 9999 BKN019 OVC038 25/21 Q1014
METAR RJFE 080500Z 15007KT 080V190 CAVOK 16/01 Q1019
METAR RODN 080455Z 06013KT 10SM FEW200 24/15 A3002 RMK SLP167 T02390146 FZRANO $
METAR RJTI 080500Z 04007KT 340V100 CAVOK 17/M08 Q1017
METAR ROTM 080456Z 08011G19KT 10SM SCT080 23/14 A3004 RMK AO2 SLP158 T02280144 $
METAR ROTM 080356Z 08011KT 10SM CLR 23/14 3004 RMK AO2 SLP161 T02280139 $
