TAF RODN 080000Z 0800/0906 06010KT 9999 FEW030 BKN070 QNH3005INS 
  BECMG 0802/0803 09010G15KT 9999 FEW030 SCT075 QNH2998INS 
  BECMG 0811/0812 12010KT 9999 FEW025 QNH2996INS 
  BECMG 0821/0822 15012G18KT 9999 BKN025 QNH2995INS TX24/0805Z TN20/0819Z
TAF ROIG 072305Z 0800/0906 08014KT 9999 FEW020 BKN030 
  TEMPO 0812/0900 FEW005 BKN008 
  BECMG 0821/0900 16012KT
TAF RORS 072305Z 0800/0906 07016KT 9999 FEW020 BKN035 
  BECMG 0802/0804 09015KT 
  BECMG 0900/0903 15014KT
TAF ROTM 072000Z 0721/0821 04007KT 9999 FEW020 BKN065 BKN100 QNH3000INS 
  BECMG 0723/0801 08010KT 9999 SCT015 BKN060 BKN100 QNH2999INS 
  TEMPO 0802/0808 09010G18KT 9999 BKN015 
  FM080900 10008KT 9999 SCT020 SCT060 QNH3000INS 
  BECMG 0816/0818 12010G18KT 9999 BKN010 OVC050 QNH2996INS TX23/0804Z TN18/0721Z=
TAF AMD RJCM 080311Z 0803/0906 28014KT 9999 FEW030 
  TEMPO 0803/0808 28018G28KT 
  BECMG 0808/0810 19008KT 
  TEMPO 0821/0903 20018G28KT
TAF RJCH 072305Z 0800/0906 25012KT 9999 FEW030 
  TEMPO 0821/0906 23020G30KT
TAF RJSA 072305Z 0800/0906 26014KT 9999 FEW030 
  TEMPO 0812/0821 21022G32KT 
  BECMG 0821/0900 23022G32KT
TAF RJCC 072305Z 0800/0906 33010KT 9999 FEW010 SCT020 
  BECMG 0803/0805 25014KT 
  TEMPO 0804/0808 26016G26KT 
  BECMG 0808/0810 17014KT 
  TEMPO 0900/0906 18022G32KT
TAF RJCK 072305Z 0800/0906 27016KT 9999 FEW030 
  TEMPO 0803/0807 27018G28KT 
  BECMG 0808/0810 23008KT 
  BECMG 0821/0900 21018KT 
  TEMPO 0821/0906 21020G30KT
TAF RJCB 072305Z 0800/0906 32014KT 9999 FEW030 
  TEMPO 0800/0804 32016G26KT 
  BECMG 0807/0809 18006KT
TAF RJEC 072305Z 0800/0906 25016KT 9999 FEW040 SCT050 
  TEMPO 0803/0806 25018G28KT 
  BECMG 0807/0809 17012KT=
TAF AMD RJAH 080314Z 0803/0906 24006KT 9999 FEW030 
  BECMG 0808/0810 18010KT 
  TEMPO 0903/0906 22018G28KT
TAF RJAA 072305Z 0800/0906 34008KT 9999 FEW030 
  BECMG 0804/0806 17006KT
TAF RJTT 072305Z 0800/0906 01012KT 9999 FEW030 
  BECMG 0803/0805 16010KT 
  BECMG 0900/0903 19020KT
TAF RJSS 072305Z 0800/0906 30010KT 9999 FEW030 
  BECMG 0809/0811 01004KT 
  BECMG 0818/0821 23005KT 
  BECMG 0900/0903 14012KT
TAF RJSN 072305Z 0800/0906 30012KT 9999 FEW030 
  BECMG 0808/0810 17006KT 
  BECMG 0900/0903 28006KT
TAF RJSK 072305Z 0800/0906 28016KT 9999 FEW030 
  BECMG 0808/0810 13004KT 
  BECMG 0900/0903 24010KT
TAF RJSI 072305Z 0800/0906 30012KT 9999 FEW030 
  BECMG 0805/0807 27010KT 
  BECMG 0809/0811 21004KT 
  BECMG 0815/0818 02005KT 
  BECMG 0900/0903 21010KT
TAF RJSF 072305Z 0800/0906 34014KT 9999 FEW030 
  BECMG 0810/0812 13004KT 
  BECMG 0821/0900 19010KT=
TAF RODN 080000Z 0800/0906 06010KT 9999 FEW030 BKN070 QNH3005INS 
  BECMG 0802/0803 09010G15KT 9999 FEW030 SCT075 QNH2998INS 
  BECMG 0811/0812 12010KT 9999 FEW025 QNH2996INS 
  BECMG 0821/0822 15012G18KT 9999 BKN025 QNH2995INS TX24/0805Z TN20/0819Z
TAF ROAH 072305Z 0800/0906 06010KT 9999 FEW035 
  BECMG 0810/0812 11008KT 
  BECMG 0903/0906 17017KT
TAF ROIG 072305Z 0800/0906 08014KT 9999 FEW020 BKN030 
  TEMPO 0812/0900 FEW005 BKN008 
  BECMG 0821/0900 16012KT
TAF RORS 072305Z 0800/0906 07016KT 9999 FEW020 BKN035 
  BECMG 0802/0804 09015KT 
  BECMG 0900/0903 15014KT=
TAF RJTY 080500Z 0805/0911 05009KT 9999 SKC QNH3008INS 
  TEMPO 0805/0809 08010G15KT 
  BECMG 0814/0815 VRB06KT 9999 FEW060 QNH3018INS 
  BECMG 0900/0901 17009KT 9999 SKC QNH3008INS 
  BECMG 0903/0904 17015G25KT 9999 FEW200 SCT220 510006 QNH3002INS TX19/0805Z TN06/0821Z
TAF AMD RJAH 080314Z 0803/0906 24006KT 9999 FEW030 
  BECMG 0808/0810 18010KT 
  TEMPO 0903/0906 22018G28KT
TAF RJTT 072305Z 0800/0906 01012KT 9999 FEW030 
  BECMG 0803/0805 16010KT 
  BECMG 0900/0903 19020KT
TAF RJSS 072305Z 0800/0906 30010KT 9999 FEW030 
  BECMG 0809/0811 01004KT 
  BECMG 0818/0821 23005KT 
  BECMG 0900/0903 14012KT
TAF RJSN 072305Z 0800/0906 30012KT 9999 FEW030 
  BECMG 0808/0810 17006KT 
  BECMG 0900/0903 28006KT
TAF RJSK 072305Z 0800/0906 28016KT 9999 FEW030 
  BECMG 0808/0810 13004KT 
  BECMG 0900/0903 24010KT
TAF RJSI 072305Z 0800/0906 30012KT 9999 FEW030 
  BECMG 0805/0807 27010KT 
  BECMG 0809/0811 21004KT 
  BECMG 0815/0818 02005KT 
  BECMG 0900/0903 21010KT
TAF RJSF 072305Z 0800/0906 34014KT 9999 FEW030 
  BECMG 0810/0812 13004KT 
  BECMG 0821/0900 19010KT
TAF RJAA 072305Z 0800/0906 34008KT 9999 FEW030 
  BECMG 0804/0806 17006KT=
TAF RJOI 080500Z 0805/0905 18008KT 9999 SKC QNH3006INS 
  BECMG 0810/0812 30005KT 9999 SKC QNH3009INS 
  FM081500 31005KT 9999 FEW035 SCT220 QNH3005INS 
  FM082000 VRB06KT 9999 SCT035 BKN200 QNH3003INS 
  FM090000 11007KT 9999 BKN035 BKN120 OVC180 621209 510106 QNH2993INS 
  FM090400 14008KT 9999 BKN030 BKN100 OVC160 621309 520106 QNH2992INS T09/0818Z T19/0905Z
TAF RJBB 072307Z 0800/0906 36006KT 9999 FEW030 
  BECMG 0802/0804 16008KT
TAF RJOO 072307Z 0800/0906 31006KT 9999 FEW030 
  BECMG 0803/0805 07006KT 
  BECMG 0900/0903 24010KT
TAF RJOA 072305Z 0800/0906 16006KT 9999 FEW030 
  BECMG 0808/0810 24004KT 
  BECMG 0821/0900 16005KT
TAF RJOH 072305Z 0800/0906 18004KT 9999 FEW030 
  BECMG 0800/0802 06005KT 
  BECMG 0810/0812 18004KT
TAF RJOC 072305Z 0800/0906 17004KT 9999 FEW030 
  BECMG 0800/0802 06005KT 
  BECMG 0810/0812 17005KT
TAF RJOB 072305Z 0800/0906 12004KT 9999 FEW030 
  BECMG 0802/0804 18006KT 
  BECMG 0812/0815 14005KT=
TAF ROTM 080500Z 0805/0905 09010KT 9999 FEW040 QNH2997INS 
  BECMG 0817/0819 14010KT 9999 FEW020 SCT040 QNH2996INS 
  FM090000 17012KT 9999 SCT020 BKN035 QNH2993INS 
  TEMPO 0900/0905 17012G19KT SCT020 OVC035 TX24/0904 TN20/0915=
TAF RJCC 080505Z 0806/0912 25014KT 9999 FEW030 
  TEMPO 0806/0808 25015G25KT 
  BECMG 0808/0810 18008KT 
  BECMG 0821/0900 17020KT 
  TEMPO 0900/0909 18022G32KT
TAF RJCH 080505Z 0806/0912 25012KT 9999 FEW030 
  TEMPO 0821/0906 23020G30KT
TAF RJSA 080505Z 0806/0912 23016KT 9999 FEW030 
  TEMPO 0816/0821 21022G32KT 
  BECMG 0821/0900 23024G34KT 
  BECMG 0909/0912 22012KT
TAF RJEC 080505Z 0806/0912 25012KT 9999 FEW030 
  TEMPO 0806/0807 25016G28KT 
  BECMG 0807/0809 17012KT
TAF RJCK 080505Z 0806/0912 27012KT 9999 FEW030 
  TEMPO 0806/0808 28018G28KT 
  BECMG 0809/0811 23010KT 
  TEMPO 0821/0909 21020G30KT
TAF RJCB 080505Z 0806/0912 29010KT 9999 FEW030 
  BECMG 0806/0808 17008KT
TAF RJCM 080505Z 0806/0912 28014KT 9999 FEW030 
  TEMPO 0806/0808 28018G28KT 
  BECMG 0808/0810 19008KT 
  TEMPO 0821/0903 19018G28KT=
TAF AMD RJTY 080610Z 0806/0911 20009KT 9999 SKC QNH3008INS 
  TEMPO 0806/0809 17010G15KT 
  BECMG 0814/0815 VRB06KT 9999 FEW060 QNH3018INS 
  BECMG 0900/0901 17009KT 9999 SKC QNH3008INS 
  BECMG 0903/0904 17015G25KT 9999 FEW200 SCT220 510006 QNH3002INS TX19/0806Z TN06/0821Z
TAF RJAA 080505Z 0806/0912 17006KT 9999 FEW030 
  TEMPO 0900/0909 20017G28KT
TAF RJTT 080505Z 0806/0912 12008KT 9999 FEW030 
  BECMG 0806/0808 18010KT 
  BECMG 0903/0906 19020KT 
  TEMPO 0906/0909 19025G35KT
TAF RJSS 080505Z 0806/0912 27006KT 9999 FEW030 
  BECMG 0900/0903 14012KT
TAF RJSN 080505Z 0806/0912 27006KT 9999 FEW030 
  BECMG 0808/0810 17008KT 
  BECMG 0900/0903 26008KT 
  BECMG 0909/0912 15004KT
TAF RJSK 080505Z 0806/0912 27010KT 9999 FEW030 
  BECMG 0808/0810 13004KT 
  BECMG 0900/0903 24010KT 
  BECMG 0909/0912 17004KT
TAF RJAH 080505Z 0806/0912 18006KT 9999 FEW030 
  BECMG 0900/0903 21016KT 
  TEMPO 0900/0906 21018G28KT
TAF RJSI 080505Z 0806/0912 29010KT 9999 FEW030 
  BECMG 0807/0809 25006KT 
  BECMG 0814/0816 35005KT 
  BECMG 0821/0900 20006KT
TAF RJSF 080505Z 0806/0912 34012KT 9999 FEW030 
  BECMG 0809/0811 10006KT 
  BECMG 0821/0900 19010KT=
TAF RJGG 080505Z 0806/0912 13008KT 9999 FEW030 
  BECMG 0818/0821 06006KT 
  BECMG 0900/0903 13012KT
TAF RJNT 080505Z 0806/0912 36006KT 9999 FEW030 
  BECMG 0809/0811 22004KT 
  BECMG 0816/0818 18015KT 
  TEMPO 0818/0900 18016G26KT 
  BECMG 0906/0909 24004KT
TAF RJNK 080505Z 0806/0912 34006KT 9999 FEW030 
  BECMG 0812/0814 20006KT
TAF RJNS 080505Z 0806/0912 18010KT 9999 FEW030 
  BECMG 0806/0808 29006KT 
  BECMG 0900/0903 19010KT 
  BECMG 0909/0912 30004KT=
TAF RJOO 080506Z 0806/0912 22006KT 9999 FEW030 
  BECMG 0812/0814 02004KT
TAF RJBB 080506Z 0806/0912 21006KT 9999 FEW030
TAF RJOH 080505Z 0806/0912 05010KT 9999 FEW030 
  BECMG 0809/0811 17004KT 
  BECMG 0909/0912 15010KT
TAF RJOC 080505Z 0806/0912 01006KT 9999 FEW030 
  BECMG 0811/0813 17006KT 
  TEMPO 0909/0912 4000 RA BR
TAF RJOB 080505Z 0806/0912 18006KT 9999 FEW030 
  BECMG 0813/0815 01006KT 
  TEMPO 0909/0912 4000 RA BR FEW001 BKN005
TAF RJOA 080505Z 0806/0912 16006KT 9999 FEW030 
  BECMG 0807/0809 30010KT 
  BECMG 0821/0900 13004KT 
  TEMPO 0909/0912 4000 RA BR FEW001 SCT002 BKN005
TAF RJOI 080500Z 0805/0905 18008KT 9999 SKC QNH3006INS 
  BECMG 0810/0812 30005KT 9999 SKC QNH3009INS 
  FM081500 31005KT 9999 FEW035 SCT220 QNH3005INS 
  FM082000 VRB06KT 9999 SCT035 BKN200 QNH3003INS 
  FM090000 11007KT 9999 BKN035 BKN120 OVC180 621209 510106 QNH2993INS 
  FM090400 14008KT 9999 BKN030 BKN100 OVC160 621309 520106 QNH2992INS T09/0818Z T19/0905Z=
TAF RJOK 080506Z 0806/0912 19008KT 9999 FEW030 
  BECMG 0809/0811 35008KT 
  BECMG 0900/0903 16010KT
TAF RJOM 080506Z 0806/0912 28006KT 9999 FEW030 
  BECMG 0806/0808 12008KT 
  BECMG 0900/0903 36012KT 
  TEMPO 0909/0912 4000 RA BR
TAF RJFU 080505Z 0806/0912 26006KT CAVOK 
  BECMG 0807/0809 13006KT 
  BECMG 0821/0900 14018KT
TAF RJFT 080505Z 0806/0912 23008KT 9999 FEW050 
  BECMG 0809/0811 06006KT 
  BECMG 0821/0900 21005KT 
  BECMG 0906/0909 14006KT
TAF RJOT 080505Z 0806/0912 12006KT 9999 FEW030
TAF RJFO 080505Z 0806/0912 19006KT CAVOK 
  BECMG 0900/0903 14018KT 
  TEMPO 0909/0912 4000 RA BR
TAF RJFM 080505Z 0806/0912 12008KT 9999 FEW050 
  BECMG 0809/0811 29006KT 
  BECMG 0900/0903 16018KT
TAF RJFR 080505Z 0806/0912 09006KT CAVOK 
  TEMPO 0909/0912 4000 SHRA BR
TAF RJFF 080505Z 0806/0912 32011KT 9999 FEW045 
  BECMG 0810/0812 12004KT 
  BECMG 0900/0903 15016KT 
  TEMPO 0906/0912 4000 RA BR
TAF RJFS 080505Z 0806/0912 26006KT CAVOK 
  BECMG 0813/0815 10006KT 
  BECMG 0903/0906 17014KT
TAF RJFK 080505Z 0806/0912 18008KT 9999 FEW040 
  BECMG 0811/0813 05004KT 
  BECMG 0818/0821 14010KT=
TAF ROAH 080505Z 0806/0912 08012KT 9999 FEW030 
  BECMG 0810/0812 12008KT 
  BECMG 0906/0909 18016KT
TAF ROIG 080505Z 0806/0912 10012KT 9999 FEW008 BKN015 
  TEMPO 0812/0900 FEW006 BKN008 
  BECMG 0818/0821 16010KT
TAF RORS 080505Z 0806/0912 10012KT 9999 FEW010 SCT015 
  TEMPO 0818/0900 FEW006 BKN008 
  BECMG 0903/0906 18012KT
TAF RODN 080000Z 0800/0906 06010KT 9999 FEW030 BKN070 QNH3005INS 
  BECMG 0802/0803 09010G15KT 9999 FEW030 SCT075 QNH2998INS 
  BECMG 0811/0812 12010KT 9999 FEW025 QNH2996INS 
  BECMG 0821/0822 15012G18KT 9999 BKN025 QNH2995INS TX24/0805Z TN20/0819Z=
TAF AMD RJSS 080807Z 0808/0912 18010KT 9999 FEW030 
  BECMG 0810/0812 25005KT 
  BECMG 0900/0903 14012KT
TAF AMD RJTY 080610Z 0806/0911 20009KT 9999 SKC QNH3008INS 
  TEMPO 0806/0809 17010G15KT 
  BECMG 0814/0815 VRB06KT 9999 FEW060 QNH3018INS 
  BECMG 0900/0901 17009KT 9999 SKC QNH3008INS 
  BECMG 0903/0904 17015G25KT 9999 FEW200 SCT220 510006 QNH3002INS TX19/0806Z TN06/0821Z
TAF RJTT 080505Z 0806/0912 12008KT 9999 FEW030 
  BECMG 0806/0808 18010KT 
  BECMG 0903/0906 19020KT 
  TEMPO 0906/0909 19025G35KT
TAF RJSF 080505Z 0806/0912 34012KT 9999 FEW030 
  BECMG 0809/0811 10006KT 
  BECMG 0821/0900 19010KT
TAF RJSN 080505Z 0806/0912 27006KT 9999 FEW030 
  BECMG 0808/0810 17008KT 
  BECMG 0900/0903 26008KT 
  BECMG 0909/0912 15004KT
TAF RJAH 080505Z 0806/0912 18006KT 9999 FEW030 
  BECMG 0900/0903 21016KT 
  TEMPO 0900/0906 21018G28KT
TAF RJSI 080505Z 0806/0912 29010KT 9999 FEW030 
  BECMG 0807/0809 25006KT 
  BECMG 0814/0816 35005KT 
  BECMG 0821/0900 20006KT
TAF RJSK 080505Z 0806/0912 27010KT 9999 FEW030 
  BECMG 0808/0810 13004KT 
  BECMG 0900/0903 24010KT 
  BECMG 0909/0912 17004KT
TAF RJAA 080505Z 0806/0912 17006KT 9999 FEW030 
  TEMPO 0900/0909 20017G28KT=
TAF RODN 080800Z 0808/0914 09010G15KT 9999 FEW100 QNH2998INS 
  BECMG 0811/0812 12010KT 9999 FEW025 QNH2996INS 
  BECMG 0821/0822 15012G18KT 9999 BKN025 QNH2990INS 
  BECMG 0907/0908 18012KT 9999 SCT030 QNH2988INS TX23/0808Z TN20/0819Z
TAF ROAH 080505Z 0806/0912 08012KT 9999 FEW030 
  BECMG 0810/0812 12008KT 
  BECMG 0906/0909 18016KT
TAF ROIG 080505Z 0806/0912 10012KT 9999 FEW008 BKN015 
  TEMPO 0812/0900 FEW006 BKN008 
  BECMG 0818/0821 16010KT
TAF RORS 080505Z 0806/0912 10012KT 9999 FEW010 SCT015 
  TEMPO 0818/0900 FEW006 BKN008 
  BECMG 0903/0906 18012KT=
TAF RJCH 081105Z 0812/0918 24014KT 9999 FEW030 
  TEMPO 0820/0906 23020G30KT 
  TEMPO 0915/0918 4000 -SHRA BR FEW003 BKN008
TAF RJCC 081105Z 0812/0918 16010KT 9999 FEW015 BKN030 
  BECMG 0822/0900 17020KT 
  TEMPO 0823/0909 17022G32KT 
  BECMG 0912/0915 16008KT
TAF RJEC 081105Z 0812/0918 17012KT 9999 FEW030 
  TEMPO 0900/0909 20018G28KT
TAF RJCK 081105Z 0812/0918 23010KT 9999 FEW030 
  TEMPO 0821/0909 21020G30KT
TAF RJCB 081105Z 0812/0918 16010KT 9999 FEW030
TAF RJCM 081105Z 0812/0918 19010KT 9999 FEW030 
  TEMPO 0823/0906 19018G28KT
TAF RJSA 081105Z 0812/0918 22016KT 9999 FEW030 
  TEMPO 0817/0821 21020G30KT 
  BECMG 0821/0823 21022G32KT 
  BECMG 0912/0915 21012KT=
TAF RJTY 081300Z 0813/0919 VRB06KT 9999 FEW060 QNH3018INS 
  BECMG 0900/0901 17009KT 9999 SKC QNH3006INS 
  BECMG 0904/0905 17010G15KT 9999 FEW030 SCT150 OVC200 QNH3001INS 
  TEMPO 0905/0910 17015G25KT 530006 
  BECMG 0913/0914 20012KT 9000 -DZ FEW020 BKN030 QNH2996INS 
  BECMG 0916/0917 23012KT 8000 -SHRA BKN015 OVC025 QNH2993INS TX22/0905Z TN08/0821Z
TAF RJTT 081105Z 0812/0918 20016KT 9999 FEW030 
  BECMG 0818/0820 23006KT 
  BECMG 0900/0903 20022KT 
  TEMPO 0903/0909 20025G35KT
TAF RJSS 081105Z 0812/0918 23006KT 9999 FEW030 
  BECMG 0900/0903 14012KT 
  BECMG 0909/0912 32004KT
TAF RJSN 081105Z 0812/0918 17008KT 9999 FEW030 
  BECMG 0900/0903 26006KT 
  BECMG 0906/0909 14006KT
TAF RJAA 081105Z 0812/0918 17006KT 9999 FEW030 
  TEMPO 0900/0909 20016G27KT
TAF RJSI 081105Z 0812/0918 35004KT 9999 FEW030 
  BECMG 0822/0900 21010KT 
  BECMG 0906/0909 31006KT
TAF RJSF 081105Z 0812/0918 15006KT 9999 FEW030
TAF RJSK 081105Z 0812/0918 13006KT 9999 FEW030 
  BECMG 0900/0903 24012KT 
  BECMG 0909/0912 13004KT
TAF RJAH 081105Z 0812/0918 18006KT 9999 FEW030 
  BECMG 0900/0903 22016KT 
  TEMPO 0903/0906 22018G28KT=
TAF RJGG 081105Z 0812/0918 12008KT 9999 FEW030 
  BECMG 0816/0818 03006KT 
  BECMG 0900/0903 14014KT 
  TEMPO 0915/0918 4000 -SHRA BR FEW005 BKN008
TAF RJNT 081105Z 0812/0918 18012KT 9999 FEW030
TAF RJNK 081105Z 0812/0918 11004KT 9999 FEW030 
  BECMG 0816/0818 20006KT 
  TEMPO 0915/0918 4000 RA BR
TAF RJNS 081105Z 0812/0918 30006KT 9999 FEW030 
  BECMG 0903/0906 18008KT 
  BECMG 0909/0912 33004KT=
TAF RJOI 081300Z 0813/0913 32006KT 9999 FEW050 FEW250 QNH3011INS 
  FM081800 32006KT 9999 SCT030 SCT250 QNH3008INS 
  FM090000 VRB06KT 9999 FEW015 BKN030 BKN200 621208 QNH3002INS 
  FM090300 15008KT 9999 FEW010 BKN020 OVC120 621208 510109 QNH2995INS 
  FM090600 16008KT 8000 -RA BR FEW008 BKN015 OVC050 651208 540109 QNH2985INS 
  FM091200 18010KT 3200 -RA BR FEW005 BKN010 OVC030 651208 550109 QNH2975INS T09/0821Z T20/0905Z LAST NO AMDS AFT 0814 NEXT 0821
TAF RJOA 081107Z 0812/0918 32006KT 9999 FEW015 
  BECMG 0818/0820 07006KT 
  TEMPO 0909/0918 2000 RA BR FEW001 SCT003 BKN005
TAF RJOB 081107Z 0812/0918 36004KT 9999 FEW030 
  BECMG 0900/0903 17006KT 
  BECMG 0906/0909 08006KT 
  TEMPO 0912/0915 3000 RA BR FEW001 SCT003 BKN005
TAF RJOC 081107Z 0812/0918 17005KT 9999 FEW020 
  TEMPO 0912/0918 4000 RA BR
TAF RJOH 081107Z 0812/0918 17004KT 9999 FEW030 
  BECMG 0906/0909 15010KT 
  TEMPO 0912/0918 4000 RA BR 
  BECMG 0915/0918 18006KT
TAF RJBB 081105Z 0812/0918 16008KT 9999 FEW030 
  BECMG 0900/0903 22010KT 
  BECMG 0915/0918 18020KT 
  TEMPO 0915/0918 18022G32KT
TAF RJOO 081105Z 0812/0918 32004KT 9999 FEW030 
  BECMG 0909/0912 08006KT=
TAF RJOT 081107Z 0812/0918 15008KT 9999 FEW030
TAF RJFO 081105Z 0812/0918 19004KT CAVOK 
  BECMG 0903/0906 17016KT 
  TEMPO 0906/0912 4000 SHRA BR
TAF RJFF 081105Z 0812/0918 15006KT CAVOK 
  BECMG 0906/0909 16024KT 
  TEMPO 0906/0909 4000 SHRA BR 
  TEMPO 0915/0918 -TSRA FEW009 BKN015 FEW015CB
TAF RJFK 081105Z 0812/0918 13005KT CAVOK 
  BECMG 0812/0814 04004KT 
  BECMG 0820/0822 11008KT 
  TEMPO 0912/0918 1500 -SHRA BR BKN002 BKN009 
  BECMG 0915/0918 18010KT
TAF RJFU 081105Z 0812/0918 13010KT CAVOK 
  TEMPO 0906/0912 4000 SHRA BR 
  TEMPO 0912/0915 1500 SHRA BR BKN008 BKN012 
  BECMG 0915/0918 19016KT 
  TEMPO 0915/0918 1500 TSRA BR BKN002 BKN010 FEW015CB
TAF RJFT 081105Z 0812/0918 22005KT CAVOK 
  BECMG 0812/0814 05004KT 
  BECMG 0900/0903 19007KT 
  TEMPO 0906/0909 4000 SHRA BR
TAF RJOK 081105Z 0812/0918 35008KT 9999 FEW030 
  BECMG 0900/0903 15008KT 
  TEMPO 0909/0915 3000 RA BR 
  TEMPO 0915/0918 4000 -RA BR
TAF RJFM 081105Z 0812/0918 29006KT 9999 FEW030 
  BECMG 0822/0900 16012KT
TAF RJFR 081105Z 0812/0918 11006KT CAVOK 
  BECMG 0906/0909 12016KT 
  TEMPO 0906/0912 4000 SHRA BR 
  TEMPO 0915/0918 BKN005 BKN008
TAF RJFS 081105Z 0812/0918 24004KT CAVOK 
  BECMG 0814/0816 06006KT 
  TEMPO 0906/0912 4000 SHRA BR 
  BECMG 0909/0912 17014KT 
  TEMPO 0912/0915 3000 SHRA BR 
  TEMPO 0915/0918 3000 TSRA BR BKN005 FEW015CB BKN030
TAF RJOM 081105Z 0812/0918 11008KT 9999 FEW030 
  BECMG 0822/0900 36010KT 
  TEMPO 0912/0915 4000 RA BR 
  BECMG 0915/0918 15014KT=
TAF ROAH 081105Z 0812/0918 11010KT 9999 FEW025 
  BECMG 0900/0903 18016KT 
  TEMPO 0915/0918 FEW006 BKN008
TAF ROIG 081105Z 0812/0918 11010KT 9999 FEW010 BKN015 
  TEMPO 0815/0900 FEW006 BKN008 
  BECMG 0819/0821 16012KT 
  TEMPO 0912/0918 FEW006 BKN008
TAF RORS 081105Z 0812/0918 12010KT 9999 FEW010 BKN015 
  TEMPO 0818/0900 FEW006 BKN008 
  BECMG 0903/0906 18012KT 
  TEMPO 0912/0918 FEW006 BKN008
TAF RODN 080800Z 0808/0914 09010G15KT 9999 FEW100 QNH2998INS 
  BECMG 0811/0812 12010KT 9999 FEW025 QNH2996INS 
  BECMG 0821/0822 15012G18KT 9999 BKN025 QNH2990INS 
  BECMG 0907/0908 18012KT 9999 SCT030 QNH2988INS TX23/0808Z TN20/0819Z=
TAF ROTM 081300Z 0813/0913 13010KT 9999 FEW030 FEW070 QNH2996INS 
  TEMPO 1814/1820 15010G18KT 
  BECMG 0822/0900 16014G22KT 9999 BKN025 QNH2988INS 
  FM081000 18010G18KT 9999 SCT020 QNH2989INS TX24/0904Z TN20/0818Z=
