METAR RJFF 052330Z 15017KT CAVOK 15/08 Q1013 NOSIG
METAR RJGG 052330Z 23002KT 9999 FEW005 BKN/// 16/14 Q1014 NOSIG
METAR ROAH 052330Z 10005KT 9999 FEW017 SCT110 BKN140 23/21 Q1013
METAR RJBB 052330Z 15004KT 9999 FEW025 BKN/// 17/13 Q1014 NOSIG
METAR RJCC 052330Z 17014KT 9999 FEW006 BKN008 BKN010 06/04 Q1014
METAR RJTF 052330Z VRB02KT 9999 FEW030 BKN050 19/13 Q1014
METAR RJTI 052330Z 14005KT 9999 FEW030 SCT/// 18/13 Q1014
METAR RJAA 052330Z 05007KT 020V090 9999 FEW015 SCT035 18/13 Q1014 BECMG 08006KT
METAR RJTT 052330Z 03005KT 9999 FEW030 SCT/// 17/14 Q1014 BECMG 08006KT
METAR RJOK 052300Z 01006KT 340V040 9999 FEW020 BKN/// 17/12 Q1014
METAR RJOM 052300Z 12010KT 9999 FEW020 BKN/// 15/10 Q1014
METAR RJOO 052300Z VRB01KT 9999 FEW015 BKN/// 17/13 Q1014
METAR RJOR 052300Z 14008KT 9999 FEW040 14/11 Q1012
METAR RJOS 052300Z 29005KT 9999 FEW030 BKN/// 15/12 Q1014
METAR RJOT 052300Z 13004KT CAVOK 15/11 Q1014
METAR RJOW 052300Z 16009KT 130V190 9999 FEW035 BKN/// 13/08 Q1012
METAR RJOY 052300Z VRB02KT 9999 FEW025 BKN/// 18/13 Q1014
METAR RJSA 052300Z 06005KT 9999 FEW010 SCT040 BKN050 08/08 Q1012
METAR RJSC 052300Z 22004KT 190V270 9999 FEW005 SCT015 BKN020 12/10 Q1014
METAR RJSF 052300Z VRB02KT 0900 R01/P2000N FG SCT001 BKN002 BKN003 11/11 Q1014
METAR RJSI 052300Z VRB02KT 9999 FEW010 12/09 Q1013
METAR RJSM 052300Z 11006KT 3500 -DZ BR FEW001 BKN003 OVC005 06/06 Q1014
METAR RJSN 052300Z 16006KT 130V190 9999 FEW003 11/11 Q1013
METAR RJSR 052300Z 10003KT 070V160 4000 BCFG BR FEW001 BKN004 09/08 Q1013
METAR RJSS 052300Z VRB02KT 1800 BCFG BR FEW001 SCT003 BKN006 12/12 Q1013
METAR RJSY 052300Z 12005KT 090V160 9999 FEW005 12/09 Q1012
METAR RJTO 052300Z 22005KT 9999 FEW009 18/15 Q1013
METAR RJSK 052300Z 13007KT 100V160 9999 FEW003 SCT005 BKN007 10/09 Q1013
METAR RJNK 052300Z VRB01KT 9999 FEW030 BKN050 13/11 Q1013
METAR RJNS 052300Z VRB02KT 9999 FEW030 BKN/// 16/12 Q1013
METAR RJNT 052300Z 29005KT 250V310 9999 FEW030 16/11 Q1012
METAR RJNW 052300Z 23006KT 200V280 9999 FEW002 13/12 Q1013
METAR RJOA 052300Z VRB02KT 9999 BCFG FEW000 BKN/// 12/08 Q1014
METAR RJOB 052300Z 22003KT 9999 PRFG FEW000 BKN/// 13/10 Q1014
METAR RJOC 052300Z 16007KT CAVOK 13/06 Q1011
METAR RJOH 052300Z 22003KT 190V250 9999 FEW250 12/12 Q1012
METAR ROMY 052300Z 16010KT 9999 FEW005 BKN007 BKN009 24/23 Q1011
METAR RORS 052300Z AUTO 16014KT 9999 FEW007 SCT009 BKN010 25/23 Q1011
METAR ROYN 052300Z AUTO 20014KT 3700 RA BR FEW005 SCT008 BKN015 //////TCU 23/22 Q1010
METAR ROIG 052300Z 18012KT 9999 -SHRA SCT010 BKN070 24/23 Q1011
METAR RJOI 052256Z 01003KT 9SM FEW025 BKN240 13/08 A2995 RMK AO2 SLP142 T01330083 $
METAR ROTM 052256Z 12007KT 10SM FEW030 BKN110 22/19 A2995 RMK AO2 SLP127 T02170194 $
METAR RJTY 052255Z AUTO 00000KT 10SM CLR 17/11 A2999 RMK AO2 SLP158 T01670114 $
METAR ROTM 052356Z 11008KT 10SM OVC110 22/20 A2994 RMK AO2 SLP126 T02220200 10222 20211 50009 $
METAR ROTM 052156Z 12007KT 10SM SCT035 SCT050 BKN080 21/19 A2993 RMK AO2 SLP121 FIRST T02110189 $
METAR ROTM 052056Z AUTO 12007KT 10SM FEW003 21/19 A2992 RMK AO2 SLP117 T02110194 52003 $
SPECI ROTM 052054Z AUTO 12008KT 10SM FEW003 21/19 A2992 RMK AO2 $
METAR ROTM 051956Z AUTO 12007G15KT 10SM FEW010 21/19 A2991 RMK AO2 SLP113 T02110189 $
METAR ROTM 051856Z AUTO 13007KT 10SM FEW011 21/19 A2991 RMK AO2 SLP113 T02110189 $
SPECI ROTM 051807Z AUTO 12007KT 10SM FEW009 21/19 A2992 RMK AO2 T02110194 $
METAR ROTM 051756Z AUTO 12007KT 10SM FEW011 21/19 A2991 RMK AO2 SLP115 T02110194 10217 20194 56017 $
METAR ROTM 051656Z AUTO 13006KT 10SM CLR 21/19 A2992 RMK AO2 SLP119 T02060194 $
METAR ROTM 051556Z AUTO 10006KT 10SM CLR 21/19 A2995 RMK AO2 SLP128 T02060194 $
METAR ROTM 051456Z AUTO 04003KT 10SM CLR 20/19 A2997 RMK AO2 SLP134 T02000189 402440183 51011 $
METAR RJOI 052356Z 02004KT 10SM SCT180 BKN240 13/09 A2996 RMK AO2 SLP144 T01330094 10133 20106 51006 $
METAR RJOI 052156Z 33003KT 10SM FEW030 FEW250 11/08 A2995 RMK AO2 SLP142 T01110083 $
METAR RJOI 052056Z 32005KT 10SM FEW030 FEW250 11/08 A2994 RMK AO2 SLP138 T01110078 51008 $
METAR RJOI 051956Z 00000KT 10SM FEW030 12/08 A2994 RMK AO2 SLP136 T01170083 $
METAR RJOI 051856Z 00000KT 10SM CLR 12/09 A2992 RMK AO2 SLP132 T01170089 $
METAR RJOI 051756Z 30005KT 9999 FEW030 12/09 A2992 RMK AO2A SLP131 T01220094 10161 20122 51012
METAR RJOI 051656Z 27008KT 10SM FEW030 14/09 A2991 RMK AO2 SLP129 T01390094 $
METAR RJOI 051556Z 27009KT 10SM FEW030 14/10 A2990 RMK AO2 SLP125 T01440100 $
METAR RJOI 051456Z 25004KT 9999 FEW030 14/11 A2988 RMK AO2A SLP119 T01440106 402220122 53010
METAR RJGG 052300Z VRB01KT 9999 FEW005 BKN/// 15/14 Q1014 NOSIG
METAR RJGG 052230Z 32003KT 9999 FEW005 BKN/// 14/13 Q1014 NOSIG
METAR RJGG 052200Z 36002KT 9999 FEW010 SCT/// 14/13 Q1014 NOSIG
METAR RJGG 052130Z 01003KT 9999 FEW005 13/12 Q1014 NOSIG
METAR RJGG 052100Z 35005KT 9999 FEW005 11/11 Q1013 NOSIG
METAR RJGG 052030Z AUTO 31003KT 4500 BR NCD 12/12 Q1013 TEMPO 0300 FG VV001
METAR RJGG 052000Z AUTO 07002KT 5000 BR NCD 13/13 Q1013 TEMPO 0300 FG VV001
METAR RJGG 051930Z AUTO 03004KT 6000 R36/P2000N NCD 13/12 Q1012 TEMPO 0300 FG VV001
METAR RJGG 051900Z AUTO 34005KT 9000 NCD 11/11 Q1012 TEMPO 0300 FG VV001
METAR RJGG 051830Z AUTO 31002KT 5000 R36/P2000N BR NCD 12/12 Q1012 TEMPO 0300 FG VV001
METAR RJGG 051800Z AUTO 35005KT 2700 BR NCD 13/13 Q1011 TEMPO 0300 FG VV001
METAR RJGG 051730Z AUTO 36005KT 1900 R36/P2000N BR NCD 12/12 Q1011 TEMPO FM1800 0300 FG VV001
METAR RJGG 051700Z AUTO 36003KT 6000 R36/P2000N NCD 13/12 Q1011 TEMPO 2000 BR
METAR RJGG 051630Z AUTO 36007KT 4600 BR NCD 13/12 Q1011 TEMPO 2000 BR
METAR RJGG 051600Z AUTO 12004KT 7000 NCD 15/14 Q1010 NOSIG
METAR RJGG 051530Z AUTO 09002KT 7000 NCD 14/13 Q1010 NOSIG
METAR RJGG 051500Z AUTO 04002KT 9000 NCD 14/14 Q1010 NOSIG
METAR RJGG 051300Z 09004KT 050V130 9999 FEW020 BKN/// 15/13 Q1009 NOSIG
METAR RJCC 052300Z 17015KT 9999 FEW006 BKN008 BKN010 06/04 Q1013
METAR RJCC 052230Z 16008KT 9999 FEW004 BKN008 06/04 Q1013
METAR RJCC 052200Z 16008KT 9999 FEW004 BKN006 05/04 Q1013
METAR RJCC 052130Z 15005KT 9999 FEW004 BKN006 05/04 Q1013
METAR RJCC 052100Z 19004KT 9999 FEW005 BKN007 04/03 Q1013
METAR RJCC 052030Z 18004KT 9999 FEW006 BKN008 04/03 Q1013
METAR RJCC 052000Z 21003KT 9999 FEW006 BKN008 04/03 Q1013
METAR RJCC 051930Z VRB02KT 9999 FEW006 BKN008 04/03 Q1013
METAR RJCC 051900Z 01004KT 9999 FEW006 BKN008 04/03 Q1013
METAR RJCC 051830Z 01005KT 9999 FEW006 BKN008 04/03 Q1013
METAR RJCC 051800Z 35005KT 9999 FEW006 BKN008 04/02 Q1012
METAR RJCC 051730Z 35006KT 9999 FEW007 BKN009 04/03 Q1013
METAR RJCC 051700Z 35006KT 9999 FEW007 BKN009 04/02 Q1012
METAR RJCC 051630Z 34008KT 9999 FEW007 BKN010 04/02 Q1012
METAR RJCC 051600Z 33010KT 9999 FEW008 BKN011 05/03 Q1012
METAR RJCC 051500Z 34011KT 9999 FEW008 BKN011 05/03 Q1012
METAR RJCC 051430Z 35010KT 9999 FEW008 BKN011 05/03 Q1012
METAR RJCC 051300Z 35010KT 9999 FEW010 BKN012 05/03 Q1011
METAR ROAH 052300Z 09006KT 9999 FEW017 BKN120 BKN/// 22/21 Q1013
METAR ROAH 052230Z 11005KT 9999 SCT017 BKN/// 22/20 Q1013
METAR ROAH 052200Z 14005KT 9999 FEW013 BKN/// 22/20 Q1013
METAR ROAH 052130Z 14006KT 9999 FEW012 BKN/// 21/20 Q1012
METAR ROAH 052100Z 13005KT 9999 FEW012 BKN/// 21/20 Q1012
METAR ROAH 052030Z AUTO 11005KT 9999 FEW014 21/20 Q1012
METAR ROAH 052000Z AUTO 12006KT 9999 FEW013 21/20 Q1012
METAR ROAH 051930Z AUTO 13005KT 9999 FEW012 21/20 Q1012
METAR ROAH 051900Z AUTO 14006KT 9999 SCT012 21/20 Q1012
METAR ROAH 051830Z AUTO 12004KT 9999 SCT012 21/20 Q1012
METAR ROAH 051800Z AUTO 12004KT 9999 NCD 21/20 Q1012
METAR ROAH 051730Z AUTO 14006KT 9999 NCD 21/20 Q1012
METAR ROAH 051700Z AUTO 11006KT 9999 NCD 21/20 Q1012
METAR ROAH 051630Z AUTO 11007KT 9999 NCD 21/20 Q1012
METAR ROAH 051600Z AUTO 12005KT 9999 FEW020 21/20 Q1013
METAR ROAH 051500Z AUTO 04004KT 9999 NCD 22/20 Q1013
METAR ROAH 051300Z 10005KT 9999 FEW010 22/20 Q1013
METAR RJBB 052300Z 14004KT 040V190 CAVOK 16/14 Q1014 BECMG 22005KT
METAR RJBB 052230Z 21003KT 160V270 CAVOK 16/14 Q1014 NOSIG
METAR RJBB 052200Z VRB02KT CAVOK 16/15 Q1014 NOSIG
METAR RJBB 052130Z 34002KT CAVOK 14/14 Q1014 NOSIG
METAR RJBB 052100Z 01004KT CAVOK 13/13 Q1014 NOSIG
METAR RJBB 052030Z AUTO 04003KT 9999 NCD 14/13 Q1013 NOSIG
METAR RJBB 052000Z AUTO VRB02KT 9999 NCD 13/12 Q1013 NOSIG
METAR RJBB 051930Z AUTO 21005KT 9999 NCD 14/13 Q1013 NOSIG
METAR RJBB 051900Z AUTO 22006KT 9999 NCD 14/13 Q1013 NOSIG
METAR RJBB 051830Z AUTO 21005KT 9999 NCD 14/13 Q1012 NOSIG
METAR RJBB 051800Z AUTO 22006KT 9999 NCD 14/14 Q1012 NOSIG
METAR RJBB 051730Z AUTO 26006KT 9999 NCD 15/14 Q1012 NOSIG
METAR RJBB 051700Z AUTO 25005KT 9999 NCD 14/13 Q1012 NOSIG
METAR RJBB 051630Z AUTO VRB02KT 9999 NCD 15/14 Q1012 NOSIG
METAR RJBB 051600Z AUTO 24004KT 9999 NCD 15/13 Q1012 NOSIG
METAR RJBB 051530Z AUTO 25003KT 9999 NCD 15/14 Q1011 NOSIG
METAR RJBB 051500Z AUTO 24005KT 9999 NCD 15/14 Q1011 NOSIG
METAR RJBB 051300Z 19010KT 9999 FEW020 17/14 Q1010 NOSIG
METAR RJFF 052300Z 15014KT CAVOK 14/08 Q1013 NOSIG
METAR RJFF 052230Z 15012KT 9999 FEW025 BKN/// 14/08 Q1013 NOSIG
METAR RJFF 052200Z 15015KT 9999 FEW020 BKN/// 14/09 Q1013 NOSIG
METAR RJFF 052130Z 15014KT 9999 FEW020 BKN/// 14/09 Q1012 NOSIG
METAR RJFF 052100Z 14011KT 9999 FEW020 BKN/// 14/09 Q1012 NOSIG
METAR RJFF 052030Z AUTO 14011KT 9999 NCD 14/09 Q1012 NOSIG
METAR RJFF 052000Z AUTO 15014KT 9999 NCD 13/09 Q1013 NOSIG
METAR RJFF 051930Z AUTO 15015KT 9999 NCD 13/09 Q1013 NOSIG
METAR RJFF 051900Z AUTO 15015KT 9999 NCD 13/09 Q1013 NOSIG
METAR RJFF 051830Z AUTO 15014KT 9999 NCD 13/09 Q1013 NOSIG
METAR RJFF 051800Z AUTO 15012KT 9999 NCD 13/09 Q1013 NOSIG
METAR RJFF 051730Z AUTO 15011KT 9999 NCD 13/09 Q1013 NOSIG
METAR RJFF 051700Z AUTO 15012KT 9999 NCD 13/09 Q1013 NOSIG
METAR RJFF 051630Z AUTO 15012KT 9999 NCD 14/09 Q1013 NOSIG
METAR RJFF 051600Z AUTO 16014KT 9999 NCD 14/09 Q1013 NOSIG
METAR RJFF 051500Z AUTO 15010KT 9999 NCD 14/09 Q1013 NOSIG
METAR RJAA 052300Z 08007KT 9999 FEW010 BKN035 17/14 Q1014 NOSIG
METAR RJAA 052230Z 08006KT 9999 FEW015 SCT035 17/14 Q1014 NOSIG
METAR RJAA 052200Z 06006KT 9999 FEW015 BKN022 16/13 Q1013 BECMG 04005KT
METAR RJAA 052130Z 07005KT 9999 BKN020 15/13 Q1013 BECMG 04005KT
METAR RJAA 052100Z 04006KT 9999 -RA BKN020 15/12 Q1012 NOSIG
METAR RJAA 052030Z AUTO 02003KT 350V060 9999 OVC018 15/12 Q1012 NOSIG
METAR RJAA 052000Z AUTO 01002KT 9999 SCT014 OVC016 15/13 Q1012 TEMPO BKN013
METAR RJAA 051930Z AUTO 36003KT 340V040 9999 BKN014 OVC028 14/13 Q1011 NOSIG
METAR RJAA 051900Z AUTO 03003KT 340V060 9999 OVC014 14/13 Q1011 NOSIG
METAR RJAA 051830Z AUTO 03004KT 9999 BKN015 BKN049 14/13 Q1010 TEMPO BKN013
METAR RJAA 051800Z AUTO 04003KT 360V070 9999 SCT020 BKN024 OVC041 14/13 Q1010 NOSIG
METAR RJAA 051730Z AUTO 01004KT 9000 FEW023 BKN029 OVC033 14/13 Q1010 NOSIG
METAR RJAA 051700Z AUTO 01002KT 4400 R16R/P2000N R16L/P2000N BR FEW037 13/13 Q1009 TEMPO 2000 BR
METAR RJAA 051630Z AUTO VRB04KT 9999 NCD 14/13 Q1009 NOSIG
METAR RJAA 051600Z AUTO VRB01KT 9999 NSC 14/13 Q1009 NOSIG
METAR RJAA 051500Z AUTO 12002KT 9999 FEW019 14/13 Q1009 NOSIG
METAR RJAA 051430Z AUTO VRB02KT 9999 NCD 13/12 Q1009 NOSIG
METAR RJAA 051300Z 12003KT CAVOK 16/14 Q1009 NOSIG
METAR RJTT 052300Z 04005KT 9999 FEW030 17/14 Q1014 BECMG 08006KT
METAR RJTT 052230Z 04006KT 9999 FEW030 17/13 Q1014 BECMG 08006KT
METAR RJTT 052200Z 03005KT 9999 FEW030 16/12 Q1013 NOSIG
METAR RJTT 052130Z 02003KT 9999 BKN040 16/13 Q1013 NOSIG
METAR RJTT 052100Z 03005KT 9999 BKN040 16/13 Q1013 NOSIG
METAR RJTT 052030Z 01007KT 9999 FEW030 SCT040 16/13 Q1012 NOSIG
METAR RJTT 052000Z 34007KT 9999 FEW030 SCT040 BKN060 16/13 Q1012 NOSIG
METAR RJTT 051930Z 31006KT 9999 FEW030 SCT040 BKN060 16/13 Q1012 NOSIG
METAR RJTT 051900Z 31007KT 9999 FEW030 SCT060 15/13 Q1011 NOSIG
METAR RJTT 051830Z 30009KT 9999 SCT030 16/13 Q1011 NOSIG
METAR RJTT 051800Z 27009KT 9999 SCT030 16/13 Q1010 NOSIG
METAR RJTT 051730Z 26007KT 9999 FEW030 16/13 Q1010 NOSIG
METAR RJTT 051700Z 25009KT 9999 FEW030 17/13 Q1009 NOSIG
METAR RJTT 051630Z 23010KT CAVOK 17/13 Q1009 BECMG TL1700 27006KT
METAR RJTT 051600Z 22010KT 9999 FEW050 BKN/// 18/14 Q1009 BECMG TL1700 26006KT
METAR RJTT 051500Z 23010KT CAVOK 17/14 Q1009 BECMG TL1600 26006KT
METAR RJTT 051430Z 21013KT CAVOK 17/14 Q1009 BECMG 25006KT
METAR RJTT 051300Z 21014KT CAVOK 18/14 Q1008 NOSIG
METAR RJSF 052200Z AUTO VRB01KT 0200 R01/0300V0650N FG OVC001 10/10 Q1014
METAR RJSF 052100Z AUTO VRB01KT 0100 R01/0200N FG OVC000 10/10 Q1013
METAR RJSF 052000Z AUTO VRB02KT 0600 R01/1200VP2000D FG OVC000 10/10 Q1012
METAR RJSF 051900Z AUTO 35006KT 9999 BKN001 OVC007 11/11 Q1012
METAR RJSF 051800Z AUTO 10003KT 060V140 9999 FEW038 SCT041 BKN045 11/11 Q1011
METAR RJSF 051700Z AUTO 01008KT 9999 FEW031 SCT033 BKN036 11/11 Q1011
METAR RJSF 051600Z AUTO 36008KT 9000 -RA OVC034 11/11 Q1011
METAR RJSF 051500Z AUTO 01009KT 9999 BKN033 OVC041 11/11 Q1011
METAR RJOK 052200Z 34008KT 9999 FEW020 BKN/// 14/11 Q1013
METAR RJOK 052100Z AUTO 34009KT 9999 NCD 13/11 Q1013
METAR RJOK 052000Z AUTO 33009KT 9999 NCD 13/12 Q1013
METAR RJOK 051900Z AUTO 33009KT 9999 NCD 13/12 Q1012
METAR RJOK 051800Z AUTO 35004KT 310V020 9999 NCD 13/12 Q1012
METAR RJOK 051700Z AUTO 34006KT 9999 NCD 14/12 Q1012
METAR RJOK 051600Z AUTO 34007KT 9999 NCD 14/13 Q1012
METAR RJOK 051500Z AUTO 34006KT 9999 NCD 15/13 Q1011
METAR RORS 052200Z AUTO 17010KT 9999 BKN007 BKN009 BKN010 25/23 Q1011
METAR RORS 052100Z AUTO 17008KT 9999 SCT007 BKN009 OVC090 24/23 Q1011
METAR RORS 052000Z AUTO 17009KT 9999 FEW005 SCT007 BKN009 24/23 Q1011
METAR RORS 051900Z AUTO 14009KT 9999 FEW005 OVC011 24/23 Q1010
METAR RORS 051800Z AUTO 14010KT 9999 FEW005 OVC080 24/23 Q1011
METAR RORS 051700Z AUTO 14009KT 9999 NSC 24/22 Q1011
METAR RORS 051600Z AUTO 14011KT 9999 NSC 23/22 Q1012
METAR RORS 051500Z AUTO 13007KT 9999 NSC 23/22 Q1012
METAR RORS 051300Z AUTO 11006KT 9999 NCD 23/21 Q1012
METAR RJSA 052230Z VRB02KT 9999 FEW005 SCT050 BKN060 08/08 Q1012
METAR RJSA 052200Z AUTO 10003KT 9999 BKN008 OVC011 07/07 Q1012
METAR RJSA 052100Z AUTO 11001KT 9999 OVC009 05/05 Q1012
METAR RJSA 052000Z AUTO 14002KT 9999 R24/P2000N FEW007 OVC008 05/05 Q1012
METAR RJSA 051900Z AUTO 18004KT 9999 OVC006 06/06 Q1012
METAR RJSA 051800Z AUTO 19002KT 9999 R24/P2000N SCT002 BKN005 OVC007 05/05 Q1012
METAR RJSA 051700Z AUTO 13002KT 0200 R24/0550N FG OVC000 05/05 Q1012
METAR RJSA 051600Z AUTO 21003KT 0100 R24/0300N FG OVC000 06/06 Q1011
METAR RJSA 051500Z AUTO 26004KT 0100 R24/0450N FG OVC001 06/06 Q1012
METAR RJSA 051300Z AUTO 20003KT 0300 R24/0900N FG OVC001 06/06 Q1012
METAR RJSN 052230Z 20003KT 150V240 4000 R28/P2000N BR SCT002 BKN005 10/10 Q1013
METAR RJSN 052200Z AUTO VRB02KT 0300 R28/0350V0650D FG OVC001 10/10 Q1013
METAR RJSN 052100Z AUTO VRB01KT 0100 R28/0275V0400N FG OVC001 09/09 Q1013
METAR RJSN 052000Z AUTO VRB02KT 0100 R28/0450V1000U FG OVC001 10/10 Q1012
METAR RJSN 051900Z AUTO 05005KT 0500 R28/1100VP2000D FG OVC001 10/10 Q1012
METAR RJSN 051800Z AUTO 04007KT 0200 R28/0500V0700N FG OVC001 10/10 Q1012
METAR RJSN 051700Z AUTO 04006KT 0100 R28/0400V0600N FG OVC001 10/10 Q1011
METAR RJSN 051600Z AUTO 02006KT 0400 R28/0900VP2000D FG OVC001 11/10 Q1012
METAR RJSN 051500Z AUTO 02003KT 0100 R28/0400V0550N FG OVC001 10/10 Q1012
METAR RJNK 052200Z 14003KT 110V170 9999 FEW040 BKN050 11/11 Q1013
METAR RJNK 052100Z 26003KT 9999 FEW030 SCT050 09/09 Q1013
METAR RJNK 052000Z VRB01KT 9999 FEW050 BKN080 10/10 Q1012
METAR RJNK 051900Z 18003KT 9999 FEW005 BKN080 10/10 Q1012
METAR RJNK 051800Z 18004KT 150V210 9999 FEW005 BKN080 11/11 Q1011
METAR RJNK 051700Z 17004KT 9999 BKN080 10/10 Q1011
METAR RJNK 051600Z 26004KT 9999 SCT080 11/11 Q1011
METAR RJNK 051500Z 19004KT 9999 SCT080 11/11 Q1010
METAR RJNK 051300Z 17003KT 9999 SCT080 11/11 Q1010
METAR RJOC 052230Z 16009KT CAVOK 13/07 Q1012
METAR RJOC 052200Z AUTO 17007KT 9999 NCD 11/07 Q1012
METAR RJOC 052100Z AUTO 16007KT 9999 NCD 08/06 Q1012
METAR RJOC 052000Z AUTO 14007KT 9999 NCD 09/07 Q1012
METAR RJOC 051900Z AUTO 17006KT 9999 NCD 09/08 Q1012
METAR RJOC 051800Z AUTO 16008KT 9999 NCD 09/09 Q1012
METAR RJOC 051700Z AUTO 15006KT 9999 NCD 09/09 Q1012
METAR RJOC 051600Z AUTO 22003KT 9999 NCD 09/08 Q1011
METAR RJOC 051500Z AUTO 18003KT 9999 NCD 11/10 Q1011
METAR RJOC 051300Z AUTO 18003KT 9999 BKN020 12/10 Q1010
METAR ROIG 052200Z AUTO 16010KT 9999 BKN011 BKN140 OVC200 24/23 Q1010
METAR ROIG 052100Z AUTO 18010KT 9999 FEW023 SCT140 BKN150 24/22 Q1010
METAR ROIG 052000Z AUTO 17009KT 9999 SCT007 BKN009 BKN013 24/23 Q1010
METAR ROIG 051900Z AUTO 16007KT 9999 BKN007 BKN009 OVC080 25/24 Q1010
METAR ROIG 051800Z AUTO 16008KT 9000 SCT005 BKN007 BKN017 24/24 Q1011
METAR ROIG 051700Z AUTO 14008KT 9999 BKN005 BKN007 24/24 Q1011
METAR ROIG 051600Z AUTO 13008KT 9999 BKN007 BKN009 OVC080 25/24 Q1012
METAR ROIG 051500Z AUTO 13007KT 9999 SCT017 OVC070 24/23 Q1012
METAR RJNT 052200Z 29002KT 9999 FEW030 11/11 Q1012
METAR RJNT 052100Z AUTO VRB01KT 9999 NCD 09/09 Q1012
METAR RJNT 052000Z AUTO VRB02KT 0100 FG OVC000 10/10 Q1012
METAR RJNT 051900Z AUTO VRB01KT 0200 FG OVC001 10/10 Q1012
METAR RJNT 051800Z AUTO VRB01KT 1600 BR OVC001 11/10 Q1012
METAR RJNT 051700Z AUTO 25002KT 3100 BR OVC000 11/10 Q1011
METAR RJNT 051600Z AUTO VRB02KT 5000 BR OVC001 11/10 Q1011
METAR RJNT 051500Z AUTO 24003KT 9999 OVC003 11/10 Q1010
METAR ROMY 052200Z AUTO 17009KT 9999 SCT004 BKN007 BKN010 24/23 Q1011
METAR ROMY 052100Z AUTO 16008KT 9999 BKN005 BKN007 OVC090 24/23 Q1011
METAR ROMY 052000Z AUTO 16009KT 9999 FEW005 SCT007 BKN009 24/23 Q1011
METAR ROMY 051900Z AUTO 15008KT 9999 SCT007 BKN010 24/23 Q1011
METAR ROMY 051800Z AUTO 13007KT 9999 FEW007 OVC080 23/23 Q1011
METAR ROMY 051700Z AUTO 14008KT 9999 NSC 23/22 Q1012
METAR ROMY 051600Z AUTO 14006KT 9999 NSC 23/22 Q1012
METAR ROMY 051500Z AUTO 12007KT 9999 NSC 23/21 Q1013
METAR ROMY 051300Z AUTO 10005KT 9999 NSC 23/21 Q1012
METAR RJOS 052200Z 28006KT 9999 FEW030 BKN/// 13/11 Q1014
METAR RJOS 052100Z 28005KT 9999 FEW008 SCT/// 12/11 Q1014
METAR RJOS 052000Z 29004KT 9999 FEW030 12/11 Q1013
METAR RJOS 051900Z 30005KT 9999 FEW030 12/11 Q1013
METAR RJOS 051800Z 31004KT 9999 FEW030 13/11 Q1012
METAR RJOS 051700Z 29006KT 9999 FEW030 14/12 Q1012
METAR RJOS 051600Z 27009KT 9999 FEW030 14/12 Q1011
METAR RJOS 051500Z 27005KT 9999 FEW030 15/13 Q1011
METAR RJOS 051300Z 14003KT 110V170 9999 FEW030 SCT180 15/13 Q1010
METAR RJSK 052200Z 12004KT 7000 FEW000 SCT001 BKN009 10/10 Q1013
METAR RJSS 052230Z 00000KT 1200 R27/P2000N BCFG FEW001 SCT003 BKN006 12/11 Q1013
METAR RJSS 052200Z AUTO VRB01KT 0400 R27/0200V0450N FG FEW001 BKN005 OVC009 11/11 Q1013
METAR RJSS 052100Z AUTO VRB02KT 2100 R27/2000N BR SCT003 10/10 Q1013
METAR RJSS 052000Z AUTO VRB02KT 9999 R27/1200VP2000U FEW032 SCT041 BKN090 11/10 Q1013
METAR RJSS 051900Z AUTO VRB01KT 1600 BR OVC016 11/11 Q1012
METAR RJSS 051800Z AUTO 01002KT 7000 FEW007 SCT019 OVC070 11/11 Q1012
METAR RJSS 051700Z AUTO VRB02KT 5000 -RA BR FEW015 SCT050 BKN060 11/11 Q1012
METAR RJSS 051600Z AUTO 00000KT 8000 -RA FEW047 OVC050 //////CB 11/11 Q1012
METAR RJSS 051500Z AUTO 26004KT 9999 -RA BKN044 BKN070 OVC080 //////TCU 11/10 Q1012
METAR RJOR 052200Z 14005KT 9999 FEW002 11/10 Q1013
METAR RJOR 052100Z AUTO 13004KT 9999 NCD 10/09 Q1013
METAR RJOR 052000Z AUTO 15005KT 9999 NCD 11/10 Q1012
METAR RJOR 051900Z AUTO 15004KT 9999 NCD 11/10 Q1012
METAR RJOR 051800Z AUTO 16003KT 9999 NCD 11/10 Q1012
METAR RJOR 051700Z AUTO 14005KT 9999 NCD 12/11 Q1011
METAR RJOR 051600Z AUTO 14005KT 9999 NCD 12/11 Q1011
METAR RJOR 051500Z AUTO 16004KT 9999 NCD 12/11 Q1011
METAR RJOR 051300Z AUTO 17003KT 9999 NCD 13/12 Q1010
METAR RJOH 052200Z 19004KT 9999 FEW008 10/10 Q1013
METAR RJOH 052100Z 16003KT 9999 MIFG FEW250 08/08 Q1013
METAR RJOH 052000Z 21005KT 9999 FEW008 09/09 Q1013
METAR RJOH 051900Z 18004KT 140V210 9999 FEW008 09/09 Q1012
METAR RJOH 051800Z 16003KT 9999 MIFG FEW008 10/10 Q1012
METAR RJOH 051700Z 22004KT 9999 FEW008 10/10 Q1012
METAR RJOH 051600Z 16004KT 9999 FEW030 10/10 Q1011
METAR RJOH 051500Z 18005KT 9999 FEW030 11/11 Q1011
METAR RJOH 051300Z 31004KT 9999 FEW015 SCT020 BKN030 13/13 Q1011
METAR RJOB 052200Z 27002KT 9999 PRFG FEW000 BKN/// 12/10 Q1014
METAR RJOA 052230Z VRB02KT 9999 BCFG FEW000 BKN/// 11/09 Q1014
METAR RJOA 052200Z AUTO 00000KT 9999 NCD 11/09 Q1014
METAR RJOA 052100Z AUTO VRB01KT 9999 NCD 11/08 Q1013
METAR RJOA 052000Z AUTO 31003KT 9999 NCD 10/08 Q1013
METAR RJOA 051900Z AUTO 32004KT 9999 NCD 11/09 Q1013
METAR RJOA 051800Z AUTO VRB02KT 9999 NCD 12/09 Q1013
METAR RJOA 051700Z AUTO 30002KT 9999 NCD 11/09 Q1012
METAR RJOA 051600Z AUTO VRB02KT 9999 NCD 11/09 Q1012
METAR RJOA 051500Z AUTO 29002KT 9999 NCD 12/09 Q1012
METAR RJNS 052230Z VRB02KT 9999 FEW003 BKN/// 16/13 Q1013
METAR RJNS 052200Z AUTO 24007KT 9999 NCD 15/12 Q1013
METAR RJNS 052100Z AUTO 26008KT 9999 NCD 14/12 Q1012
METAR RJNS 052000Z AUTO 25010KT 9999 NCD 14/12 Q1012
METAR RJNS 051900Z AUTO 26011KT 9999 NCD 14/13 Q1011
METAR RJNS 051800Z AUTO 25011KT 9999 FEW060 15/13 Q1011
METAR RJNS 051700Z AUTO 26009KT 9999 NCD 15/14 Q1010
METAR RJNS 051600Z AUTO 25006KT 9999 FEW017 15/14 Q1010
METAR RJNS 051500Z AUTO 25007KT 9999 NCD 15/14 Q1010
METAR RJNS 051300Z AUTO 24007KT 9999 FEW025 16/13 Q1010
METAR RJOO 052200Z 31004KT 9999 FEW008 BKN/// 14/12 Q1014
METAR RJOO 052100Z AUTO 31002KT 9999 NCD 12/11 Q1013
METAR RJOO 052000Z AUTO 32004KT 9999 NCD 12/11 Q1013
METAR RJOO 051900Z AUTO 30005KT 260V330 9999 NCD 13/11 Q1012
METAR RJOO 051800Z AUTO VRB01KT 9999 NCD 14/11 Q1012
METAR RJOO 051700Z AUTO 31005KT 9999 SCT022 14/11 Q1012
METAR RJOO 051600Z AUTO 30004KT 9999 FEW022 SCT036 BKN044 15/11 Q1011
METAR RJOO 051500Z AUTO 29004KT 9999 SCT034 BKN036 16/12 Q1011
METAR RJOT 052200Z VRB02KT CAVOK 13/10 Q1014
METAR RJOT 052100Z AUTO 22006KT 9999 NCD 11/09 Q1013
METAR RJOT 052000Z AUTO 20005KT 9999 NCD 12/09 Q1014
METAR RJOT 051900Z AUTO 15007KT 9999 NCD 12/10 Q1013
METAR RJOT 051800Z AUTO 14008KT 9999 NCD 12/09 Q1012
METAR RJOT 051700Z AUTO 16007KT 9999 NCD 12/09 Q1012
METAR RJOT 051600Z AUTO VRB02KT 9999 NCD 13/09 Q1012
METAR RJOT 051500Z AUTO 19005KT 150V220 9999 NCD 14/09 Q1011
METAR RJOM 052200Z 11011KT 9999 FEW025 BKN/// 13/10 Q1014
METAR RJOM 052100Z AUTO 12007KT 9999 NCD 13/10 Q1014
METAR RJOM 052000Z AUTO 12007KT 9999 NCD 12/10 Q1014
METAR RJOM 051900Z AUTO 12007KT 090V170 9999 NCD 13/10 Q1013
METAR RJOM 051800Z AUTO 15006KT 9999 NCD 12/10 Q1013
METAR RJOM 051700Z AUTO 14006KT 9999 NCD 13/10 Q1013
METAR RJOM 051600Z AUTO 13006KT 9999 FEW038 13/11 Q1012
METAR RJOM 051500Z AUTO 14005KT 9999 FEW047 13/10 Q1012
METAR RJOM 051300Z AUTO 14007KT 9999 OVC050 15/11 Q1011
METAR ROYN 052200Z AUTO 17013KT 130V210 3800 -RA BR FEW007 SCT009 BKN010 //////CB 25/24 Q1010
METAR ROYN 052100Z AUTO 16014KT 9000 -RA SCT009 SCT010 BKN013 25/24 Q1009
METAR ROYN 052000Z AUTO 16016KT 9999 FEW007 SCT009 BKN010 25/24 Q1009
METAR ROYN 051900Z AUTO 16013KT 9999 FEW009 BKN010 BKN017 25/24 Q1009
METAR ROYN 051800Z AUTO 16012KT 9999 SCT009 BKN010 BKN090 25/24 Q1010
METAR ROYN 051700Z AUTO 14010KT 9999 BKN010 OVC080 //////TCU 25/23 Q1010
METAR ROYN 051600Z AUTO 14011KT 9999 FEW014 BKN018 BKN200 25/23 Q1010
METAR ROYN 051500Z AUTO 13009KT 9999 NSC 25/23 Q1011
METAR RJNW 052200Z AUTO 25004KT 9999 FEW003 SCT005 11/11 Q1013
METAR RJNW 052100Z AUTO 28003KT 2600 BR OVC000 09/09 Q1012
METAR RJNW 052000Z AUTO VRB01KT 6000 FEW005 06/06 Q1012
METAR RJNW 051900Z AUTO 00000KT 9999 NSC 07/07 Q1012
METAR RJNW 051800Z AUTO 00000KT 5000 R25/1200VP2000D BR NSC 08/08 Q1011
METAR RJNW 051700Z AUTO VRB01KT 9999 NSC 08/07 Q1011
METAR RJNW 051600Z AUTO 05002KT 9999 NSC 07/06 Q1011
METAR RJNW 051500Z AUTO VRB01KT 9999 NSC 07/07 Q1011
METAR RJSY 052200Z 12006KT 9999 PRFG FEW000 SCT070 09/08 Q1013
METAR RJSM 052200Z 11006KT 5000 R10/1200VP1800D -DZ BR FEW001 SCT003 BKN005 06/06 Q1014
METAR RJSM 052100Z 08007KT 2500 -DZ BR SCT001 BKN003 BKN005 06/06 Q1014
METAR RJSM 052000Z 10005KT 070V130 0800 R28/1700D FG BKN001 BKN003 07/07 Q1013
METAR RJSM 051900Z VRB02KT 1500 R28/1700U BR BKN001 BKN003 06/06 Q1013
METAR RJSM 051800Z 23003KT 170V260 1000 R28/P1800N BR SCT001 BKN003 BKN005 07/07 Q1012
METAR RJSM 051700Z 31003KT 270V350 9999 FEW003 BKN005 BKN/// 08/08 Q1012
METAR RJSM 051600Z VRB02KT 9999 MIFG FEW003 BKN005 BKN/// 07/07 Q1012
METAR RJSM 051500Z VRB01KT 9999 MIFG FEW005 SCT015 BKN/// 07/07 Q1012
METAR RJTY 052155Z 02003KT 10SM BKN040 16/12 A2998 RMK AO2A SLP154 T01620118 $
METAR RJTY 052055Z 01004KT 10SM OVC041 15/12 A2995 RMK AO2A SLP144 T01470117 52020 $
SPECI RJTY 052020Z 01004KT 10SM BKN030 OVC043 15/11 A2995 RMK AO2A SLP144 $
METAR RJTY 051955Z 01003KT 10SM OVC027 16/11 A2994 RMK AO2A SLP140 T01560114 $
METAR RJTY 051855Z AUTO 03006KT 10SM SCT023 OVC031 16/12 A2992 RMK AO2 SLP134 T01610115 $
SPECI RJTY 051830Z AUTO 04004KT 10SM OVC030 16/12 A2990 RMK AO2 SLP127 $
SPECI RJTY 051742Z 01007KT 10SM BKN029 BKN038 16/12 A2989 RMK AO2A CIG 029V037 BKN029 V SCT CIG 027 RWY18 SLP123 $
METAR RJTY 051655Z 02010KT 10SM FEW029 SCT036 BKN048 BKN070 16/12 A2987 RMK AO2A RAE1555RAB33E49DZB49E53 SLP116 P0000 T01610121 $
SPECI RJTY 051653Z 02011KT 10SM -DZ FEW029 SCT036 BKN048 16/12 A2987 RMK AO2A RAE1555RAB33E49DZB49E53 SLP116 $
SPECI RJTY 051633Z AUTO 35007KT 10SM -RA OVC018 16/12 A2987 RMK AO2 RAB33 SLP116 $
METAR RJTY 051555Z AUTO 36008KT 10SM SCT018 OVC031 16/13 A2987 RMK AO2 PRESRR SLP117 T01640125 $
SPECI RJTY 051540Z AUTO 36009KT 10SM FEW017 OVC030 17/13 A2985 RMK AO2 SLP110 $
METAR RJTY 051455Z 34007KT 10SM OVC023 17/14 A2985 RMK AO2A SLP110 T01690136 402370121 52011 $
METAR RODN 052155Z 09006KT 10SM SCT020 22/20 A2992 RMK AO2A SLP133 T02180197 FZRANO $
METAR RODN 051955Z 09006KT 10SM FEW015 21/19 A2990 RMK AO2A SLP126 T02090192 FZRANO $
METAR RODN 051855Z 11006KT 10SM FEW018 21/20 A2989 RMK AO2A SLP123 T02120197 FZRANO $
METAR RODN 051755Z 08003KT 10SM FEW018 21/20 A2991 RMK AO2A SLP130 T02100196 10216 20187 57016 FZRANO $
METAR RODN 051655Z 07006KT 10SM CLR 21/19 A2991 RMK AO2A SLP130 T02050193 FZRANO $
METAR RODN 051455Z 03006KT 10SM FEW013 20/19 A2995 RMK AO2A SLP143 T02030191 402600189 51011 FZRANO $
METAR RJCC 051230Z 35011KT 9999 FEW010 BKN012 05/03 Q1011
METAR RJCC 051200Z 36009KT 9999 FEW010 BKN012 05/03 Q1011
METAR RJCC 051130Z 35010KT 9999 FEW010 BKN012 06/03 Q1012
METAR RJCC 051100Z 35010KT 9999 FEW010 BKN014 05/03 Q1012
METAR RJCC 051030Z 35011KT 9999 FEW010 SCT014 05/03 Q1011
METAR RJCC 051000Z 36011KT 9999 FEW010 BKN014 06/03 Q1011
METAR RJCC 050930Z 36011KT 9999 FEW010 BKN014 06/03 Q1011
METAR RJCC 050900Z 36011KT 9999 FEW010 SCT015 07/03 Q1010
METAR RJCC 050830Z 35013KT 9999 FEW010 SCT015 08/04 Q1009
METAR RJCC 050800Z 35016KT 9999 FEW010 SCT015 08/04 Q1009
METAR RJCC 050730Z 35015KT 9999 FEW010 BKN015 09/05 Q1009
METAR RJCC 050700Z 36015KT 9999 FEW010 BKN015 09/05 Q1008
METAR RJCC 050630Z 36016KT 9999 FEW010 BKN015 10/05 Q1008
METAR RJCC 050600Z 35017KT 9999 FEW007 SCT010 BKN014 10/06 Q1008
METAR RJCC 050530Z 35015KT 9999 FEW007 SCT010 BKN014 11/06 Q1007
METAR RJCC 050500Z 35015KT 9999 FEW007 BKN010 BKN012 10/06 Q1007
METAR RJCC 050430Z 35016KT 9999 FEW005 BKN007 BKN010 10/07 Q1007
METAR RJCC 050400Z 36012KT 9999 FEW005 BKN007 10/08 Q1007
METAR RJCC 050330Z 35015KT 9999 FEW006 BKN008 BKN015 11/08 Q1006
METAR RJCC 050300Z 35014KT 9999 FEW010 SCT015 BKN035 14/09 Q1005
METAR RJCC 050230Z 01012KT 9999 FEW010 SCT015 BKN040 14/09 Q1005
METAR RJCC 050200Z 36009KT 9999 FEW008 SCT016 BKN040 14/09 Q1004
METAR RJCC 050130Z 35009KT 9999 FEW008 SCT012 BKN040 13/09 Q1005
METAR RJCC 050100Z 33007KT 9999 FEW004 SCT008 BKN040 14/11 Q1004
METAR RJCC 050030Z 34003KT 280V030 8000 FEW002 SCT004 BKN006 12/11 Q1004
METAR RJCC 050000Z VRB01KT 7000 FEW001 BKN004 BKN006 10/10 Q1004
METAR RJBB 051230Z 21011KT 9999 FEW020 SCT/// 16/14 Q1010 NOSIG
METAR RJBB 051200Z 21007KT 9999 FEW020 BKN/// 16/13 Q1010 NOSIG
METAR RJBB 051130Z 19006KT 9999 FEW020 BKN/// 16/13 Q1010 NOSIG
METAR RJBB 051100Z 21006KT 9999 FEW020 BKN/// 18/13 Q1010 NOSIG
METAR RJBB 051030Z 22006KT 9999 FEW020 BKN080 16/13 Q1010 NOSIG
METAR RJBB 051000Z 24006KT 9999 FEW020 SCT050 BKN080 16/12 Q1009 NOSIG
METAR RJBB 050930Z 26005KT 9999 FEW020 SCT050 15/13 Q1009 NOSIG
METAR RJBB 050900Z 27004KT 9999 FEW020 BKN/// 16/13 Q1009 NOSIG
METAR RJBB 050830Z 24004KT 9999 FEW020 BKN/// 17/13 Q1009 NOSIG
METAR RJBB 050800Z 30003KT 230V330 9999 FEW020 16/13 Q1008 NOSIG
METAR RJBB 050730Z 32005KT 9999 FEW020 16/13 Q1008 NOSIG
METAR RJBB 050700Z 33006KT 9999 FEW020 16/13 Q1008 BECMG 32005KT
METAR RJBB 050630Z 33003KT 9999 FEW020 SCT/// 17/13 Q1008 NOSIG
METAR RJBB 050600Z 30004KT 240V330 9999 FEW020 BKN050 16/13 Q1008 NOSIG
METAR RJBB 050530Z 30003KT 9999 FEW020 BKN/// 16/13 Q1008 NOSIG
METAR RJBB 050500Z 32003KT 9999 FEW020 BKN/// 16/13 Q1008 NOSIG
METAR RJBB 050430Z 32004KT 9999 FEW020 SCT060 BKN/// 15/13 Q1008 NOSIG
METAR RJBB 050400Z 34005KT 9999 FEW020 SCT070 BKN/// 16/12 Q1008 BECMG 32004KT
METAR RJBB 050330Z 36004KT 9999 FEW020 BKN/// 16/13 Q1008 NOSIG
METAR RJBB 050300Z 01004KT 9999 FEW020 SCT180 BKN/// 16/12 Q1008 NOSIG
METAR RJBB 050230Z 02005KT 9999 FEW020 SCT180 BKN/// 16/13 Q1008 NOSIG
METAR RJBB 050200Z 35005KT 9999 FEW020 BKN/// 15/13 Q1008 NOSIG
METAR RJBB 050130Z 01005KT 9999 FEW020 BKN/// 16/14 Q1009 NOSIG
METAR RJBB 050100Z 04008KT 9999 FEW015 BKN/// 17/13 Q1009 NOSIG
METAR RJBB 050030Z 07007KT 030V100 9999 FEW015 BKN/// 18/14 Q1009 NOSIG
METAR RJBB 050000Z 07003KT 340V160 9999 FEW015 BKN/// 17/14 Q1008 NOSIG
METAR RJAA 051230Z 12005KT CAVOK 16/14 Q1009 NOSIG
METAR RJAA 051200Z 12005KT CAVOK 16/14 Q1009 NOSIG
METAR RJAA 051130Z 12005KT 9999 FEW030 BKN190 17/14 Q1009 NOSIG
METAR RJAA 051100Z 16004KT 9999 FEW030 BKN190 18/13 Q1008 NOSIG
METAR RJAA 051030Z VRB02KT 9999 FEW030 BKN180 19/13 Q1008 BECMG 21006KT
METAR RJAA 051000Z 18006KT 9999 FEW030 BKN170 19/13 Q1007 NOSIG
METAR RJAA 050930Z 16004KT 130V210 9999 FEW030 BKN170 19/13 Q1007 NOSIG
METAR RJAA 050900Z 22006KT 160V240 9999 FEW030 BKN180 21/13 Q1007 NOSIG
METAR RJAA 050830Z 22007KT 190V260 9999 FEW030 BKN180 21/12 Q1007 NOSIG
METAR RJAA 050800Z 22007KT 190V280 9999 FEW030 BKN180 22/13 Q1007 NOSIG
METAR RJAA 050730Z 23006KT 200V270 9999 FEW030 BKN180 23/13 Q1006 NOSIG
METAR RJAA 050700Z 22006KT 180V260 9999 FEW030 BKN160 23/14 Q1006 NOSIG
METAR RJAA 050630Z 19007KT 9999 FEW030 BKN170 BKN/// 23/14 Q1006 NOSIG
METAR RJAA 050600Z 22005KT 180V260 9999 FEW030 BKN170 24/15 Q1006 NOSIG
METAR RJAA 050530Z 23008KT 9999 FEW025 BKN170 BKN/// 23/15 Q1006 NOSIG
METAR RJAA 050500Z 25004KT 200V300 9999 FEW025 BKN/// 24/16 Q1006 BECMG 23008KT
METAR RJAA 050430Z 24006KT 210V280 9999 FEW025 SCT190 BKN/// 24/17 Q1005 BECMG 23008KT
METAR RJAA 050400Z 25006KT 200V270 9999 FEW025 BKN/// 24/17 Q1005 BECMG 23008KT
METAR RJAA 050330Z 24006KT 200V290 9999 FEW020 BKN/// 24/18 Q1005 BECMG TL0430 23008KT
METAR RJAA 050300Z 25005KT 190V330 9999 FEW020 BKN/// 24/17 Q1005 BECMG FM0400 23008KT
METAR RJAA 050230Z 26006KT 220V310 9999 FEW015 SCT020 BKN/// 23/17 Q1005 BECMG FM0400 23008KT
METAR RJAA 050200Z 26007KT 220V290 9999 FEW015 SCT020 BKN/// 23/18 Q1005 NOSIG
METAR RJAA 050130Z 25006KT 210V290 9999 FEW012 BKN/// 22/18 Q1005 NOSIG
METAR RJAA 050100Z 26005KT 210V300 9999 FEW012 SCT020 BKN/// 21/18 Q1005 NOSIG
METAR RJAA 050030Z 29005KT 250V320 9999 FEW008 SCT018 BKN/// 20/18 Q1005 NOSIG
METAR RJAA 050000Z 33004KT 290V360 9999 FEW008 BKN017 BKN/// 19/17 Q1005 NOSIG
METAR RJSN 051300Z AUTO 03002KT 9999 FEW070 BKN080 BKN210 10/10 Q1011
METAR RJSN 051200Z 34003KT 9999 FEW003 BKN070 11/10 Q1012
METAR RJSN 051100Z 36003KT 9999 FEW003 SCT070 BKN/// 11/10 Q1012
METAR RJSN 051000Z 32004KT 9999 FEW015 BKN070 BKN100 11/11 Q1011
METAR RJSN 050900Z 01005KT 9999 FEW008 SCT015 BKN060 12/11 Q1011
METAR RJSN 050800Z 05007KT 9999 FEW004 SCT010 BKN015 12/11 Q1011
METAR RJSN 050700Z 03008KT 9999 FEW003 SCT004 BKN010 12/10 Q1010
METAR RJSN 050600Z 01008KT 9999 FEW003 SCT005 BKN008 13/11 Q1010
METAR RJSN 050500Z 29011KT 9999 FEW010 SCT020 BKN/// 14/11 Q1010
METAR RJSN 050400Z 26012KT 9999 -SHRA FEW008 SCT015 BKN020 13/11 Q1010
METAR RJSN 050300Z 27012KT 9999 FEW008 BKN015 BKN030 14/11 Q1010
METAR RJSN 050200Z 26013KT 9999 FEW008 SCT015 BKN030 14/11 Q1010
METAR RJSN 050100Z 23011KT 9999 FEW008 SCT015 BKN030 15/12 Q1009
METAR RJSN 050000Z 23011KT 9999 FEW008 BKN015 BKN030 15/12 Q1009
METAR ROAH 051230Z 09006KT 9999 FEW009 22/21 Q1013
METAR ROAH 051200Z 09007KT 9999 FEW009 BKN/// 22/21 Q1012
METAR ROAH 051130Z 10007KT 9999 FEW020 BKN/// 22/20 Q1012
METAR ROAH 051100Z 10008KT 9999 FEW020 BKN/// 23/20 Q1012
METAR ROAH 051030Z 11008KT 9999 FEW020 BKN/// 23/21 Q1012
METAR ROAH 051000Z 10006KT 9999 FEW014 BKN/// 23/20 Q1011
METAR ROAH 050930Z 01005KT 9999 FEW018 23/20 Q1011
METAR ROAH 050900Z 01006KT 9999 FEW020 24/19 Q1011
METAR ROAH 050830Z 03007KT 9999 FEW020 24/19 Q1011
METAR ROAH 050800Z 01010KT 9999 FEW020 24/20 Q1011
METAR ROAH 050730Z 01008KT 9999 FEW015 SCT020 BKN/// 23/20 Q1011
METAR ROAH 050700Z 34010KT 9999 BKN020 BKN/// 23/20 Q1011
METAR ROAH 050630Z 34011KT 9999 FEW020 BKN024 24/21 Q1011
METAR ROAH 050600Z 33009KT 290V360 9999 SCT021 BKN060 23/21 Q1011
METAR ROAH 050530Z 32006KT 290V350 9999 FEW023 BKN060 24/21 Q1010
METAR ROAH 050500Z 32006KT 290V040 9999 FEW018 BKN070 25/22 Q1010
METAR ROAH 050430Z 35009KT 9999 FEW018 SCT070 24/21 Q1010
METAR ROAH 050400Z 35010KT 9999 FEW018 24/22 Q1010
METAR ROAH 050330Z 36008KT 9999 FEW016 24/21 Q1011
METAR ROAH 050300Z 02006KT 9999 FEW013 24/21 Q1011
METAR ROAH 050230Z 01010KT 9999 FEW007 BKN070 22/21 Q1011
METAR ROAH 050200Z 36009KT 9999 SCT007 SCT010 BKN070 22/20 Q1011
METAR ROAH 050130Z 01007KT 9999 SCT007 BKN060 22/20 Q1011
METAR ROAH 050100Z 04008KT 9999 SCT007 BKN060 22/20 Q1011
METAR ROAH 050030Z 09006KT 9999 VCSH FEW005 BKN060 BKN100 21/20 Q1011
METAR ROAH 050000Z 09009KT 9999 VCSH FEW005 BKN060 BKN100 21/20 Q1010
METAR RJFF 051300Z 12005KT CAVOK 14/10 Q1012 NOSIG
METAR RJFF 051230Z 07004KT 010V180 CAVOK 14/11 Q1012 NOSIG
METAR RJFF 051200Z 06004KT 360V080 CAVOK 14/11 Q1012 NOSIG
METAR RJFF 051130Z 03005KT 340V070 CAVOK 15/11 Q1012 BECMG 14004KT
METAR RJFF 051100Z 05004KT 360V070 CAVOK 15/11 Q1011 NOSIG
METAR RJFF 051030Z 31004KT 250V010 CAVOK 16/11 Q1011 NOSIG
METAR RJFF 051000Z 32006KT CAVOK 16/10 Q1010 BECMG 14004KT
METAR RJFF 050930Z 32003KT 270V350 CAVOK 17/10 Q1010 NOSIG
METAR RJFF 050900Z 30009KT 270V340 9999 FEW030 18/09 Q1010 NOSIG
METAR RJFF 050830Z 29010KT 260V320 9999 FEW030 18/10 Q1010 NOSIG
METAR RJFF 050800Z 31009KT 9999 FEW030 18/11 Q1010 NOSIG
METAR RJFF 050730Z 30010KT 9999 FEW030 BKN040 18/11 Q1009 NOSIG
METAR RJFF 050700Z 33011KT 9999 FEW030 BKN045 BKN/// 18/11 Q1009 NOSIG
METAR RJFF 050630Z 34010KT 9999 FEW030 SCT050 BKN/// 18/11 Q1009 NOSIG
METAR RJFF 050600Z 30012KT 9999 FEW025 SCT040 BKN050 18/12 Q1009 NOSIG
METAR RJFF 050530Z 32013KT 9999 FEW025 BKN045 BKN/// 18/11 Q1009 NOSIG
METAR RJFF 050500Z 32010KT 9999 FEW030 BKN050 BKN/// 18/11 Q1009 NOSIG
METAR RJFF 050430Z 32010KT 9999 FEW025 BKN050 18/12 Q1009 NOSIG
METAR RJFF 050400Z 31012KT 9999 FEW025 SCT045 BKN/// 18/12 Q1009 NOSIG
METAR RJFF 050330Z 32012KT 280V340 9999 FEW030 19/12 Q1009 NOSIG
METAR RJFF 050300Z 31012KT 9999 FEW030 SCT045 19/12 Q1009 NOSIG
METAR RJFF 050230Z 30009KT 280V340 9999 FEW030 SCT050 20/11 Q1009 NOSIG
METAR RJFF 050200Z 33007KT 290V360 9999 FEW030 19/08 Q1009 NOSIG
METAR RJFF 050130Z 31007KT 280V020 9999 FEW025 19/10 Q1009 NOSIG
METAR RJFF 050100Z VRB02KT 9999 FEW020 18/11 Q1009 BECMG 31011KT
METAR RJFF 050030Z VRB02KT 9999 FEW020 17/11 Q1009 BECMG 31011KT
METAR RJFF 050000Z VRB02KT 9999 FEW020 17/11 Q1010 BECMG 31008KT
METAR RJNK 051200Z 03003KT 320V080 9999 FEW030 12/11 Q1010
METAR RJNK 051100Z VRB02KT 9999 FEW030 13/11 Q1010
METAR RJNK 051000Z 05008KT 9999 FEW030 13/11 Q1010
METAR RJNK 050900Z 02007KT 9999 FEW030 14/11 Q1010
METAR RJNK 050800Z 36008KT 9999 FEW030 15/11 Q1010
METAR RJNK 050700Z 35008KT 9999 FEW030 SCT250 15/11 Q1009
METAR RJNK 050600Z 36009KT 9999 FEW020 BKN250 15/11 Q1009
METAR RJNK 050500Z 36010KT 9999 FEW020 BKN250 15/12 Q1009
METAR RJNK 050400Z 35006KT 310V020 9999 FEW020 BKN250 15/12 Q1009
METAR RJNK 050300Z 33009KT 9999 BKN020 BKN250 15/11 Q1010
METAR RJNK 050200Z 33006KT 290V360 9999 FEW008 BKN020 14/11 Q1009
METAR RJNK 050100Z 31004KT 280V350 9999 FEW008 BKN020 14/12 Q1009
METAR RJNK 050000Z 27004KT 230V300 9999 FEW008 BKN020 14/13 Q1010
METAR RJGG 051230Z 14003KT 080V180 9999 FEW020 SCT070 BKN/// 16/14 Q1010 NOSIG
METAR RJGG 051200Z 10003KT 9999 FEW020 BKN070 16/14 Q1010 NOSIG
METAR RJGG 051130Z 14003KT 9999 FEW020 BKN070 16/14 Q1010 NOSIG
METAR RJGG 051100Z 12004KT 9999 FEW020 BKN070 16/14 Q1009 NOSIG
METAR RJGG 051030Z 14006KT 9999 FEW020 BKN060 17/14 Q1009 NOSIG
METAR RJGG 051000Z 15008KT 9999 FEW020 BKN060 BKN/// 16/14 Q1009 NOSIG
METAR RJGG 050930Z 17012KT 9999 FEW020 SCT060 BKN/// 16/14 Q1009 NOSIG
METAR RJGG 050900Z 16008KT 9999 FEW015 SCT050 BKN070 18/12 Q1008 NOSIG
METAR RJGG 050830Z 16006KT 110V170 9999 FEW015 SCT045 BKN060 19/12 Q1008 NOSIG
METAR RJGG 050800Z 15006KT 9999 FEW015 BKN045 18/12 Q1008 NOSIG
METAR RJGG 050730Z 15007KT 9999 FEW015 BKN045 19/12 Q1007 NOSIG
METAR RJGG 050700Z 19003KT 9999 FEW015 BKN045 19/12 Q1007 NOSIG
METAR RJGG 050630Z 19003KT 9999 FEW015 BKN040 BKN/// 19/13 Q1007 NOSIG
METAR RJGG 050600Z VRB01KT 9999 FEW015 SCT040 BKN/// 19/13 Q1007 BECMG 22005KT
METAR RJGG 050530Z VRB02KT 9999 FEW015 BKN045 BKN/// 18/13 Q1007 BECMG 22005KT
METAR RJGG 050500Z 19003KT 140V230 9999 FEW015 BKN/// 18/14 Q1007 NOSIG
METAR RJGG 050430Z 25004KT 9999 FEW015 BKN/// 18/13 Q1007 NOSIG
METAR RJGG 050400Z 27006KT 9999 FEW015 BKN/// 18/13 Q1007 BECMG TL0500 24004KT
METAR RJGG 050330Z 27008KT 9999 FEW015 BKN/// 18/14 Q1007 BECMG TL0500 24004KT
METAR RJGG 050300Z VRB02KT 9999 FEW015 BKN/// 18/12 Q1007 NOSIG
METAR RJGG 050230Z 29005KT 9999 FEW015 BKN/// 17/13 Q1007 NOSIG
METAR RJGG 050200Z 29006KT 9999 FEW015 BKN/// 17/13 Q1007 NOSIG
METAR RJGG 050130Z 28006KT 9999 FEW015 BKN/// 17/13 Q1007 NOSIG
METAR RJGG 050100Z 30006KT 9999 FEW015 BKN/// 17/13 Q1007 NOSIG
METAR RJGG 050030Z 32007KT 9999 FEW015 BKN/// 16/13 Q1008 NOSIG
METAR RJGG 050000Z 31007KT 9999 FEW015 SCT050 BKN/// 16/13 Q1008 NOSIG
METAR RJTT 051230Z 20015KT CAVOK 18/14 Q1008 NOSIG
METAR RJTT 051200Z 18017KT CAVOK 18/14 Q1008 NOSIG
METAR RJTT 051130Z 19012KT CAVOK 19/14 Q1008 NOSIG
METAR RJTT 051100Z 19014KT CAVOK 20/14 Q1008 NOSIG
METAR RJTT 051030Z 20012KT CAVOK 19/14 Q1007 NOSIG
METAR RJTT 051000Z 20010KT 9999 FEW020 BKN/// 19/14 Q1007 NOSIG
METAR RJTT 050930Z 20012KT 9999 FEW020 BKN/// 19/14 Q1007 NOSIG
METAR RJTT 050900Z 19012KT 9999 FEW020 BKN/// 18/14 Q1007 NOSIG
METAR RJTT 050830Z 18012KT 9999 FEW020 BKN/// 20/14 Q1006 NOSIG
METAR RJTT 050800Z 20012KT 9999 FEW020 BKN/// 19/14 Q1006 NOSIG
METAR RJTT 050730Z 20013KT 9999 FEW020 BKN/// 19/14 Q1006 NOSIG
METAR RJTT 050700Z 20014KT 9999 FEW020 BKN/// 20/14 Q1006 NOSIG
METAR RJTT 050630Z 20018KT 9999 FEW020 BKN/// 20/15 Q1005 NOSIG
METAR RJTT 050600Z 20015KT 9999 FEW020 BKN/// 20/15 Q1005 NOSIG
METAR RJTT 050530Z 20015KT 9999 FEW020 BKN/// 20/15 Q1006 NOSIG
METAR RJTT 050500Z 19014KT 9999 FEW020 BKN/// 21/15 Q1005 NOSIG
METAR RJTT 050430Z 18013KT 9999 FEW020 BKN/// 22/15 Q1005 NOSIG
METAR RJTT 050400Z 18013KT 9999 FEW020 BKN/// 22/16 Q1005 NOSIG
METAR RJTT 050330Z 16014KT 110V190 9999 FEW020 BKN/// 22/16 Q1005 NOSIG
METAR RJTT 050300Z 18015KT 9999 FEW020 BKN/// 22/16 Q1005 NOSIG
METAR RJTT 050230Z 18013KT 9999 FEW015 BKN/// 23/17 Q1005 NOSIG
METAR RJTT 050200Z VRB10KT 9999 FEW015 BKN/// 22/17 Q1005 BECMG 16010KT
METAR RJTT 050130Z 18006KT 090V240 9999 FEW010 BKN/// 19/16 Q1005 NOSIG
METAR RJTT 050100Z 04006KT 8000 FEW010 BKN/// 19/16 Q1005 BECMG TL0200 16006KT
METAR RJTT 050030Z 06004KT 9999 FEW008 SCT011 BKN/// 18/15 Q1005 BECMG 14008KT
METAR RJTT 050000Z 05004KT 9999 FEW008 SCT013 BKN/// 17/15 Q1005 BECMG FM0030 16008KT
METAR RJOO 051300Z AUTO 28005KT 240V320 9999 NSC 18/13 Q1010
METAR RJOO 051200Z AUTO 25004KT 170V280 9999 NSC 19/12 Q1010
METAR RJOO 051100Z 25004KT 140V310 9999 FEW030 19/12 Q1009
METAR RJOO 051000Z 24005KT 190V280 9999 FEW030 20/12 Q1009
METAR RJOO 050900Z 21007KT 170V260 9999 FEW030 SCT060 21/09 Q1008
METAR RJOO 050800Z VRB04KT 9999 FEW030 22/09 Q1007
METAR RJOO 050700Z 22005KT 160V280 9999 FEW030 SCT060 22/08 Q1007
METAR RJOO 050600Z 19004KT 130V270 9999 FEW030 SCT060 BKN/// 22/10 Q1008
METAR RJOO 050500Z 22004KT 160V290 9999 FEW030 SCT060 BKN/// 21/11 Q1008
METAR RJOO 050400Z VRB02KT 9999 FEW030 BKN/// 21/11 Q1008
METAR RJOO 050300Z VRB04KT 9999 FEW030 BKN/// 21/11 Q1008
METAR RJOO 050200Z 10004KT 020V190 9999 FEW025 BKN/// 19/10 Q1008
METAR RJOO 050100Z 02003KT 310V070 9999 FEW015 BKN/// 18/10 Q1009
METAR RJOO 050000Z 36006KT 310V050 9999 FEW015 BKN/// 17/11 Q1009
METAR RJNT 051300Z AUTO 02002KT 9999 FEW060 SCT070 12/11 Q1011
METAR RJNT 051200Z VRB01KT 9999 FEW020 12/11 Q1011
METAR RJNT 051100Z 01003KT 9999 FEW020 SCT060 13/11 Q1011
METAR RJNT 051000Z 32004KT 9999 FEW020 SCT050 BKN060 13/11 Q1011
METAR RJNT 050900Z 33005KT 9999 FEW020 SCT045 BKN050 15/11 Q1010
METAR RJNT 050800Z 36006KT 9999 FEW020 SCT045 BKN050 16/10 Q1010
METAR RJNT 050700Z 01007KT 9999 FEW020 SCT045 BKN050 18/09 Q1009
METAR RJNT 050600Z 04004KT 350V120 9999 FEW015 SCT045 BKN050 18/09 Q1009
METAR RJNT 050500Z VRB02KT 9999 FEW015 SCT025 BKN040 17/10 Q1009
METAR RJNT 050400Z 10005KT 9999 FEW010 SCT020 BKN/// 16/11 Q1009
METAR RJNT 050300Z VRB02KT 9999 FEW010 SCT020 BKN/// 16/11 Q1009
METAR RJNT 050200Z VRB02KT 9999 FEW005 SCT010 BKN015 15/11 Q1009
METAR RJNT 050100Z 33003KT 260V030 9999 FEW005 SCT010 BKN015 15/11 Q1010
METAR RJNT 050000Z 29003KT 240V340 9999 FEW005 SCT007 BKN010 14/12 Q1010
METAR RJNS 051200Z 23006KT 9999 FEW015 SCT045 16/13 Q1010
METAR RJNS 051100Z 24007KT 9999 FEW015 SCT045 17/13 Q1010
METAR RJNS 051000Z 24008KT 9999 FEW015 BKN/// 17/12 Q1009
METAR RJNS 050900Z 22008KT 9999 FEW015 BKN/// 18/12 Q1008
METAR RJNS 050800Z 23008KT 9999 FEW015 OVC/// 20/13 Q1008
METAR RJNS 050700Z 23010KT 9999 FEW015 SCT035 OVC/// 21/13 Q1008
METAR RJNS 050600Z 23010KT 9999 FEW015 SCT035 OVC/// 22/13 Q1007
METAR RJNS 050500Z 20009KT 9999 FEW015 SCT040 BKN/// 22/14 Q1007
METAR RJNS 050400Z 25007KT 200V280 9999 FEW005 BKN/// 23/13 Q1007
METAR RJNS 050300Z 25009KT 210V290 9999 FEW005 SCT180 BKN/// 23/15 Q1006
METAR RJNS 050200Z 24012KT 210V270 9999 FEW005 SCT180 BKN/// 21/15 Q1006
METAR RJNS 050100Z 24010KT 200V270 9999 FEW008 BKN/// 21/16 Q1006
METAR RJNS 050000Z 24011KT 9999 FEW008 BKN/// 20/17 Q1005
METAR RJNW 051300Z AUTO 05003KT 9999 NCD 07/07 Q1011
METAR RJNW 051200Z AUTO 06002KT 9999 R25/1100VP2000D NCD 08/07 Q1011
METAR RJNW 051100Z AUTO 07003KT 9999 NCD 08/07 Q1011
METAR RJNW 051000Z 00000KT 9999 FEW020 SCT/// 11/09 Q1011
METAR RJNW 050900Z 14003KT 9999 FEW020 12/09 Q1010
METAR RJNW 050800Z 12004KT 9999 FEW020 14/10 Q1010
METAR RJNW 050700Z 11005KT 9999 FEW015 SCT020 BKN025 14/10 Q1009
METAR RJNW 050600Z 11007KT 080V160 9999 FEW015 SCT020 BKN025 14/10 Q1009
METAR RJNW 050500Z 10007KT 030V150 9999 FEW015 SCT020 BKN030 17/10 Q1009
METAR RJNW 050400Z VRB03KT 9999 FEW015 SCT020 BKN030 15/11 Q1009
METAR RJNW 050300Z 09007KT 060V120 9999 FEW008 SCT015 BKN020 14/11 Q1009
METAR RJNW 050200Z 25005KT 210V290 9999 FEW015 SCT020 BKN025 14/11 Q1009
METAR RJNW 050100Z 22006KT 160V260 9999 FEW008 SCT010 BKN015 13/10 Q1010
METAR RJNW 050000Z 25005KT 210V300 9999 FEW006 SCT008 BKN010 12/10 Q1009
METAR RJOA 051300Z VRB01KT CAVOK 13/09 Q1011
METAR RJOA 051200Z VRB02KT 9999 FEW020 14/09 Q1011
METAR RJOA 051100Z 18003KT 9999 FEW020 14/09 Q1010
METAR RJOA 051000Z VRB02KT 9999 FEW025 15/09 Q1010
METAR RJOA 050900Z 19003KT 130V240 9999 FEW025 SCT180 BKN/// 16/09 Q1009
METAR RJOA 050800Z 20006KT 160V240 9999 FEW030 SCT/// 18/09 Q1008
METAR RJOA 050700Z 21006KT 160V270 9999 FEW030 19/09 Q1008
METAR RJOA 050600Z 21007KT 170V320 9999 FEW030 19/10 Q1008
METAR RJOA 050500Z 20007KT 130V240 9999 FEW030 19/10 Q1008
METAR RJOA 050400Z 17007KT 130V260 9999 FEW020 SCT030 18/12 Q1008
METAR RJOA 050300Z 11005KT 070V180 9999 FEW015 SCT025 BKN035 17/13 Q1008
METAR RJOA 050200Z VRB04KT 9999 FEW010 SCT015 BKN/// 17/12 Q1009
METAR RJOA 050100Z 20004KT 150V250 9999 FEW010 SCT015 BKN/// 16/13 Q1009
METAR RJOA 050000Z 28003KT 210V360 9999 FEW007 SCT015 BKN/// 15/13 Q1009
METAR RJOB 051200Z 23004KT CAVOK 14/09 Q1010
METAR RJOB 051100Z 23003KT 150V250 9999 FEW030 SCT/// 15/10 Q1010
METAR RJOB 051000Z 24005KT 9999 FEW025 BKN/// 16/11 Q1009
METAR RJOB 050900Z 20008KT 170V230 9999 FEW025 SCT/// 18/10 Q1009
METAR RJOB 050800Z 15006KT 100V210 9999 FEW020 SCT/// 19/11 Q1008
METAR RJOB 050700Z 15007KT 090V200 9999 FEW020 SCT040 19/11 Q1007
METAR RJOB 050600Z 13009KT 100V180 9999 FEW020 SCT035 BKN050 21/12 Q1007
METAR RJOB 050500Z 21007KT 140V260 9999 FEW025 BKN040 21/10 Q1007
METAR RJOB 050400Z 16007KT 120V230 9999 FEW025 BKN040 BKN/// 19/11 Q1008
METAR RJOB 050300Z VRB03KT 9999 FEW025 BKN035 19/11 Q1008
METAR RJOB 050200Z 08006KT 010V150 9999 FEW025 BKN030 BKN/// 18/10 Q1008
METAR RJOB 050100Z VRB02KT 9999 FEW020 SCT025 BKN/// 18/12 Q1009
METAR RJOB 050000Z 16003KT 110V250 9999 FEW015 SCT020 BKN/// 16/12 Q1009
METAR RJOC 051200Z AUTO 17003KT 9999 FEW022 SCT050 12/10 Q1010
METAR RJOC 051100Z VRB02KT 9999 FEW025 SCT060 BKN/// 14/10 Q1010
METAR RJOC 051000Z 23004KT 170V260 9999 FEW025 SCT040 BKN/// 15/10 Q1010
METAR RJOC 050900Z 25008KT 9999 FEW020 SCT030 BKN/// 15/10 Q1009
METAR RJOC 050800Z 25009KT 9999 FEW015 SCT025 BKN/// 16/10 Q1009
METAR RJOC 050700Z 26010KT 9999 FEW015 BKN025 16/12 Q1009
METAR RJOC 050600Z 26011KT 9999 FEW015 BKN025 16/12 Q1009
METAR RJOC 050500Z 26013KT 9999 FEW015 BKN025 16/13 Q1008
METAR RJOC 050400Z 25013KT 9999 FEW015 SCT025 BKN035 17/13 Q1008
METAR RJOC 050300Z 27010KT 9999 FEW015 SCT020 BKN030 17/13 Q1008
METAR RJOC 050200Z 26011KT 9999 FEW015 SCT020 BKN030 18/13 Q1009
METAR RJOC 050100Z VRB04KT 9999 FEW010 SCT015 BKN030 17/14 Q1009
METAR RJOC 050000Z 03002KT 9999 FEW008 SCT015 BKN030 16/14 Q1009
METAR RJOK 051300Z AUTO 36003KT 9999 NCD 15/14 Q1011
METAR RJOK 051200Z AUTO 04003KT 9999 FEW050 SCT060 17/14 Q1011
METAR RJOK 051100Z 15003KT 9999 FEW020 SCT050 BKN160 17/15 Q1010
METAR RJOK 051000Z 17004KT 150V220 9999 FEW020 SCT030 BKN180 19/15 Q1010
METAR RJOK 050900Z 18004KT 9999 FEW020 SCT030 19/14 Q1009
METAR RJOK 050800Z 18006KT 9999 FEW020 19/14 Q1009
METAR RJOK 050700Z 17008KT 9999 FEW020 SCT/// 21/14 Q1007
METAR RJOK 050600Z 14005KT 100V190 9999 FEW015 20/14 Q1007
METAR RJOK 050500Z 16007KT 9999 FEW015 21/14 Q1008
METAR RJOK 050400Z 15008KT 9999 FEW010 BKN/// 21/15 Q1008
METAR RJOK 050300Z 15006KT 9999 FEW010 SCT050 BKN/// 20/16 Q1008
METAR RJOK 050200Z 18006KT 150V210 9999 FEW007 SCT015 BKN/// 20/16 Q1008
METAR RJOK 050100Z 18004KT 130V210 9999 FEW007 SCT015 BKN030 19/16 Q1008
METAR RJOK 050000Z VRB01KT 9999 FEW007 SCT025 BKN/// 18/14 Q1008
METAR RJOH 051200Z 09003KT 9999 FEW015 BKN020 BKN030 14/14 Q1011
METAR RJOH 051100Z 14004KT 9999 FEW015 BKN020 BKN030 14/14 Q1011
METAR RJOH 051000Z 10004KT 9999 FEW015 SCT020 BKN030 15/15 Q1010
METAR RJOH 050900Z 08004KT 9999 FEW015 BKN020 BKN030 15/15 Q1010
METAR RJOH 050800Z 32004KT 290V350 9999 FEW015 BKN020 16/15 Q1010
METAR RJOH 050700Z 34006KT 310V010 9999 FEW015 BKN020 16/15 Q1009
METAR RJOH 050600Z 34008KT 320V020 9999 FEW015 BKN020 BKN030 17/15 Q1009
METAR RJOH 050500Z 34008KT 9999 FEW015 BKN020 BKN030 17/15 Q1009
METAR RJOH 050400Z 32007KT 260V360 9999 FEW015 BKN020 BKN030 18/16 Q1008
METAR RJOH 050300Z 06009KT 030V090 9999 FEW015 BKN020 BKN250 18/16 Q1009
METAR RJOH 050200Z 06006KT 020V100 9999 FEW030 BKN250 18/17 Q1009
METAR RJOH 050100Z 04007KT 9999 FEW008 BKN030 BKN050 16/16 Q1009
METAR RJOH 050000Z 05006KT 9999 FEW008 SCT020 BKN030 15/15 Q1009
METAR RJOM 051200Z 18005KT 9999 SCT050 16/11 Q1011
METAR RJOM 051100Z 23005KT 9999 FEW040 SCT060 16/11 Q1011
METAR RJOM 051000Z 18006KT 9999 FEW030 SCT/// 18/10 Q1010
METAR RJOM 050900Z 18007KT 9999 FEW035 SCT170 BKN/// 18/11 Q1009
METAR RJOM 050800Z 20006KT 9999 FEW035 SCT060 BKN/// 17/11 Q1009
METAR RJOM 050700Z 21006KT 9999 FEW035 18/11 Q1008
METAR RJOM 050600Z 20006KT 9999 FEW030 19/13 Q1008
METAR RJOM 050500Z 23006KT 220V280 9999 FEW025 18/13 Q1008
METAR RJOM 050400Z 21006KT 9999 FEW025 18/14 Q1009
METAR RJOM 050300Z 23006KT 210V010 9999 FEW025 SCT/// 18/15 Q1009
METAR RJOM 050200Z 24005KT 200V330 9999 FEW025 BKN/// 17/13 Q1009
METAR RJOM 050100Z 25005KT 9999 FEW020 BKN/// 16/13 Q1009
METAR RJOM 050000Z 23005KT 9999 FEW020 SCT035 BKN/// 17/14 Q1009
METAR RJOI 051256Z 22004KT 10SM FEW030 16/12 A2986 RMK AO2 SLP109 T01560117 $
METAR RJOI 051156Z 21006KT 9999 FEW030 16/12 A2985 RMK AO2A SLP109 T01610117 10222 20156 51024
METAR RJOI 051056Z 22005KT 10SM FEW030 SCT180 17/11 A2984 RMK AO2 SLP103 T01670111 $
METAR RJOI 050956Z 24010KT 10SM FEW030 SCT180 BKN250 19/11 A2981 RMK AO2 SLP094 T01890106 $
METAR RJOI 050856Z 23008KT 10SM FEW025 BKN180 BKN250 20/10 A2978 RMK AO2 SLP085 T02000100 53011 $
METAR RJOI 050756Z 22007KT 10SM FEW025 BKN200 21/09 A2977 RMK AO2 SLP080 T02110089 $
METAR RJOI 050656Z 23007KT 10SM FEW025 FEW200 22/08 A2975 RMK AO2 SLP075 T02220083 $
METAR RJOI 050556Z 15013G21KT 10SM FEW025 FEW050 20/09 A2975 RMK AO2 SLP075 T02000094 10206 20150 56013 $
METAR RJOI 050456Z 15014KT 10SM FEW025 20/09 A2976 RMK AO2 SLP078 T02000094 $
METAR RJOI 050356Z 14012KT 9999 FEW025 19/12 A2977 RMK AO2A SLP082 T01890122
METAR RJOI 050256Z 13009KT 9999 FEW025 SCT250 17/13 A2979 RMK AO2A SLP087 T01720128 58004
METAR RJOI 050156Z 13007KT 10SM FEW020 BKN250 17/13 A2980 RMK AO2 SLP090 T01670128 $
METAR RJOI 050056Z 12006KT 10SM FEW020 BKN250 16/13 A2982 RMK AO2 SLP096 T01610128 $
METAR RJOW 051000Z 24004KT 9999 FEW020 SCT/// 14/10 Q1010
METAR RJOW 050900Z 28007KT 9999 FEW020 BKN/// 16/11 Q1010
METAR RJOW 050800Z 28010KT 9999 FEW020 BKN/// 16/11 Q1009
METAR RJOW 050700Z 29014KT 9999 FEW015 BKN/// 17/11 Q1009
METAR RJOW 050600Z 30013KT 9999 FEW015 BKN/// 17/12 Q1009
METAR RJOW 050500Z 29014KT 9999 FEW015 17/12 Q1008
METAR RJOW 050400Z 29015KT 9999 FEW020 17/12 Q1008
METAR RJOW 050300Z 29013KT 9999 FEW020 18/13 Q1008
METAR RJOW 050200Z 29010KT 9999 FEW020 BKN/// 17/12 Q1009
METAR RJOW 050100Z VRB02KT 9999 FEW015 SCT025 BKN035 17/12 Q1009
METAR RJOW 050000Z VRB02KT 9999 FEW015 BKN025 BKN/// 15/13 Q1009
METAR RJSA 051200Z 21006KT 0800 R24/1000V1400N FG BKN001 BKN002 06/06 Q1012
METAR RJSA 051100Z 23006KT 1000 R24/1200VP2000D BCFG BR BKN001 BKN002 07/07 Q1011
METAR RJSA 051000Z 23009KT 1000 R24/0800VP2000D BCFG BR BKN001 BKN002 08/08 Q1011
METAR RJSA 050900Z 24011KT 7000 FEW001 BKN003 08/08 Q1010
METAR RJSA 050800Z 24012KT 9999 FEW005 BKN/// 10/09 Q1009
METAR RJSA 050700Z 24008KT 9999 FEW005 SCT010 BKN015 11/09 Q1008
METAR RJSA 050600Z 26007KT 9999 FEW004 SCT008 BKN013 11/09 Q1008
METAR RJSA 050500Z 27007KT 9999 FEW001 SCT004 BKN007 11/10 Q1008
METAR RJSA 050400Z 26008KT 8000 BCFG FEW001 BKN003 BKN006 10/10 Q1007
METAR RJSA 050300Z 24010KT 8000 R24/P2000N BCFG FEW001 BKN003 BKN006 10/10 Q1007
METAR RJSA 050200Z 24012KT 0200 R24/0225V0450N FG -DZ VV001 10/10 Q1006
METAR RJSA 050100Z 25008KT 0700 R24/0800VP2000D FG -SHRA FEW001 BKN003 BKN006 10/10 Q1005
METAR RJSA 050000Z 22002KT 2000 R24/1100VP2000N BCFG -SHRA BR FEW001 SCT003 BKN006 07/07 Q1004
METAR RJOS 051200Z 14003KT 9999 FEW030 BKN180 16/14 Q1010
METAR RJOS 051100Z VRB02KT 9999 FEW030 SCT060 BKN200 17/13 Q1010
METAR RJOS 051000Z 13004KT 9999 FEW030 BKN060 18/12 Q1009
METAR RJOS 050900Z 10003KT 070V140 9999 FEW030 BKN060 19/11 Q1009
METAR RJOS 050800Z 04004KT 9999 SCT030 BKN080 20/11 Q1008
METAR RJOS 050700Z 04005KT 9999 FEW030 SCT080 21/10 Q1007
METAR RJOS 050600Z 05006KT 9999 FEW030 SCT080 BKN/// 21/11 Q1007
METAR RJOS 050500Z VRB02KT 9999 FEW030 BKN045 BKN/// 20/12 Q1008
METAR RJOS 050400Z 08003KT 050V120 9999 FEW030 BKN050 BKN/// 18/11 Q1008
METAR RJOS 050300Z 07005KT 040V100 9999 FEW030 BKN050 19/11 Q1009
METAR RJOS 050200Z 04005KT 9999 FEW030 BKN050 BKN/// 20/11 Q1008
METAR RJOS 050100Z 36005KT 310V030 9999 FEW030 BKN050 BKN/// 19/11 Q1009
METAR RJOS 050000Z 01007KT 340V040 9999 FEW030 SCT050 BKN/// 19/11 Q1008
METAR RJOY 051000Z 25004KT 200V280 9999 FEW030 SCT050 BKN070 19/12 Q1009
METAR RJOY 050900Z 26009KT 9999 FEW030 SCT070 BKN/// 20/12 Q1008
METAR RJOY 050800Z 28010KT 240V300 9999 FEW030 22/12 Q1008
METAR RJOY 050700Z 27009KT 220V300 9999 FEW030 SCT/// 22/11 Q1007
METAR RJOY 050600Z 26008KT 9999 FEW030 BKN/// 23/11 Q1007
METAR RJOY 050500Z 29003KT 240V340 9999 FEW030 BKN/// 21/10 Q1008
METAR RJOY 050400Z VRB03KT 9999 FEW030 BKN/// 21/13 Q1008
METAR RJOY 050300Z VRB01KT 9999 FEW025 BKN/// 20/13 Q1008
METAR RJOY 050200Z VRB02KT 9999 FEW020 BKN/// 19/12 Q1008
METAR RJOY 050100Z 05003KT 330V110 9999 FEW020 BKN/// 18/11 Q1008
METAR RJOY 050000Z 03008KT 360V070 9999 FEW015 SCT030 BKN/// 18/12 Q1008
METAR RJOT 051300Z AUTO 15006KT 9999 FEW060 14/11 Q1011
METAR RJOT 051200Z 14007KT 9999 FEW025 SCT060 BKN/// 15/12 Q1011
METAR RJOT 051100Z 15005KT 120V210 9999 FEW025 SCT060 BKN/// 15/13 Q1010
METAR RJOT 051000Z 17003KT 9999 FEW025 SCT060 BKN/// 17/13 Q1009
METAR RJOT 050900Z 25002KT 9999 FEW025 SCT045 BKN060 18/13 Q1009
METAR RJOT 050800Z VRB02KT 9999 FEW025 SCT040 BKN060 19/13 Q1009
METAR RJOT 050700Z 29006KT 250V340 9999 FEW025 SCT050 19/13 Q1008
METAR RJOT 050600Z 33004KT 270V010 9999 FEW025 SCT035 BKN050 19/13 Q1008
METAR RJOT 050500Z 31004KT 280V020 9999 FEW020 SCT030 BKN040 19/12 Q1008
METAR RJOT 050400Z 05006KT 360V110 9999 FEW020 SCT030 BKN040 19/12 Q1008
METAR RJOT 050300Z VRB05KT 9999 FEW020 SCT035 BKN/// 20/13 Q1008
METAR RJOT 050200Z VRB03KT 9999 FEW020 SCT035 BKN/// 19/12 Q1008
METAR RJOT 050100Z 01004KT 290V080 9999 FEW020 BKN/// 19/12 Q1009
METAR RJOT 050000Z VRB02KT 9999 FEW020 BKN/// 18/12 Q1009
METAR RJOR 051200Z VRB02KT 9999 FEW020 SCT040 BKN/// 14/12 Q1011
METAR RJOR 051100Z VRB02KT 9999 FEW020 SCT030 BKN040 15/12 Q1011
METAR RJOR 051000Z VRB01KT 9999 FEW020 SCT030 BKN040 14/12 Q1010
METAR RJOR 050900Z VRB01KT 9999 FEW020 SCT030 BKN040 14/12 Q1010
METAR RJOR 050800Z 34004KT 9999 FEW020 SCT030 BKN040 15/12 Q1009
METAR RJOR 050700Z 35005KT 9999 FEW020 SCT040 BKN/// 16/12 Q1009
METAR RJOR 050600Z 02007KT 9999 FEW020 SCT040 BKN060 16/12 Q1008
METAR RJOR 050500Z 04009KT 9999 FEW020 SCT030 BKN040 15/12 Q1008
METAR RJOR 050400Z 05011KT 9999 FEW020 SCT030 BKN040 15/12 Q1008
METAR RJOR 050300Z 04012KT 9999 FEW025 BKN/// 17/13 Q1008
METAR RJOR 050200Z 05011KT 9999 FEW025 BKN/// 16/13 Q1009
METAR RJOR 050100Z 04009KT 9999 FEW020 BKN/// 16/13 Q1009
METAR RJOR 050000Z 03006KT 9999 FEW020 SCT030 BKN/// 15/13 Q1009
METAR RJSC 051000Z 35008KT 9999 FEW040 SCT070 BKN/// 13/10 Q1011
METAR RJSC 050900Z 36011KT 9999 FEW040 SCT080 BKN/// 12/10 Q1010
METAR RJSC 050800Z 36014KT 9999 FEW040 SCT060 BKN/// 13/10 Q1009
METAR RJSC 050700Z 01018KT 9999 FEW030 SCT060 BKN/// 14/11 Q1009
METAR RJSC 050600Z 36019KT 9999 FEW030 BKN/// 15/11 Q1008
METAR RJSC 050500Z 01015KT 9999 FEW030 BKN/// 18/12 Q1008
METAR RJSC 050400Z 32012KT 270V340 9999 FEW040 BKN/// 19/13 Q1007
METAR RJSC 050300Z 29011G21KT 250V320 9999 FEW040 BKN/// 19/10 Q1007
METAR RJSC 050200Z 29015KT 9999 FEW040 BKN/// 19/12 Q1007
METAR RJSC 050100Z 25010KT 220V280 9999 FEW030 SCT040 19/12 Q1006
METAR RJSC 050000Z 19003KT 150V240 9999 FEW015 SCT040 BKN/// 16/13 Q1005
METAR RJSK 051200Z VRB02KT 2000 BCFG BR FEW000 BKN001 BKN002 10/10 Q1012
METAR RJSK 051100Z 29005KT 4500 BCFG BR FEW000 SCT001 BKN002 10/10 Q1012
METAR RJSK 051000Z VRB02KT 2500 BCFG BR FEW000 BKN001 BKN002 10/10 Q1011
METAR RJSK 050900Z 30004KT 2500 BCFG BR FEW000 BKN001 BKN002 10/10 Q1011
METAR RJSK 050800Z 25004KT 200V280 2000 -SHRA BCFG BR FEW000 BKN001 BKN002 10/10 Q1011
METAR RJSK 050700Z 26008KT 0900 R28/1400VP2000U FG SCT000 BKN001 11/10 Q1010
METAR RJSK 050600Z 28007KT 5000 BR FEW000 SCT001 BKN002 11/11 Q1009
METAR RJSK 050500Z 28010KT 1800 -SHRA BCFG BR FEW000 BKN001 BKN003 11/11 Q1009
METAR RJSK 050400Z 28011KT 4000 -SHRA BR FEW000 SCT003 BKN004 12/11 Q1008
METAR RJSK 050300Z 27012KT 2000 R28/1900N -SHRA BR FEW000 SCT003 BKN004 12/11 Q1008
METAR RJSK 050200Z 27011KT 3000 -SHRA BR FEW000 SCT003 BKN004 12/12 Q1007
METAR RJSK 050100Z 27013KT 3000 -SHRA BR FEW000 SCT003 BKN004 13/13 Q1006
METAR RJSK 050000Z 24008KT 200V270 1200 R28/1400VP2000D -SHRA BR FEW000 SCT002 BKN003 12/12 Q1005
METAR RJSI 051000Z 28003KT 220V330 9999 SCT040 BKN/// 12/09 Q1010
METAR RJSI 050900Z 22003KT 150V260 9999 FEW025 SCT040 BKN/// 14/10 Q1010
METAR RJSI 050800Z 25005KT 200V310 9999 FEW025 BKN/// 15/10 Q1009
METAR RJSI 050700Z 24005KT 180V290 9999 FEW030 SCT045 BKN/// 16/11 Q1009
METAR RJSI 050600Z 30009KT 250V340 9999 FEW025 BKN/// 17/11 Q1008
METAR RJSI 050500Z 27006KT 200V320 9999 FEW025 SCT035 BKN/// 17/11 Q1007
METAR RJSI 050400Z 29007KT 250V330 9999 SCT025 BKN120 BKN/// 18/12 Q1007
METAR RJSI 050300Z 26005KT 170V310 9999 -SHRA FEW015 SCT020 BKN030 17/13 Q1007
METAR RJSI 050200Z 28004KT 240V340 9999 -SHRA FEW008 SCT015 BKN030 15/13 Q1006
METAR RJSI 050100Z 25003KT 200V360 9999 -SHRA FEW005 SCT015 BKN030 15/14 Q1005
METAR RJSI 050000Z 13004KT 9999 FEW002 SCT006 BKN030 14/14 Q1004
METAR RJSF 051300Z AUTO 33007KT 9999 BKN027 BKN029 OVC034 12/11 Q1011
METAR RJSF 051200Z AUTO 33005KT 300V010 9999 -RA BKN033 OVC037 14/09 Q1011
METAR RJSF 051100Z 02005KT 9999 FEW030 BKN045 BKN150 14/09 Q1010
METAR RJSF 051000Z 02006KT 9999 FEW030 BKN045 BKN150 15/09 Q1009
METAR RJSF 050900Z 35005KT 9999 FEW030 BKN045 BKN170 15/09 Q1009
METAR RJSF 050800Z 35008KT 9999 FEW030 BKN045 BKN/// 16/09 Q1008
METAR RJSF 050700Z 35011KT 9999 FEW030 BKN050 BKN/// 16/09 Q1008
METAR RJSF 050600Z 01009KT 330V030 9999 FEW040 BKN/// 17/10 Q1008
METAR RJSF 050500Z 36015KT 9999 FEW030 BKN/// 17/10 Q1007
METAR RJSF 050400Z 36016KT 9999 FEW030 BKN/// 17/10 Q1007
METAR RJSF 050300Z 36018KT 9999 FEW025 BKN/// 17/10 Q1007
METAR RJSF 050200Z 34015KT 9999 FEW015 BKN/// 19/11 Q1007
METAR RJSF 050100Z 34015KT 300V010 9999 FEW015 BKN/// 18/12 Q1007
METAR RJSF 050000Z 36013KT 9999 FEW012 BKN/// 17/13 Q1006
METAR RJTO 050800Z 20014KT 9999 FEW025 SCT180 BKN/// 17/15 Q1008
METAR RJTO 050700Z 20017KT 9999 FEW030 SCT160 BKN/// 18/15 Q1007
METAR RJTO 050600Z 20014KT 9999 FEW030 BKN150 BKN/// 18/15 Q1007
METAR RJTO 050500Z 20016KT 9999 FEW012 BKN180 BKN/// 18/16 Q1007
METAR RJTO 050400Z 20015KT 9999 FEW012 BKN180 BKN/// 19/16 Q1007
METAR RJTO 050300Z 19017KT 9999 FEW015 SCT180 BKN/// 19/16 Q1006
METAR RJTO 050200Z 19018KT 9999 FEW015 SCT180 BKN/// 20/16 Q1006
METAR RJTO 050100Z 20017KT 9999 FEW012 SCT150 BKN/// 19/16 Q1006
METAR RJTO 050000Z 20019KT 9999 FEW006 BKN/// 19/17 Q1006
METAR RJSR 051000Z 30005KT 6000 FEW003 SCT006 BKN010 10/09 Q1011
METAR RJSR 050900Z 27004KT 9999 SCT009 BKN015 11/10 Q1010
METAR RJSR 050800Z 27006KT 9999 SCT009 BKN015 12/10 Q1010
METAR RJSR 050700Z 26007KT 9999 SCT010 BKN015 12/10 Q1009
METAR RJSR 050600Z 26007KT 210V290 9999 FEW010 BKN015 BKN060 14/12 Q1009
METAR RJSR 050500Z 26009KT 9999 FEW010 BKN015 BKN060 14/11 Q1008
METAR RJSR 050400Z 25008KT 9999 FEW003 SCT006 BKN010 13/11 Q1007
METAR RJSR 050300Z 23007KT 9999 -SHRA FEW003 SCT008 BKN012 14/13 Q1007
METAR RJSR 050200Z 21008KT 6000 -SHRA FEW001 SCT006 BKN010 14/13 Q1006
METAR RJSR 050100Z 24006KT 4000 -SHRA BCFG BR FEW001 BKN006 BKN012 13/12 Q1005
METAR RJSR 050000Z 24006KT 2000 R11/2000N -SHRA BCFG BR FEW001 SCT005 BKN010 13/13 Q1004
METAR RJSY 051200Z VRB01KT 7000 FEW002 SCT006 BKN008 10/10 Q1012
METAR RJSY 051100Z VRB01KT 7000 FEW001 SCT002 BKN007 10/10 Q1012
METAR RJSY 051000Z VRB02KT 1500 R09/2000D BCFG BR FEW000 SCT001 BKN002 11/10 Q1011
METAR RJSY 050900Z 32002KT 2000 BCFG BR FEW000 SCT001 BKN002 11/10 Q1011
METAR RJSY 050800Z 29003KT 7000 -SHRA PRFG FEW001 BKN002 BKN004 11/11 Q1011
METAR RJSY 050700Z VRB02KT 8000 -SHRA FEW001 SCT002 BKN004 11/11 Q1010
METAR RJSY 050600Z 30004KT 270V330 8000 -SHRA FEW001 BKN002 BKN004 11/11 Q1010
METAR RJSY 050500Z 27007KT 4000 -SHRA BR FEW001 SCT003 BKN006 11/11 Q1010
METAR RJSY 050400Z 27007KT 5000 -SHRA BR FEW001 SCT002 BKN003 11/11 Q1010
METAR RJSY 050300Z 26009KT 3000 R09/2000N -SHRA BCFG BR FEW000 BKN002 BKN003 11/11 Q1009
METAR RJSY 050200Z 25012KT 4000 -SHRA BCFG BR FEW000 SCT001 BKN002 11/11 Q1009
METAR RJSY 050100Z 24015KT 4000 R09/P2000N -SHRA PRFG BR FEW000 SCT001 BKN002 12/11 Q1008
METAR RJSY 050000Z 24017KT 4000 R09/2000N -SHRA BR FEW001 BKN003 BKN007 12/12 Q1007
METAR RJSM 051300Z VRB01KT 9999 FEW015 08/08 Q1012
METAR RJSM 051200Z 33005KT 9999 FEW015 09/09 Q1011
METAR RJSM 051100Z 27005KT 9999 FEW015 SCT030 11/09 Q1011
METAR RJSM 051000Z 31006KT 9999 FEW015 BKN030 BKN/// 12/09 Q1010
METAR RJSM 050900Z 30007KT 9999 FEW015 SCT045 BKN250 14/09 Q1009
METAR RJSM 050800Z 33007KT 9999 FEW015 SCT025 BKN250 15/10 Q1009
METAR RJSM 050700Z 30007KT 270V350 9999 FEW015 SCT025 BKN230 16/10 Q1008
METAR RJSM 050600Z 34009KT 9999 FEW015 BKN030 15/11 Q1008
METAR RJSM 050500Z 12004KT 9999 FEW015 BKN030 15/11 Q1007
METAR RJSM 050400Z 08009KT 9999 SCT015 BKN025 13/11 Q1006
METAR RJSM 050300Z 31012KT 9999 FEW015 BKN030 18/13 Q1006
METAR RJSM 050200Z 33006KT 270V350 9999 FEW015 BKN030 BKN070 14/13 Q1005
METAR RJSM 050100Z 31005KT 5000 -DZ BR FEW002 SCT015 BKN030 12/12 Q1004
METAR RJSM 050000Z 31004KT 2500 -SHRA BR FEW002 BKN005 BKN015 11/11 Q1004
METAR RJSS 051300Z AUTO 11008KT 9999 FEW043 BKN060 OVC070 11/10 Q1011
METAR RJSS 051200Z 03005KT 9999 FEW030 BKN070 BKN/// 14/10 Q1010
METAR RJSS 051100Z 03008KT 9999 FEW040 SCT070 BKN100 15/09 Q1010
METAR RJSS 051000Z 02005KT 9999 FEW040 BKN070 BKN/// 16/09 Q1009
METAR RJSS 050900Z 35005KT 9999 FEW030 SCT080 BKN/// 17/11 Q1008
METAR RJSS 050800Z 08007KT 9999 FEW030 SCT080 BKN/// 16/11 Q1008
METAR RJSS 050700Z 12005KT 9999 FEW030 SCT150 BKN/// 17/11 Q1007
METAR RJSS 050600Z 12007KT 9999 FEW040 BKN/// 17/11 Q1007
METAR RJSS 050500Z 13008KT 100V160 9999 FEW030 BKN/// 18/13 Q1006
METAR RJSS 050400Z 11008KT 9999 FEW030 BKN/// 19/12 Q1005
METAR RJSS 050300Z 32013KT 9999 FEW030 BKN/// 22/10 Q1005
METAR RJSS 050200Z 05005KT 010V090 9999 FEW020 BKN/// 21/12 Q1005
METAR RJSS 050100Z VRB05KT 9999 FEW002 BKN/// 19/11 Q1004
METAR RJSS 050000Z 22003KT 170V260 9999 PRFG FEW001 BKN/// 17/14 Q1004
METAR RODN 052355Z 08010KT 10SM SCT120 BKN150 23/20 A2993 RMK AO2A SLP137 T02310202 10232 20207 50007 FZRANO $
METAR RODN 051255Z 06006KT 10SM FEW013 21/20 A2994 RMK AO2A SLP140 T02130196 FZRANO $
METAR RODN 051155Z 06008KT 10SM FEW011 22/20 A2992 RMK AO2A SLP133 T02170198 10260 20216 52018 FZRANO $
METAR RODN 051055Z 07008KT 10SM FEW020 22/20 A2990 RMK AO2A SLP127 T02180199 FZRANO $
METAR RODN 050955Z 08006KT 10SM SCT025 22/20 A2988 RMK AO2A SLP120 T02200197 FZRANO $
METAR RODN 050855Z 03005KT 10SM SCT026 24/19 A2987 RMK AO2A SLP116 T02410191 51001 FZRANO $
METAR RODN 050756Z 02006KT 10SM SCT026 25/18 A2987 RMK AO2A SLP116 T02450184 FZRANO $
METAR RODN 050655Z 31007KT 10SM BKN021 BKN031 26/19 A2987 RMK SLP116 T02580192 FZRANO $
SPECI RODN 050635Z 34005KT 10SM BKN020 BKN065 26/20 A2986 RMK AO2A SLP113 FZRANO $
METAR RODN 050455Z 28007KT 10SM BKN018 BKN022 25/21 A2986 RMK SLP113 T02510205 FZRANO $
METAR RODN 050355Z 26005KT 10SM BKN016 24/20 A2986 RMK SLP113 T02390200 FZRANO $
METAR RODN 050255Z VRB03KT 10SM BKN012 23/20 A2987 RMK SLP116 T02310200 50007 FZRANO $
SPECI RODN 050225Z 00000KT 10SM BKN012 OVC018 23/20 A2988 RMK AO2A SLP120 FZRANO $
SPECI RODN 050205Z 31004KT 10SM BKN010 22/20 A2989 RMK AO2A CIG 008V010 CIG 009 RWY23 SLP123 FZRANO $
METAR RODN 050155Z 33004KT 10SM BKN008 22/20 A2989 RMK AO2A SLP123 T02160195 FZRANO $
SPECI RODN 050135Z 35004KT 10SM BKN007 22/20 A2989 RMK AO2A CIG 006 RWY23 SLP123 FZRANO $
METAR RODN 050056Z 35003KT 10SM BKN006 21/20 A2989 RMK AO2A LTG DSNT SE CIG 003 RWY23 SLP123 T02080196 FZRANO $
SPECI RODN 050041Z 35005KT 5SM BR BKN005 OVC075 20/19 A2989 RMK CIG 003 RWY23 SLP123 FZRANO $
SPECI RODN 050038Z 34006KT 5SM BKN005 OVC075 20/19 A2989 RMK CIG 005V075 BKN V SCT CIG 003 RWY23 PRESRR SLP123 FZRANO $
SPECI RODN 050010Z AUTO 08004KT 10SM BKN004 OVC075 20/19 A2986 RMK AO2 LTG DSNT S BKN V OVC CIG 003 RWY23 SLP113 FZRANO $
METAR RJTI 050700Z 19010KT 150V230 9999 FEW020 BKN180 BKN/// 18/15 Q1006
METAR RJTI 050600Z 18010KT 140V210 9999 FEW020 BKN180 BKN/// 19/15 Q1006
METAR RJTI 050500Z 18010KT 150V230 9999 FEW020 SCT170 BKN/// 19/15 Q1005
METAR RJTI 050400Z 17011KT 9000 FEW020 BKN/// 20/16 Q1005
METAR RJTI 050300Z 12006KT 030V170 9000 FEW015 BKN/// 19/16 Q1005
METAR RJTI 050200Z 12003KT 090V170 9999 FEW010 SCT013 BKN/// 20/16 Q1005
METAR RJTI 050100Z 11004KT 070V140 9999 FEW010 BKN013 BKN/// 19/15 Q1005
METAR RJTI 050000Z 05003KT 350V110 9999 FEW010 BKN012 17/14 Q1005
METAR RJTF 050800Z 17006KT 9999 FEW035 BKN/// 21/14 Q1006
METAR RJTF 050700Z 16007KT 9999 FEW035 BKN/// 22/15 Q1005
METAR RJTF 050600Z 18007KT 130V220 9999 FEW035 BKN/// 22/16 Q1005
METAR RJTF 050500Z 17005KT 130V210 9999 SCT035 BKN/// 24/17 Q1005
METAR RJTF 050400Z 18005KT 100V220 9999 BKN030 BKN/// 24/16 Q1005
METAR RJTF 050300Z VRB01KT 9999 SCT025 BKN/// 22/16 Q1005
METAR RJTF 050200Z VRB01KT 9999 BKN023 BKN/// 21/15 Q1005
METAR RJTF 050100Z VRB01KT 9999 FEW020 BKN/// 20/15 Q1006
METAR RJTF 050000Z VRB02KT 9999 BKN020 BKN/// 20/15 Q1005
METAR ROMY 051200Z AUTO 10004KT 9999 NSC 23/21 Q1012
METAR ROMY 051100Z 10005KT 9999 FEW013 BKN050 23/21 Q1012
METAR ROMY 051000Z 09006KT 060V150 9999 FEW013 BKN050 BKN/// 23/21 Q1011
METAR ROMY 050900Z 08009KT 9999 FEW015 BKN050 BKN/// 24/21 Q1011
METAR ROMY 050800Z 08007KT 050V110 9999 FEW016 BKN/// 25/21 Q1010
METAR ROMY 050700Z 06007KT 9999 FEW015 BKN050 25/21 Q1010
METAR ROMY 050600Z 08008KT 340V110 9999 FEW014 BKN045 25/21 Q1010
METAR ROMY 050500Z 07008KT 9999 FEW014 BKN060 26/21 Q1011
METAR ROMY 050400Z 07008KT 9999 SCT014 BKN060 25/21 Q1011
METAR ROMY 050300Z 08009KT 9999 SCT012 BKN060 25/22 Q1011
METAR ROMY 050200Z 07010KT 030V100 9999 SCT012 BKN021 25/21 Q1011
METAR ROMY 050100Z 05011KT 9999 SCT013 BKN070 25/22 Q1011
METAR ROMY 050000Z 05008KT 020V090 9999 FEW012 BKN018 BKN033 23/21 Q1010
METAR ROYN 051300Z AUTO 12007KT 9999 FEW011 SCT024 BKN038 //////TCU 25/23 Q1011
METAR ROYN 051200Z AUTO 12006KT 9999 FEW013 SCT016 OVC080 25/23 Q1011
METAR ROYN 051100Z AUTO 12004KT 9999 NSC 24/22 Q1010
METAR ROYN 051000Z AUTO 15006KT 9999 FEW043 SCT048 BKN050 25/22 Q1010
METAR ROYN 050900Z AUTO 14007KT 9999 FEW016 SCT030 OVC046 25/22 Q1010
METAR ROYN 050800Z AUTO 14008KT 9999 FEW015 BKN036 BKN040 26/22 Q1009
METAR ROYN 050700Z AUTO 11008KT 9999 FEW015 SCT025 OVC070 26/22 Q1009
METAR ROYN 050600Z AUTO 09008KT 060V120 9999 FEW015 SCT020 BKN025 26/22 Q1009
METAR ROYN 050500Z AUTO 11007KT 9999 FEW019 SCT029 BKN060 27/22 Q1010
METAR ROYN 050400Z AUTO 11010KT 090V150 9999 BKN015 27/23 Q1010
METAR ROYN 050300Z AUTO 10008KT 9999 SCT046 BKN050 OVC060 25/22 Q1011
METAR ROYN 050200Z AUTO 12007KT 9999 FEW042 BKN048 OVC050 24/22 Q1011
METAR ROYN 050100Z AUTO 11008KT 9999 FEW015 SCT048 BKN050 24/22 Q1011
METAR ROYN 050000Z AUTO 08008KT 9999 FEW014 BKN050 OVC060 24/22 Q1010
METAR RORS 051200Z AUTO 12008KT 9999 NSC 23/21 Q1012
METAR RORS 051100Z AUTO 11006KT 9999 NSC 23/21 Q1012
METAR RORS 051000Z 10008KT 9999 FEW020 BKN050 BKN060 24/21 Q1011
METAR RORS 050900Z 09008KT 9999 FEW020 BKN050 BKN/// 25/21 Q1010
METAR RORS 050800Z 08007KT 9999 FEW020 BKN/// 26/20 Q1010
METAR RORS 050700Z 07006KT 040V100 9999 FEW019 BKN050 27/21 Q1010
METAR RORS 050600Z 07008KT 9999 FEW017 BKN050 26/21 Q1010
METAR RORS 050500Z 06006KT 9999 SCT020 BKN050 26/21 Q1010
METAR RORS 050400Z 06006KT 9999 FEW018 SCT025 BKN050 25/21 Q1011
METAR RORS 050300Z 07007KT 9999 FEW017 BKN070 26/21 Q1011
METAR RORS 050200Z 05008KT 360V100 9999 FEW017 BKN060 25/20 Q1011
METAR RORS 050100Z 05010KT 9999 FEW015 SCT043 BKN070 25/21 Q1011
METAR RORS 050000Z AUTO 06010KT 9999 FEW015 SCT028 BKN031 23/20 Q1010
METAR ROIG 051300Z AUTO 11005KT 080V140 9999 FEW021 OVC070 24/22 Q1012
METAR ROIG 051200Z AUTO 11005KT 080V140 9999 NSC 24/22 Q1011
METAR ROIG 051100Z 11005KT 9999 FEW011 SCT050 24/22 Q1011
METAR ROIG 051000Z 11005KT 080V150 9999 FEW011 SCT070 24/22 Q1011
METAR ROIG 050900Z 12006KT 9999 VCSH FEW010 SCT018 BKN070 24/22 Q1010
METAR ROIG 050800Z 12008KT 9999 VCSH FEW009 SCT018 BKN070 25/23 Q1010
METAR ROIG 050700Z 09008KT 9999 -SHRA FEW012 BKN020 FEW025TCU BKN030 24/23 Q1009
METAR ROIG 050600Z 11005KT 080V160 9999 -SHRA FEW010 SCT020 BKN045 25/22 Q1010
METAR ROIG 050500Z 09006KT 9999 -SHRA FEW009 SCT020 BKN050 25/23 Q1010
METAR ROIG 050400Z 10006KT 070V160 9999 FEW011 SCT028 BKN045 25/22 Q1010
METAR ROIG 050300Z 07008KT 9999 FEW013 BKN050 26/23 Q1011
METAR ROIG 050200Z 07006KT 9999 FEW012 SCT019 BKN050 24/22 Q1011
METAR ROIG 050100Z 06007KT 9999 FEW011 SCT020 BKN060 24/22 Q1010
METAR ROIG 050000Z 05007KT 9999 VCSH FEW009 SCT018 BKN050 23/22 Q1010
METAR ROTM 051256Z AUTO 10005KT 10SM SCT011 22/19 A2995 RMK AO2 SLP129 T02170194 $
SPECI ROTM 051248Z AUTO 10005KT 10SM SCT011 22/19 A2995 RMK AO2 T02170194 $
SPECI ROTM 051239Z AUTO 09006KT 10SM BKN011 22/19 A2995 RMK AO2 T02170194 $
SPECI ROTM 051134Z AUTO 10005KT 10SM BKN009 BKN013 22/20 A2992 RMK AO2 CIG 007V012 T02170200 $
SPECI ROTM 051100Z AUTO 10008KT 10SM SCT010 BKN015 22/20 A2992 RMK AO2 T02170200 $
METAR ROTM 051056Z AUTO 10008KT 10SM BKN008 BKN015 22/20 A2992 RMK AO2 CIG 006V011 SLP117 T02170200 $
METAR ROTM 050956Z AUTO 10008KT 10SM CLR 22/20 A2990 RMK AO2 SLP111 T02220200 $
SPECI ROTM 050921Z AUTO 09006KT 10SM SCT018 23/19 A2989 RMK AO2 T02280194 $
METAR ROTM 050856Z AUTO 09005KT 10SM OVC016 23/19 A2988 RMK AO2 SLP106 T02280194 50002 $
SPECI ROTM 050845Z AUTO 13006KT 10SM OVC016 23/19 A2988 RMK AO2 T02330194 $
SPECI ROTM 050836Z AUTO 13004KT 10SM BKN014 BKN019 24/19 A2988 RMK AO2 T02390194 $
SPECI ROTM 050813Z AUTO 32004KT 10SM FEW019 SCT024 24/18 A2988 RMK AO2 T02390183 $
SPECI ROTM 050736Z AUTO 32007KT 10SM BKN018 23/18 A2988 RMK AO2 T02280178 $
METAR ROTM 050656Z AUTO 33009KT 10SM BKN016 24/19 A2988 RMK AO2 SLP103 T02390194 $
SPECI ROTM 050639Z AUTO 32008KT 10SM SCT023 SCT065 24/19 A2988 RMK AO2 T02390194 $
METAR ROTM 050556Z AUTO 34007KT 10SM BKN015 BKN022 OVC065 23/20 A2988 RMK AO2 SLP104 T02330200 10244 20194 55000 $
SPECI ROTM 050552Z AUTO 33007KT 10SM BKN016 BKN065 23/19 A2988 RMK AO2 $
METAR ROTM 050456Z AUTO 11006KT 10SM BKN065 24/19 A2987 RMK AO2 SLP100 T02440194 $
SPECI ROTM 050434Z AUTO 10004KT 10SM SCT017 SCT023 24/19 A2987 RMK AO2 T02440189 $
METAR ROTM 050356Z AUTO VRB04KT 10SM BKN015 23/19 A2988 RMK AO2 SLP103 T02330189 $
SPECI ROTM 050325Z AUTO 09004KT 10SM BKN015 23/19 A2988 RMK AO2 T02280189 $
SPECI ROTM 050303Z AUTO VRB03KT 10SM FEW015 SCT075 23/21 A2988 RMK AO2 T02280206 $
METAR ROTM 050256Z AUTO 00000KT 10SM BKN013 BKN075 22/20 A2989 RMK AO2 SLP107 T02220200 50002 $
SPECI ROTM 050234Z AUTO VRB03KT 10SM OVC011 21/20 A2989 RMK AO2 T02110200 $
METAR ROTM 050156Z AUTO 35005KT 10SM OVC008 21/19 A2990 RMK AO2 CIG 006V012 SLP110 T02060194 $
METAR ROTM 050056Z AUTO 04003KT 10SM OVC005 20/19 A2989 RMK AO2 CIG 005V010 SLP109 T02000194 $
SPECI ROTM 050008Z AUTO 11009KT 10SM OVC005 19/19 A2987 RMK AO2 CIG 003V008 T01940189 $
SPECI RJTY 051210Z 19003KT 10SM BKN031 18/16 A2983 RMK AO2A SLP103 $
METAR RJTY 051155Z 00000KT 10SM BKN029 19/16 A2982 RMK AO2A SLP100 T01860155 10232 20186 52017 $
SPECI RJTY 051140Z 30004KT 10SM BKN029 19/16 A2981 RMK AO2A BKN V FEW SLP096 $
METAR RJTY 050956Z 31004KT 10SM CLR 20/16 A2978 RMK AO2A SLP087 T02020158 $
METAR RJTY 050855Z 34006KT 10SM FEW200 20/16 A2977 RMK AO2A SLP083 T02000156 52011 $
METAR RJTY 050655Z 11004KT 10SM FEW200 22/15 A2974 RMK AO2A SLP073 T02220148 $
SPECI RJTY 050625Z AUTO 12006KT 10SM BKN029 OVC048 22/15 A2974 RMK AO2 BKN V OVC SLP073 $
METAR RJTY 050555Z 07007KT 10SM SCT034 BKN190 23/16 A2973 RMK AO2A SLP069 T02310159 10237 20189 58005 $
METAR RJTY 050355Z 15003KT 10SM FEW140 SCT200 22/15 A2975 RMK AO2A SLP076 T02190152 $
METAR RJTY 050255Z 16003KT 10SM FEW140 SCT170 BKN200 21/15 A2975 RMK AO2A SLP076 T02110149 50004 $
METAR RJTY 050155Z 10004KT 10SM FEW160 SCT210 20/15 A2974 RMK AO2A SLP073 T02030146 $
SPECI RJTY 050135Z 00000KT 10SM SCT020 SCT200 20/14 A2975 RMK AO2A SLP077 $
SPECI RJTY 050105Z 09004KT 10SM BKN019 20/15 A2975 RMK AO2A CIG 019V190 BKN V SCT SLP077 $
METAR RJTY 050055Z 00000KT 10SM SCT019 SCT190 SCT210 20/15 A2975 RMK AO2A SLP077 T01990147 $
