TAF RJSF 052311Z 0600/0706 26004KT 9999 FEW030
TAF RJSK 052311Z 0600/0706 17004KT 9999 FEW030
TAF RJSI 052311Z 0600/0706 18012KT 9999 FEW030
TAF RJSS 052311Z 0600/0706 12010KT 8000 FEW005 BKN012
TAF RJSA 052311Z 0600/0706 23010KT 9999 FEW030
TAF RJFF 052307Z 0600/0706 15018KT 9999 FEW035
TAF ROAH 052305Z 0600/0706 17010KT 9999 FEW008 SCT015
TAF RJOA 052305Z 0600/0706 22006KT 9999 FEW030
TAF RJOB 052305Z 0600/0706 20006KT 9999 FEW030
TAF RJOT 052305Z 0600/0706 35006KT 9999 FEW030
TAF RJNT 052305Z 0600/0706 31006KT 9999 FEW030
TAF RJNK 052305Z 0600/0706 28010KT 9999 FEW030
TAF RJCC 052305Z 0600/0706 17016KT 9999 FEW005 BKN020
TAF RJSN 052305Z 0600/0706 29006KT 9999 FEW030
TAF RORS 052305Z 0600/0706 18014KT 9999 FEW008 BKN015
TAF RJOH 052305Z 0600/0706 22006KT 9999 FEW030
TAF RJOM 052305Z 0600/0706 12006KT 9999 FEW030
TAF RJNS 052305Z 0600/0706 22012KT 9999 FEW030
TAF RJOK 052305Z 0600/0706 32008KT 9999 FEW030
TAF ROIG 052305Z 0600/0706 20018KT 9999 FEW008 BKN015
TAF RJOC 052305Z 0600/0706 24006KT 9999 FEW030
TAF RJGG 052305Z 0600/0706 29004KT 9999 FEW030
TAF RJAA 052305Z 0600/0706 07006KT 9999 FEW020 SCT030
TAF RJBB 052305Z 0600/0706 29006KT 9999 FEW030
TAF RJTT 052305Z 0600/0706 12006KT 9999 FEW030
TAF RJOO 052305Z 0600/0706 22006KT 9999 FEW030
TAF ROTM 052100Z 0521/0621 12010KT 9999 SCT015 SCT035 QNH2992INS
TAF RODN 051600Z 0516/0622 09009KT 9999 SCT012 SCT030 QNH2990INS
TAF RJTY 051300Z 0513/0619 VRB06KT 9999 SCT010 BKN020 QNH2982INS
TAF RJFF 052307Z 0600/0706 15018KT 9999 FEW035 
  BECMG 0608/0610 14006KT 
  BECMG 0615/0618 35012KT 
  TEMPO 0615/0621 4000 SHRA BR BKN008 BKN014 
  TEMPO 0700/0706 35020G30KT
TAF RJAA 052305Z 0600/0706 07006KT 9999 FEW020 SCT030 
  BECMG 0603/0605 14010KT 
  TEMPO 0621/0700 4000 -RA BR 
  TEMPO 0700/0706 3000 RA BR FEW001 BKN003
TAF RJBB 052305Z 0600/0706 29006KT 9999 FEW030 
  BECMG 0606/0608 19016KT 
  BECMG 0621/0700 36012KT 
  TEMPO 0621/0703 4000 RA BR FEW003 BKN008 BKN015
TAF RJTT 052305Z 0600/0706 12006KT 9999 FEW030 
  BECMG 0604/0606 19014KT 
  TEMPO 0700/0706 4000 RA BR
TAF RJOO 052305Z 0600/0706 22006KT 9999 FEW030 
  BECMG 0610/0612 30006KT 
  BECMG 0700/0703 34016KT 
  TEMPO 0700/0703 4000 RA BR
TAF ROAH 052305Z 0600/0706 17010KT 9999 FEW008 SCT015 
  TEMPO 0604/0607 4000 SHRA BR FEW006 BKN008 FEW020CB 
  BECMG 0612/0615 20024KT 
  TEMPO 0615/0700 FEW006 BKN008 
  TEMPO 0703/0706 4000 SHRA BR FEW006 BKN008 FEW020CB
TAF RJNK 052305Z 0600/0706 28010KT 9999 FEW030 
  BECMG 0612/0615 22008KT 
  BECMG 0621/0700 28012KT
TAF RJCC 052305Z 0600/0706 17016KT 9999 FEW005 BKN020 
  TEMPO 0600/0602 FEW003 BKN008 
  TEMPO 0607/0610 FEW003 BKN008 
  TEMPO 0610/0615 3000 -SHRA BR FEW003 BKN005 
  TEMPO 0615/0700 1500 SHRA BR FEW001 BKN003 
  TEMPO 0700/0703 3000 -SHRA BR FEW003 BKN005
TAF RJGG 052305Z 0600/0706 29004KT 9999 FEW030 
  BECMG 0601/0603 13008KT 
  BECMG 0618/0621 06006KT 
  TEMPO 0621/0706 2000 SHRA BR FEW001 BKN005 
  BECMG 0700/0703 30016KT 
  BECMG 0703/0706 32028KT
TAF RJSN 052305Z 0600/0706 29006KT 9999 FEW030 
  BECMG 0607/0609 11004KT 
  BECMG 0618/0621 25016KT 
  TEMPO 0700/0706 25018G28KT=
TAF RJSA 052311Z 0600/0706 23010KT 9999 FEW030 
  TEMPO 0618/0700 3000 SHRA BR FEW005 BKN008 
  TEMPO 0700/0706 4000 -SHRA BR
TAF RJSK 052311Z 0600/0706 17004KT 9999 FEW030 
  BECMG 0602/0604 27008KT 
  BECMG 0610/0612 13006KT 
  BECMG 0621/0700 26014KT 
  TEMPO 0621/0703 3000 SHRA BR FEW003 BKN005
TAF RJSS 052311Z 0600/0706 12010KT 8000 FEW005 BKN012 
  TEMPO 0600/0601 3000 BR FEW003 BKN005 
  TEMPO 0604/0608 4000 BR FEW003 BKN005 
  TEMPO 0608/0618 3000 BR FEW003 BKN005 
  BECMG 0609/0611 05004KT 
  TEMPO 0618/0700 4000 BR FEW003 BKN005 
  BECMG 0703/0706 31012KT
TAF RJOT 052305Z 0600/0706 35006KT 9999 FEW030 
  BECMG 0610/0612 27006KT 
  TEMPO 0621/0703 4000 RA BR FEW001 SCT005 BKN008
TAF RJNT 052305Z 0600/0706 31006KT 9999 FEW030 
  BECMG 0609/0611 19010KT 
  BECMG 0621/0700 26010KT
TAF RORS 052305Z 0600/0706 18014KT 9999 FEW008 BKN015 
  TEMPO 0600/0601 FEW006 BKN008 
  TEMPO 0601/0604 4000 SHRA BR FEW006 BKN008 FEW020CB 
  TEMPO 0618/0700 FEW006 BKN008 
  BECMG 0703/0706 24010KT
TAF RJNS 052305Z 0600/0706 22012KT 9999 FEW030 
  TEMPO 0621/0703 4000 -RA BR FEW002 BKN005 
  TEMPO 0703/0706 3000 RA BR FEW002 BKN005
TAF RJOA 052305Z 0600/0706 22006KT 9999 FEW030 
  BECMG 0618/0621 32016KT
TAF RJOB 052305Z 0600/0706 20006KT 9999 FEW030 
  BECMG 0608/0610 35004KT=
TAF RJSI 052311Z 0600/0706 18012KT 9999 FEW030 
  BECMG 0612/0615 1500 BR FEW003 BKN008 
  TEMPO 0615/0700 0700 FG VV003 
  BECMG 0700/0703 26008KT 9999 NSW FEW012 BKN020
TAF RJSA 052311Z 0600/0706 23010KT 9999 FEW030 
  TEMPO 0618/0700 3000 SHRA BR FEW005 BKN008 
  TEMPO 0700/0706 4000 -SHRA BR
TAF RJSF 052311Z 0600/0706 26004KT 9999 FEW030 
  TEMPO 0600/0601 0900 FG VV003 
  BECMG 0602/0604 18010KT 
  BECMG 0700/0703 32010KT
TAF RJOM 052305Z 0600/0706 12006KT 9999 FEW030 
  BECMG 0600/0602 31004KT 
  BECMG 0606/0608 22010KT 
  BECMG 0618/0621 35012KT 
  TEMPO 0618/0700 4000 RA BR FEW003 BKN008 BKN020
TAF RJOK 052305Z 0600/0706 32008KT 9999 FEW030 
  BECMG 0600/0602 17008KT 
  BECMG 0609/0611 35006KT 
  TEMPO 0618/0700 4000 RA BR=
TAF RJSS 052311Z 0600/0706 12010KT 8000 FEW005 BKN012 
  TEMPO 0600/0601 3000 BR FEW003 BKN005 
  TEMPO 0604/0608 4000 BR FEW003 BKN005 
  TEMPO 0608/0618 3000 BR FEW003 BKN005 
  BECMG 0609/0611 05004KT 
  TEMPO 0618/0700 4000 BR FEW003 BKN005 
  BECMG 0703/0706 31012KT
TAF RJSK 052311Z 0600/0706 17004KT 9999 FEW030 
  BECMG 0602/0604 27008KT 
  BECMG 0610/0612 13006KT 
  BECMG 0621/0700 26014KT 
  TEMPO 0621/0703 3000 SHRA BR FEW003 BKN005
TAF RJNT 052305Z 0600/0706 31006KT 9999 FEW030 
  BECMG 0609/0611 19010KT 
  BECMG 0621/0700 26010KT
TAF RJNK 052305Z 0600/0706 28010KT 9999 FEW030 
  BECMG 0612/0615 22008KT 
  BECMG 0621/0700 28012KT
TAF RJSN 052305Z 0600/0706 29006KT 9999 FEW030 
  BECMG 0607/0609 11004KT 
  BECMG 0618/0621 25016KT 
  TEMPO 0700/0706 25018G28KT
TAF RJNS 052305Z 0600/0706 22012KT 9999 FEW030 
  TEMPO 0621/0703 4000 -RA BR FEW002 BKN005 
  TEMPO 0703/0706 3000 RA BR FEW002 BKN005=
TAF ROTM 052100Z 0521/0621 12010KT 9999 SCT015 SCT035 QNH2992INS 
  BECMG 0600/0602 17012G20KT 9999 SCT025 BKN080 QNH2988INS 
  FM060500 18012G23KT 9999 -SHRA SCT025 BKN060 OVC100 QNH2980INS 
  BECMG 0616/0617 19018G30KT 8000 SHRA BR FEW010 BKN025 OVC045 QNH2977INS 
  TEMPO 0617/0621 3200 TSRA BR FEW010 BKN015 OVC030 TX25/0603Z TN21/0521Z RTD 2145
TAF RJTY 051300Z 0513/0619 VRB06KT 9999 SCT010 BKN020 QNH2982INS 
  TEMPO 0513/0518 BKN010 OVC020 
  BECMG 0603/0604 15012G18KT 9999 SCT160 QNH2993INS 
  BECMG 0609/0610 VRB06KT 9999 BKN150 QNH2984INS TX24/0605Z TN14/0521Z=
