METAR RJCC 042330Z VRB01KT 2400 BR FEW001 SCT002 BKN003 09/09 Q1004
METAR RJBB 042330Z VRB01KT 9999 FEW015 BKN/// 15/13 Q1009 BECMG 35005KT
METAR RJAA 042330Z 30006KT 250V330 7000 FEW006 BKN017 BKN/// 18/16 Q1005 NOSIG
METAR ROAH 042330Z 08007KT 030V100 9999 -RA FEW005 BKN080 BKN100 20/20 Q1010
METAR RJFF 042330Z 18004KT 100V230 9999 FEW015 BKN/// 15/10 Q1009 BECMG 29006KT
METAR RJGG 042330Z 31008KT 9999 FEW015 SCT050 BKN/// 15/12 Q1008 NOSIG
METAR RJTT 042330Z 05003KT 9999 FEW008 SCT010 BKN/// 17/15 Q1005 NOSIG
METAR RJNT 042300Z 28006KT 250V320 9999 FEW005 SCT010 BKN020 14/11 Q1009
METAR RJNT 042200Z 29010KT 250V310 9999 FEW010 SCT020 BKN/// 13/11 Q1008
METAR RJNT 042100Z AUTO 25007KT 210V280 9999 NCD 13/11 Q1008
METAR RJNT 042000Z AUTO 25013KT 9999 FEW045 SCT090 14/12 Q1007
METAR RJNT 041900Z AUTO 26009KT 9999 BKN060 BKN070 OVC090 15/12 Q1006
METAR RJNT 041800Z AUTO 25010KT 220V280 9999 SCT031 BKN033 OVC049 16/13 Q1004
METAR RJNT 041700Z AUTO 25008KT 9999 FEW027 SCT070 BKN090 //////TCU 16/14 Q1003
METAR RJNT 041600Z AUTO 27013KT 240V300 9999 -RA FEW008 SCT015 BKN060 16/15 Q1002
METAR RJNT 041500Z AUTO 22009KT 160V320 9999 -RA FEW038 SCT050 OVC060 19/13 Q1001
METAR RJNT 041400Z AUTO 16008G20KT 050V230 9999 FEW008 OVC070 20/12 Q0999
METAR RJNT 041300Z AUTO 18013G27KT 130V230 9999 FEW048 OVC080 20/11 Q0998
METAR RJNS 042300Z 24011KT 9999 FEW003 BKN/// 18/17 Q1005
METAR RJNS 042230Z 24012KT 8000 FEW000 SCT005 BKN/// 18/17 Q1005
METAR RJNS 042200Z AUTO 24010KT 7000 BKN002 OVC005 17/17 Q1005
METAR RJNS 042100Z AUTO 24008KT 5000 BR OVC001 17/17 Q1005
METAR RJNS 042000Z AUTO 24010KT 4300 BR OVC002 17/17 Q1004
METAR RJNS 041900Z AUTO 24011KT 9000 FEW005 BKN007 BKN009 18/17 Q1004
METAR RJNS 041800Z AUTO 25015KT 9999 SCT005 BKN007 BKN009 18/18 Q1004
METAR RJNS 041700Z AUTO 24013KT 9000 BKN003 OVC005 19/18 Q1004
METAR RJNS 041600Z AUTO 21021G32KT 8000 FEW003 BKN005 OVC007 //////TCU 18/18 Q1004
METAR RJNS 041500Z AUTO 21018G31KT 2800 RA BR BKN002 OVC011 //////TCU 18/18 Q1005
METAR RJNS 041400Z AUTO 17008KT 120V260 8000 RA OVC001 //////TCU 16/16 Q1005
METAR RJNS 041300Z AUTO VRB05KT 9999 RA FEW001 BKN011 OVC014 //////TCU 14/14 Q1006
METAR RJNW 042300Z 25005KT 210V300 9999 FEW005 SCT006 BKN008 11/10 Q1008
METAR RJNW 042200Z AUTO 28007KT 240V320 9999 FEW003 SCT005 11/10 Q1008
METAR RJNW 042100Z AUTO 25004KT 230V300 9999 FEW004 BKN005 OVC010 10/10 Q1008
METAR RJNW 042000Z AUTO 27006KT 230V340 9999 OVC001 11/11 Q1007
METAR RJNW 041900Z AUTO 25011KT 2000 -RA BR BKN002 OVC008 12/12 Q1005
METAR RJNW 041800Z AUTO 23016KT 1400 R25/P2000N -RA BR OVC001 12/12 Q1003
METAR RJNW 041700Z AUTO 23019KT 7000 -RA OVC002 13/12 Q1002
METAR RJNW 041600Z AUTO 24018KT 9999 SCT005 BKN008 OVC010 13/13 Q1001
METAR RJNW 041500Z AUTO 25012KT 4600 -RA BR SCT005 BKN007 OVC009 14/14 Q1000
METAR RJNW 041400Z AUTO 27011KT 9999 -RA BKN004 OVC038 14/13 Q1000
METAR RJNW 041300Z AUTO 26003KT 220V290 9999 -RA FEW015 SCT047 OVC048 15/12 Q0998
METAR RJOA 042300Z VRB03KT 5000 R10/0125VP2000D BCFG BR FEW000 SCT001 BKN/// 13/13 Q1009
METAR RJOA 042230Z 06003KT 030V110 6000 BCFG FEW000 SCT005 BKN/// 12/12 Q1008
METAR RJOA 042200Z AUTO 07002KT 9999 OVC042 12/12 Q1008
METAR RJOA 042100Z AUTO VRB02KT 9999 R28/P2000N SCT003 BKN005 OVC007 11/11 Q1008
METAR RJOA 042000Z AUTO 07002KT 9999 FEW044 BKN230 BKN240 11/11 Q1007
METAR RJOA 041900Z AUTO 01002KT 9999 BKN041 BKN050 OVC240 12/12 Q1007
METAR RJOA 041800Z AUTO 21003KT 9999 OVC047 12/11 Q1008
METAR RJOA 041700Z AUTO 35003KT 9999 FEW040 13/12 Q1007
METAR RJOA 041600Z AUTO 04002KT 9999 NCD 12/12 Q1006
METAR RJOA 041500Z AUTO 26004KT 210V310 9999 NCD 13/11 Q1005
METAR RJOA 041400Z AUTO 31008KT 9999 FEW043 14/13 Q1005
METAR RJOA 041300Z 29010KT 9999 FEW010 SCT050 15/13 Q1004
METAR RJOB 042300Z VRB01KT 9999 FEW015 BKN/// 16/12 Q1008
METAR RJOB 042200Z VRB01KT 9999 FEW025 BKN050 BKN/// 13/11 Q1008
METAR RJOC 042300Z VRB01KT 9999 FEW005 SCT020 BKN070 15/14 Q1009
METAR RJOC 042230Z VRB02KT 9999 FEW001 SCT020 BKN060 15/14 Q1008
METAR RJOC 042200Z AUTO 17003KT 9999 FEW021 BKN023 OVC060 14/14 Q1008
METAR RJOC 042100Z AUTO 17002KT 9999 -RA SCT017 BKN020 BKN022 14/14 Q1007
METAR RJOC 042000Z AUTO 08002KT 9999 FEW013 SCT018 BKN024 14/13 Q1007
METAR RJOC 041900Z AUTO 12002KT 9999 BKN013 BKN033 OVC060 14/14 Q1007
METAR RJOC 041800Z AUTO 22004KT 9999 -RA FEW009 SCT013 BKN017 14/14 Q1007
METAR RJOC 041700Z AUTO 29005KT 9999 FEW011 SCT013 BKN017 14/13 Q1006
METAR RJOC 041600Z AUTO 27007KT 9999 BKN020 BKN023 14/13 Q1006
METAR RJOC 041500Z AUTO 26010KT 9999 FEW011 SCT017 BKN021 15/13 Q1005
METAR RJOC 041400Z AUTO 25012KT 9999 FEW011 BKN013 BKN015 15/13 Q1004
METAR RJOC 041300Z AUTO 23018KT 9999 FEW014 15/13 Q1003
METAR RJOK 042300Z 03004KT 350V060 9999 FEW010 BKN/// 17/14 Q1007
METAR RJOK 042200Z 02006KT 9999 FEW010 BKN/// 15/14 Q1007
METAR RJOK 042100Z AUTO 35006KT 9999 NSC 14/13 Q1006
METAR RJOK 042000Z AUTO 31003KT 280V040 9999 NSC 14/13 Q1006
METAR RJOK 041900Z AUTO 34006KT 9999 NSC 15/14 Q1005
METAR RJOK 041800Z AUTO 30006KT 9999 NCD 15/15 Q1005
METAR RJOK 041700Z AUTO 30005KT 260V050 0300 R32/0600VP2000N FG FEW000 BKN002 16/16 Q1004
METAR RJOK 041600Z AUTO VRB02KT 7000 FEW001 17/16 Q1004
METAR RJOK 041500Z AUTO 10003KT 070V160 0500 R32/0700VP2000D FG FEW001 BKN003 16/16 Q1004
METAR RJOK 041400Z AUTO 30002KT 3200 BR FEW043 SCT048 17/17 Q1003
METAR RJOK 041300Z AUTO 32004KT 8000 FEW037 18/17 Q1002
METAR RJOH 042300Z 07004KT 040V100 9999 -SHRA FEW005 SCT008 BKN020 15/15 Q1009
METAR RJOH 042200Z VRB02KT 9999 FEW030 SCT050 BKN070 13/13 Q1009
METAR RJOH 042100Z VRB01KT 9999 FEW030 BKN070 BKN250 13/13 Q1008
METAR RJOH 042000Z 15003KT 9999 FEW020 SCT025 BKN070 14/14 Q1008
METAR RJOH 041900Z 26005KT 9999 FEW020 SCT025 BKN070 15/15 Q1007
METAR RJOH 041800Z 26005KT 9999 FEW020 SCT025 BKN070 15/15 Q1007
METAR RJOH 041700Z 27007KT 9999 FEW020 SCT025 BKN070 15/15 Q1006
METAR RJOH 041600Z 25008KT 9999 FEW020 SCT025 BKN070 15/15 Q1006
METAR RJOH 041500Z 25010KT 9999 FEW020 SCT025 BKN070 15/15 Q1005
METAR RJOH 041400Z 25015KT 9999 FEW020 SCT025 BKN070 15/15 Q1004
METAR RJOH 041300Z 25022KT 9999 FEW020 SCT025 BKN070 15/15 Q1003
METAR RJOM 042300Z 13003KT 9999 FEW020 BKN/// 16/14 Q1008
METAR RJOM 042200Z 10003KT 9999 FEW020 BKN/// 16/13 Q1008
METAR RJOM 042100Z AUTO 12003KT 9999 BKN050 BKN210 OVC240 15/13 Q1008
METAR RJOM 042000Z AUTO 15003KT 100V170 9999 FEW034 BKN038 BKN050 15/13 Q1008
METAR RJOM 041900Z AUTO 21003KT 180V240 9999 SCT036 BKN045 OVC050 15/13 Q1007
METAR RJOM 041800Z AUTO 20007KT 9999 BKN044 OVC049 15/13 Q1007
METAR RJOM 041700Z AUTO 22008KT 9999 FEW043 OVC044 15/13 Q1007
METAR RJOM 041600Z AUTO 19007KT 9999 OVC043 15/13 Q1006
METAR RJOM 041500Z AUTO 21008KT 9999 BKN042 16/13 Q1006
METAR RJOM 041400Z AUTO 20011KT 9999 FEW033 16/13 Q1005
METAR RJOM 041300Z AUTO 19013KT 9999 BKN050 16/14 Q1004
METAR RJOI 042356Z 05006KT 10SM FEW025 SCT200 BKN250 15/12 A2980 RMK AO2 SLP091 T01500122 10156 20122 53007 $
METAR RJOI 042256Z 05005KT 10SM FEW025 BKN200 14/13 A2979 RMK AO2 SLP088 T01440128 $
METAR RJOI 042156Z 02005KT 10SM FEW025 FEW045 BKN220 13/12 A2979 RMK AO2 SLP086 T01330122 $
METAR RJOI 042056Z 01003KT 10SM FEW020 FEW045 BKN220 13/12 A2978 RMK AO2 SLP084 T01330122 53007 $
METAR RJOI 041956Z 01003KT 10SM FEW015 FEW060 BKN230 13/12 A2976 RMK AO2 SLP076 T01330117 $
METAR RJOI 041856Z VRB06KT 10SM FEW015 FEW040 BKN060 15/12 A2975 RMK AO2 SLP073 T01500122 $
METAR RJOI 041756Z 27009KT 10SM FEW015 SCT040 BKN055 16/12 A2976 RMK AO2 SLP077 T01560122 10178 20150 53017 $
METAR RJOI 041656Z 28007KT 10SM FEW015 FEW030 BKN050 16/12 A2973 RMK AO2 SLP067 T01560122 $
METAR RJOI 041556Z 29005KT 10SM FEW015 SCT040 BKN048 16/12 A2972 RMK AO2 SLP064 T01560122 $
METAR RJOI 041456Z 30006KT 10SM FEW015 BKN044 16/12 A2971 RMK AO2 SLP059 T01560122 401940122 53021 $
METAR RJOI 041356Z 27006KT 10SM FEW015 SCT041 BKN050 16/12 A2968 RMK AO2 SLP051 T01560122 $
METAR RJOI 041256Z 26008KT 10SM FEW012 FEW030 BKN048 17/12 A2966 RMK AO2 SLP044 T01670122 $
METAR RJOW 042300Z VRB02KT 9999 FEW015 BKN/// 14/13 Q1008
METAR RJSA 042300Z VRB02KT 2500 R24/P2000N BCFG -SHRA BR FEW001 BKN002 BKN005 07/07 Q1003
METAR RJSA 042230Z 00000KT 0300 R24/0300V0450N FG -SHRA FEW001 BKN002 07/07 Q1003
METAR RJSA 042200Z AUTO 00000KT 0700 R24/0500V1000N -RA FG BKN001 OVC020 06/06 Q1002
METAR RJSA 042100Z AUTO VRB01KT 0200 R24/0550V0800D -RA FG OVC000 05/05 Q1002
METAR RJSA 042000Z AUTO 00000KT 0300 R24/0550V0900U -RA FG BKN001 BKN027 OVC032 06/06 Q1001
METAR RJSA 041900Z AUTO VRB01KT 0100 R24/0450V0600N FG OVC001 05/05 Q1000
METAR RJSA 041800Z AUTO VRB01KT 0200 R24/0375V0650U -RA FG FEW000 BKN017 BKN045 05/05 Q1000
METAR RJSA 041700Z AUTO 06002KT 0200 R24/0550V0800D FG FEW000 SCT002 BKN044 05/05 Q1000
METAR RJSA 041600Z AUTO VRB02KT 1900 R24/P2000N -RA BR FEW039 SCT040 BKN050 05/05 Q1000
METAR RJSA 041500Z AUTO 07003KT 0100 R24/0500N -RA FG FEW001 BKN048 BKN050 05/05 Q1001
METAR RJSA 041400Z AUTO 08003KT 2400 R24/P2000N -RA BR FEW000 SCT050 BKN060 07/07 Q1002
METAR RJSA 041300Z AUTO 07005KT 0400 R24/1000VP2000D -RA FG FEW050 OVC060 07/07 Q1003
METAR RJOS 042300Z 29006KT 9999 FEW030 SCT050 BKN/// 18/11 Q1008
METAR RJOS 042200Z 29007KT 9999 FEW030 BKN050 BKN/// 17/11 Q1008
METAR RJOS 042100Z 29006KT 9999 FEW030 BKN050 BKN/// 17/11 Q1008
METAR RJOS 042000Z 30010KT 9999 FEW030 BKN/// 17/12 Q1007
METAR RJOS 041900Z 30006KT 9999 FEW030 SCT050 17/12 Q1007
METAR RJOS 041800Z 32011KT 9999 FEW030 BKN045 18/12 Q1005
METAR RJOS 041700Z 30003KT 260V330 9999 FEW030 BKN045 18/14 Q1005
METAR RJOS 041600Z 28004KT 9999 FEW025 BKN040 BKN/// 18/15 Q1004
METAR RJOS 041500Z 23005KT 200V270 9999 FEW025 BKN040 18/16 Q1004
METAR RJOS 041400Z 03004KT 9999 FEW025 SCT040 BKN/// 17/15 Q1003
METAR RJOS 041300Z 09008KT 9999 FEW025 SCT070 BKN/// 17/16 Q1002
METAR RJOY 042300Z VRB02KT 9999 FEW015 BKN060 BKN/// 17/14 Q1009
METAR RJOT 042300Z VRB02KT 9999 FEW020 BKN/// 17/13 Q1009
METAR RJOT 042200Z 22003KT 9999 FEW025 SCT045 BKN/// 15/13 Q1009
METAR RJOT 042100Z AUTO VRB01KT 9999 OVC046 14/13 Q1008
METAR RJOT 042000Z AUTO 26005KT 9999 FEW025 BKN043 OVC044 14/13 Q1008
METAR RJOT 041900Z AUTO 25007KT 9999 SCT022 BKN025 OVC042 15/13 Q1008
METAR RJOT 041800Z AUTO 25007KT 9999 BKN026 BKN029 OVC046 15/13 Q1007
METAR RJOT 041700Z AUTO 24008KT 9999 SCT030 BKN036 OVC046 16/14 Q1006
METAR RJOT 041600Z AUTO 25005KT 210V280 9999 FEW029 SCT042 BKN048 15/14 Q1006
METAR RJOT 041500Z AUTO 24013KT 9999 SCT043 BKN049 BKN050 16/13 Q1005
METAR RJOT 041400Z AUTO 24014KT 9999 FEW030 SCT037 OVC040 16/14 Q1004
METAR RJOT 041300Z AUTO 25013KT 9999 FEW013 SCT032 BKN033 16/15 Q1003
METAR RJOR 042300Z 14002KT 9999 FEW008 SCT015 BKN020 15/12 Q1009
METAR RJOR 042200Z 10003KT 9999 FEW006 SCT010 BKN015 14/13 Q1009
METAR RJOR 042100Z AUTO 03007KT 9999 SCT009 BKN012 OVC033 13/12 Q1008
METAR RJOR 042000Z AUTO 34003KT 290V020 9000 BKN010 BKN034 OVC040 14/13 Q1008
METAR RJOR 041900Z AUTO 23002KT 9999 BKN011 14/13 Q1008
METAR RJOR 041800Z AUTO 28011KT 8000 FEW007 13/13 Q1007
METAR RJOR 041700Z AUTO 28016KT 9999 NCD 14/12 Q1006
METAR RJOR 041600Z AUTO 27014KT 9000 NCD 14/12 Q1005
METAR RJOR 041500Z AUTO 29020KT 9999 NCD 15/12 Q1004
METAR RJOR 041400Z AUTO 27015KT 9999 NSC 15/13 Q1003
METAR RJOR 041300Z AUTO 24008KT 9999 FEW035 SCT042 OVC050 17/15 Q1001
METAR RJSC 042300Z 31003KT 9999 FEW010 SCT035 BKN045 11/11 Q1005
METAR RJSK 042300Z 23005KT 160V280 2000 -SHRA BR FEW000 SCT002 BKN004 12/12 Q1005
METAR RJSK 042200Z 24008KT 180V280 1500 R28/1900U -SHRA BR FEW000 SCT002 BKN004 13/12 Q1004
METAR RJSI 042300Z VRB01KT 9999 -RA FEW002 SCT004 BKN006 14/13 Q1003
METAR RJSF 042300Z 01009KT 330V050 9999 FEW005 BKN/// 15/12 Q1005
METAR RJSF 042200Z AUTO VRB02KT 9999 FEW025 14/13 Q1005
METAR RJSF 042100Z AUTO 21003KT 170V250 9999 FEW021 13/13 Q1004
METAR RJSF 042000Z AUTO 24004KT 190V270 9999 FEW002 SCT018 BKN019 13/13 Q1004
METAR RJSF 041900Z AUTO 23005KT 1000 R01/1000VP2000U BR OVC001 13/13 Q1003
METAR RJSF 041800Z AUTO 22004KT 160V250 1800 -RA BR BKN002 OVC003 14/14 Q1002
METAR RJSF 041700Z AUTO 19007KT 4400 -RA BR BKN003 BKN007 OVC009 14/13 Q1003
METAR RJSF 041600Z AUTO 18013KT 9999 -RA SCT005 BKN012 BKN013 14/13 Q1004
METAR RJSF 041500Z AUTO 18013KT 6000 -RA BKN007 BKN010 OVC023 14/13 Q1006
METAR RJSF 041400Z AUTO 19017KT 9999 FEW009 SCT012 BKN017 13/12 Q1006
METAR RJSF 041300Z AUTO 18016KT 8000 -RA FEW006 SCT009 BKN015 13/12 Q1007
METAR RJTO 042300Z 20017KT 7000 FEW004 SCT006 19/18 Q1005
METAR RJSR 042300Z 21006KT 2000 R11/1400VP2000D -SHRA BCFG BR FEW001 SCT005 BKN010 12/12 Q1004
METAR RJSY 042300Z 24021KT 9999 -SHRA FEW005 SCT020 BKN030 14/13 Q1006
METAR RJSY 042200Z 24021G32KT 8000 -SHRA FEW003 SCT007 BKN010 13/13 Q1005
METAR RJSM 042300Z VRB02KT 2500 -SHRA BR FEW002 BKN005 BKN015 10/10 Q1003
METAR RJSM 042200Z VRB02KT 3000 -SHRA BR FEW002 SCT005 BKN030 10/10 Q1002
METAR RJSM 042100Z 33004KT 1500 R10/1000VP1800N BR SCT001 SCT003 BKN005 09/09 Q1002
METAR RJSM 042000Z VRB02KT 3500 -SHRA BR FEW003 SCT030 BKN045 10/10 Q1001
METAR RJSM 041900Z 00000KT 3000 BR SCT003 SCT005 BKN045 10/10 Q1000
METAR RJSM 041800Z 31003KT 280V340 1000 R10/P1800N -SHRA BR SCT001 BKN002 OVC005 09/09 Q1000
METAR RJSM 041700Z VRB01KT 3000 -SHRA BR FEW003 SCT007 BKN050 09/09 Q1001
METAR RJSM 041600Z 15002KT 3000 -SHRA BR FEW003 BKN050 BKN080 10/10 Q1002
METAR RJSM 041500Z 11005KT 1500 R10/1800D -SHRA BR SCT001 SCT003 BKN007 09/09 Q1002
METAR RJSM 041400Z VRB02KT 7000 SHRA FEW015 SCT030 BKN050 10/10 Q1003
METAR RJSM 041300Z VRB02KT 9999 -SHRA FEW020 SCT030 BKN050 10/10 Q1004
METAR RJSS 042300Z VRB02KT 9999 BR FEW003 BKN/// 15/14 Q1004
METAR RJSS 042230Z VRB01KT 9999 PRFG FEW001 BKN/// 14/14 Q1003
METAR RJSS 042200Z AUTO VRB02KT 3100 BR FEW000 13/12 Q1003
METAR RJSS 042100Z AUTO VRB01KT 7000 NCD 12/12 Q1003
METAR RJSS 042000Z AUTO 26004KT 3200 BR NCD 11/10 Q1002
METAR RJSS 041900Z AUTO 17005KT 150V210 4300 BR BKN000 BKN030 OVC033 13/12 Q1002
METAR RJSS 041800Z AUTO VRB02KT 9000 SCT031 OVC033 13/12 Q1002
METAR RJSS 041700Z AUTO 17009KT 9999 FEW035 SCT036 OVC038 13/12 Q1002
METAR RJSS 041600Z AUTO 14014KT 9999 -RA FEW033 BKN034 OVC120 13/12 Q1003
METAR RJSS 041500Z AUTO 18014KT 150V220 9999 -RA FEW020 SCT036 BKN038 13/12 Q1004
METAR RJSS 041400Z AUTO 17016KT 9000 FEW033 SCT038 BKN041 13/12 Q1003
METAR RJSS 041300Z AUTO 17015KT 8000 -RA SCT039 BKN044 OVC100 13/12 Q1004
METAR RJSN 042300Z 20013KT 9999 FEW005 SCT010 BKN020 14/12 Q1008
METAR RJSN 042230Z 22010KT 9999 FEW005 SCT010 BKN020 13/12 Q1008
METAR RJSN 042200Z AUTO 22011KT 9999 FEW005 SCT024 OVC026 13/12 Q1007
METAR RJSN 042100Z AUTO 23017KT 3100 -RA BR BKN008 OVC010 14/12 Q1006
METAR RJSN 042000Z AUTO 22012KT 9999 OVC010 14/13 Q1004
METAR RJSN 041900Z AUTO 21017KT 9999 BKN010 OVC027 15/14 Q1003
METAR RJSN 041800Z AUTO 23005KT 4400 -RA BR SCT015 BKN025 BKN027 14/13 Q1002
METAR RJSN 041700Z AUTO 26004KT 9999 FEW012 BKN060 OVC070 14/12 Q1001
METAR RJSN 041600Z AUTO 23006KT 9999 FEW040 OVC060 16/13 Q1000
METAR RJSN 041500Z AUTO 19010KT 9999 FEW048 BKN070 OVC080 17/12 Q1000
METAR RJSN 041400Z AUTO 17013KT 9999 -RA FEW026 SCT080 BKN090 16/12 Q0999
METAR RJSN 041300Z AUTO 16011KT 9999 -RA FEW060 SCT090 BKN100 16/11 Q0999
METAR RODN 042356Z 08008KT 3SM OVC004 20/19 A2985 RMK DZE27 CIG 003 RWY23 SLP110 P0001 60000 T01980188 10201 20189 50005 FZRANO $
SPECI RODN 042325Z 03005KT 4SM -DZ BKN004 OVC048 19/19 A2986 RMK AO2A RAE07DZB07 CIG 004V055 BKN004 V SCT SLP113 FZRANO $
METAR RODN 042255Z COR 06008KT 4SM -RA FEW008 BKN018 OVC075 19/18 A2984 RMK AO2A RAE28DZB28E34RAB34 TSB2155E09 SLP106 P0000 T01940184 FZRANO $ COR 2307
SPECI RODN 042209Z 06010KT 5SM RA BR BKN021 OVC049 19/18 A2983 RMK AO2A LTG DSNT S TSE09 PRESFR SLP103 FZRANO $
METAR RODN 042155Z 13006KT 4SM -TSRA BKN021 OVC055 19/18 A2987 RMK AO2A TSB54 SLP116 P0001 T01910181 FZRANO $
SPECI RODN 042154Z 13005KT 7SM TSRA BKN021 OVC055 19/18 A2987 RMK PRESRR SLP116 FZRANO $
SPECI RODN 042048Z 04009KT 5SM +RA BR FEW006 BKN049 OVC065 19/18 A2983 RMK TSE48 SLP103 FZRANO $
SPECI RODN 042027Z COR 05009KT 10SM -TSRA BKN050 OVC065 OVC095 19/18 A2982 RMK AO2A RAE1955RAB04 TSB27 SLP100 FZRANO $
SPECI RODN 042004Z 06006KT 10SM -RA BKN065 BKN080 OVC095 19/18 A2982 RMK AO2A LTG DSNT SW RAB04 SLP100 FZRANO $
METAR RODN 041955Z 06009KT 10SM BKN085 19/18 A2981 RMK AO2A DZB1854E03RAB20E40DZB40E42 SLP096 P0000 T01930181 FZRANO $
SPECI RODN 041942Z 06009KT 10SM SCT035 BKN070 OVC085 19/18 A2981 RMK AO2A DZB1854E03RAB20E40DZB40E42 SLP096 FZRANO $
SPECI RODN 041920Z 04005KT 7SM -RA BKN075 OVC095 19/18 A2983 RMK AO2A DZB1815E1821DZB1854E03RAB20 SLP103 FZRANO $
METAR RODN 041855Z 05008KT 10SM -DZ FEW001 SCT025 BKN055 OVC090 19/18 A2982 RMK AO2A LTG DSNT S RAB1755E14DZB14E21DZB54 SLP100 P0000 T01920180 FZRANO $
SPECI RODN 041821Z 03006KT 10SM SCT040 OVC060 19/18 A2983 RMK AO2A LTG DSNT S RAE14DZB14E21 SLP103 FZRANO $
SPECI RODN 041814Z 35006KT 10SM -RA BKN048 OVC060 20/18 A2984 RMK LTG DSNT S SLP106 FZRANO $
METAR RODN 041755Z 02005KT 6SM RA BR BKN060 OVC070 20/19 A2984 RMK AO2A LTG DSNT S-SW RAE1655DZB1658E06RAB06 SLP106 P0000 60000 T01970185 10204 20192 50001 FZRANO $
SPECI RODN 041716Z 00000KT 7SM -RA FEW015 BKN041 BKN080 OVC100 19/18 A2984 RMK LTG DSNT SW DZE1655DZB1658E06RAB06 SLP106 FZRANO $
METAR RODN 041655Z 03003KT 9SM -DZ FEW015 BKN041 OVC100 20/18 A2984 RMK LTG DSNT SW DZB58 SLP106 P0000 T01950181 FZRANO $
METAR RODN 041555Z 07003KT 10SM BKN040 0VC050 20/18 A2985 RMK AO2A SLP110 T01990182 FZRANO $
METAR RODN 041455Z 03004KT 7SM SCT055 BKN150 BKN180 20/18 A2983 RMK AO2A SLP103 60000 T01960181 402600192 50001 FZRANO $
METAR RODN 041355Z 05004KT 10SM FEW060 BKN120 BKN160 19/18 A2985 RMK AO2A SLP110 T01930180 FZRANO $
METAR RODN 041255Z COR 00000KT 10SM FEW060 BKN160 20/18 A2984 RMK AO2A DZB1155E03DZB06E10 SLP106 P0000 T01980181 FZRANO $ COR 1310
METAR RJTI 042330Z 04004KT 010V080 9999 FEW008 BKN013 17/14 Q1005
METAR RJTF 042330Z VRB01KT 9999 FEW020 BKN/// 19/14 Q1005
METAR ROMY 042300Z 06007KT 9999 BKN012 BKN090 23/21 Q1010
METAR ROMY 042200Z AUTO 07009KT 9999 BKN009 BKN012 OVC017 22/21 Q1009
METAR ROMY 042100Z AUTO 06008KT 9999 FEW009 BKN010 BKN011 22/21 Q1009
METAR ROMY 042000Z AUTO 06008KT 9999 FEW009 BKN015 OVC110 22/21 Q1008
METAR ROMY 041900Z AUTO 05009KT 9999 FEW010 OVC012 22/21 Q1008
METAR ROMY 041800Z AUTO 05010KT 9999 SCT008 BKN010 OVC038 //////CB 22/21 Q1008
METAR ROMY 041700Z AUTO 06009KT 9999 SCT008 OVC010 //////TCU 22/21 Q1009
METAR ROMY 041600Z AUTO 06011KT 9999 OVC011 22/20 Q1009
METAR ROMY 041500Z AUTO 06010KT 9999 OVC011 //////CB 22/21 Q1009
METAR ROMY 041400Z AUTO 06008KT 9999 BKN011 OVC080 //////TCU 22/21 Q1009
METAR ROMY 041300Z AUTO 07010KT 9999 SCT012 BKN017 BKN060 22/20 Q1009
METAR ROYN 042300Z AUTO 08006KT 9999 FEW014 OVC050 23/21 Q1010
METAR ROYN 042200Z AUTO 09004KT 9999 NCD 21/20 Q1009
METAR ROYN 042100Z AUTO 05007KT 9999 FEW013 OVC029 22/20 Q1009
METAR ROYN 042000Z AUTO 04008KT 9999 BKN011 OVC150 22/21 Q1009
METAR ROYN 041900Z AUTO 04008KT 9999 SCT010 BKN013 OVC180 22/21 Q1009
METAR ROYN 041800Z AUTO 06009KT 9999 SCT009 BKN120 OVC130 22/21 Q1009
METAR ROYN 041700Z AUTO 03013KT 9999 FEW009 SCT015 BKN130 22/21 Q1009
METAR ROYN 041600Z AUTO 05008KT 9999 SCT009 SCT015 BKN030 22/21 Q1009
METAR ROYN 041500Z AUTO 08006KT 9999 FEW011 SCT030 BKN034 //////TCU 22/20 Q1010
METAR ROYN 041400Z AUTO 05011KT 9999 SCT015 BKN021 BKN025 23/20 Q1010
METAR ROYN 041300Z AUTO 05013KT 9999 SCT017 BKN026 BKN032 23/20 Q1008
METAR RORS 042300Z AUTO 05008KT 9999 BKN011 23/21 Q1010
METAR RORS 042200Z AUTO 04010KT 9999 OVC009 23/21 Q1009
METAR RORS 042100Z AUTO 04011KT 9999 OVC010 23/21 Q1009
METAR RORS 042000Z AUTO 05008KT 9999 BKN011 OVC150 23/21 Q1008
METAR RORS 041900Z AUTO 05008KT 9999 BKN011 OVC015 23/21 Q1008
METAR RORS 041800Z AUTO 06009KT 9999 FEW014 SCT027 BKN029 //////CB 23/20 Q1008
METAR RORS 041700Z AUTO 06008KT 9999 BKN014 OVC034 //////TCU 23/20 Q1009
METAR RORS 041600Z AUTO 06009KT 9999 FEW015 SCT027 BKN050 22/20 Q1009
METAR RORS 041500Z AUTO 06009KT 9999 BKN014 OVC027 //////TCU 23/20 Q1009
METAR RORS 041400Z AUTO 05010KT 9999 BKN014 OVC026 //////TCU 23/20 Q1009
METAR RORS 041300Z AUTO 06010KT 9999 FEW014 BKN070 BKN080 22/20 Q1009
METAR ROIG 042300Z 02007KT 9999 FEW010 SCT020 BKN060 23/22 Q1010
METAR ROIG 042200Z AUTO 01007KT 9999 NSC 22/21 Q1010
METAR ROIG 042100Z AUTO 01006KT 350V050 9999 FEW007 SCT011 BKN027 22/21 Q1009
METAR ROIG 042000Z AUTO 03007KT 6000 RA NSC 22/21 Q1008
METAR ROIG 041900Z AUTO 02007KT 9999 SCT013 BKN020 BKN037 23/21 Q1008
METAR ROIG 041800Z AUTO 02007KT 9999 BKN012 BKN016 OVC025 23/21 Q1008
METAR ROIG 041700Z AUTO 05010KT 9999 -RA BKN011 OVC160 23/21 Q1008
METAR ROIG 041600Z AUTO 05008KT 9999 SCT013 BKN015 OVC080 //////TCU 23/21 Q1009
METAR ROIG 041500Z AUTO 05010KT 9999 OVC015 23/21 Q1009
METAR ROIG 041400Z AUTO 04014KT 9999 OVC013 23/20 Q1009
METAR ROIG 041300Z AUTO 05011KT 9999 SCT013 BKN016 OVC036 23/21 Q1009
METAR ROTM 042356Z AUTO 11005KT 10SM OVC003 19/19 A2988 RMK AO2 RAB02E16 SLP104 P0000 60110 T01940189 10194 20183 55000 $
SPECI ROTM 042335Z AUTO 35005KT 10SM BKN003 OVC065 19/19 A2987 RMK AO2 RAB02E16 P0000 T01940189 $
METAR ROTM 042256Z AUTO 12010KT 6SM BR FEW003 OVC060 19/18 A2985 RMK AO2 RAE39 TSE05 SLP094 P0012 T01890183 $
SPECI ROTM 042221Z AUTO 09006KT 10SM -RA FEW008 SCT030 OVC070 19/18 A2985 RMK AO2 TSE05 P0012 T01890183 $
SPECI ROTM 042208Z AUTO 09005KT 2SM +RA BR FEW007 OVC026 19/18 A2985 RMK AO2 TSE05 P0012 T01890178 $
SPECI ROTM 042203Z AUTO 06009KT 1 1/2SM +TSRA BR FEW005 FEW019 OVC024 18/18 A2985 RMK AO2 PRESFR P0008 T01830178 $
METAR ROTM 042156Z AUTO 12007KT 3/4SM +TSRA BR SCT005 OVC016 18/18 A2987 RMK AO2 TSB45 SLP102 P0072 T01830178 $
SPECI ROTM 042152Z AUTO 12005KT 3/4SM +TSRA BR SCT005 BKN016 OVC020 18/18 A2988 RMK AO2 TSB45 P0059 $
SPECI ROTM 042145Z AUTO 13003KT 2SM +TSRA BR BKN005 BKN014 OVC019 18/18 A2988 RMK AO2 TSB45 PRESRR P0027 T01830178 $
SPECI ROTM 042106Z AUTO 01006KT 5SM RA BR BKN005 BKN030 OVC044 19/18 A2985 RMK AO2 P0002 T01890178 $
METAR ROTM 042056Z AUTO 04004KT 6SM -RA BR SCT006 BKN030 OVC047 19/18 A2984 RMK AO2 RAB1958 SLP093 P0011 60026 T01890178 55003 $
METAR ROTM 041856Z AUTO 07006KT 3SM RA BR FEW022 BKN070 OVC090 19/18 A2983 RMK AO2 RAE11B31 SLP087 P0010 T01890178 $
METAR ROTM 041756Z AUTO 35005KT 6SM -RA BR FEW032 SCT041 OVC080 19/18 A2985 RMK AO2 RAB01 SLP095 P0001 60001 T01890178 10200 20189 50002 $
METAR ROTM 041656Z AUTO 09003KT 9SM BKN038 OVC090 20/18 A2985 RMK AO2 SLP095 T02000178 $
METAR ROTM 041556Z AUTO 00000KT 9SM OVC037 20/18 A2987 RMK AO2 SLP099 T02000178 $
METAR ROTM 041356Z AUTO 06004KT 10SM BKN050 BKN110 19/18 A2986 RMK AO2 SLP096 T01940178 $
METAR ROTM 041256Z AUTO 00000KT 10SM FEW055 FEW100 FEW120 19/18 A2985 RMK AO2 RAE04 SLP094 P0000 T01940178 $
METAR RJTY 042355Z 00000KT 10SM CLR 19/15 A2974 RMK AO2A SLP073 70023 T01890146 10189 20121 52014 $
METAR RJTY 042155Z 00000KT 10SM OVC016 14/12 A2971 RMK AO2A SLP064 T01390124 $
SPECI RJTY 041945Z 35004KT 8SM OVC015 13/12 A2967 RMK AO2A SLP050 $
METAR RJTY 041855Z 00000KT 6SM BR OVC012 13/12 A2966 RMK AO2A SLP047 T01320119 $
SPECI RJTY 041815Z 35004KT 8SM OVC011 13/12 A2966 RMK AO2A CIG 010 RWY36 SLP047 $
METAR RJTY 041755Z 35004KT 8SM OVC009 13/12 A2967 RMK AO2A SLP050 60015 T01320119 10152 20130 55022 $
SPECI RJTY 041557Z 36005KT 9SM OVC002 14/13 A2969 RMK AO2A DZE57 SLP058 $
METAR RJTY 041555Z 36004KT 9SM -DZ OVC002 14/13 A2969 RMK AO2A RAE54DZB54 SLP058 P0005 T01440134 $
SPECI RJTY 041535Z 32004KT 10SM -RA BKN003 BKN012 OVC034 14/13 A2970 RMK AO2A CIG 003V038 SLP061 $
SPECI RJTY 041530Z 30004KT 10SM -RA SCT004 BKN012 OVC038 14/13 A2970 RMK AO2A CIG 010V038 BKN V SCT SLP061 $
SPECI RJTY 041525Z 29004KT 10SM -RA FEW005 SCT012 OVC038 14/13 A2971 RMK AO2A SLP064 $
SPECI RJTY 041448Z 00000KT 10SM -RA OVC011 14/13 A2973 RMK AO2A RAB1355E42RAB48 SLP071 $
SPECI RJTY 041442Z 00000KT 10SM OVC010 14/13 A2973 RMK AO2A RAE42 SLP071 $
SPECI RJTY 041410Z 00000KT 10SM -RA OVC013 14/13 A2975 RMK AO2A CIG 011 RWY36 SLP077 $
METAR RJTY 041355Z 13004KT 6SM -RA OVC015 14/13 A2975 RMK AO2A SLP078 P0004 T01420129 $
SPECI RJTY 041320Z 17007KT 10SM -RA BKN022 BKN030 14/13 A2978 RMK AO2A CIG 022V031 BKN022 V SCT SLP088 $
SPECI RJTY 041315Z 17008KT 10SM -RA SCT022 BKN031 14/13 A2979 RMK AO2A SLP091 $
SPECI RJTY 041310Z 15010KT 10SM -RA BKN025 BKN033 14/13 A2978 RMK AO2A CIG 025V045 SLP088 $
METAR RJTY 041255Z 16013KT 6SM -RA SCT045 14/13 A2978 RMK AO2A RAE1155RAB24 SLP088 P0004 T01440126 $
SPECI RJTY 041224Z 16015KT 10SM -RA FEW035 15/12 A2981 RMK AO2A RAB24 SLP098 $
METAR RJNK 042300Z 28005KT 250V310 9999 FEW005 SCT008 BKN020 13/13 Q1009
METAR RJNK 042200Z VRB02KT 9999 FEW005 SCT008 BKN020 12/12 Q1009
METAR RJNK 042100Z 27006KT 9999 -SHRA SCT005 SCT008 BKN010 12/12 Q1009
METAR RJNK 042000Z 23008KT 6000 -SHRA FEW003 BKN005 BKN008 12/12 Q1009
METAR RJNK 041900Z 24016KT 4000 -SHRA BR FEW005 BKN008 BKN010 12/12 Q1007
METAR RJNK 041800Z 24015KT 4000 -SHRA BR FEW005 BKN008 BKN010 14/13 Q1006
METAR RJNK 041700Z COR 22016KT 9999 -SHRA FEW008 SCT010 BKN015 15/13 Q1005
METAR RJNK 041600Z 23016G29KT 9999 -SHRA SCT008 BKN015 BKN030 15/14 Q1003
METAR RJNK 041500Z 25021KT 6000 -SHRA FEW003 BKN005 BKN008 15/15 Q1002
METAR RJNK 041400Z 20015KT 9999 -SHRA SCT030 BKN050 BKN080 20/14 Q0999
METAR RJNK 041300Z 20017KT 9999 -SHRA SCT030 BKN050 BKN080 21/13 Q0998
