METAR RJCC 070230Z 17014KT 3000 -SHRA BR FEW001 BKN002 BKN003 07/07 Q0997
METAR RJCC 070200Z 16012KT 2000 -SHRA BR FEW001 BKN002 BKN003 07/06 Q0996
METAR RJCC 070130Z 17012KT 9999 -SHRA FEW002 BKN003 BKN004 06/06 Q0998
METAR RJCC 070100Z 19010KT 5000 -SHRA BR FEW002 SCT003 BKN004 06/06 Q0999
METAR RJCC 070030Z 21014KT 5000 -SHRA BR FEW001 SCT003 BKN004 07/06 Q0999
METAR RJCC 070000Z 19015KT 160V230 8000 -SHRA FEW002 SCT003 BKN004 08/07 Q0998
METAR ROAH 070230Z 34016KT 9999 -RA FEW012 SCT015 BKN060 24/22 Q1010
METAR ROAH 070200Z 33012KT 9999 -RA FEW012 BKN033 BKN060 24/21 Q1010
METAR ROAH 070130Z 32012KT 9999 -RA FEW012 SCT034 BKN060 24/21 Q1010
METAR ROAH 070100Z 32011KT 9999 -RA FEW012 SCT090 BKN140 24/22 Q1010
METAR ROAH 070030Z 31010KT 9999 FEW012 SCT017 BKN060 24/22 Q1010
METAR ROAH 070000Z 26013KT 9999 -SHRA FEW005 SCT010 FEW020CB BKN045 23/23 Q1009
METAR RJFF 070230Z 33021KT 9999 FEW035 16/06 Q1013 NOSIG
METAR RJFF 070200Z 36016KT 320V040 9999 FEW035 SCT050 16/04 Q1012 NOSIG
METAR RJFF 070130Z 35016KT 9999 FEW040 SCT050 16/05 Q1012 NOSIG
METAR RJFF 070100Z 34015KT 9999 FEW035 SCT045 16/06 Q1012 NOSIG
METAR RJFF 070030Z 35015KT 9999 FEW035 BKN040 15/07 Q1012 NOSIG
METAR RJFF 070000Z 35012KT 320V030 9999 FEW040 16/07 Q1012 NOSIG
METAR RJBB 070230Z 33021KT 9999 -SHRA FEW008 SCT020 BKN040 12/09 Q1008 NOSIG
METAR RJBB 070200Z 32013G26KT 290V010 9999 -SHRA FEW015 BKN040 BKN070 13/10 Q1008 BECMG 36015KT
METAR RJBB 070130Z 33015KT 9999 -SHRA FEW015 SCT045 BKN070 14/11 Q1006 NOSIG
METAR RJBB 070100Z 27013KT 9999 -SHRA FEW010 SCT045 BKN070 15/12 Q1006 BECMG TL0200 33013KT
METAR RJBB 070030Z 26014KT 9999 -SHRA FEW008 SCT010 BKN040 15/13 Q1006 BECMG 33010KT
METAR RJBB 070000Z 23006KT 9999 -SHRA FEW015 SCT045 BKN100 17/15 Q1006 BECMG 33010KT
METAR RJGG 070230Z 33017KT 9999 FEW008 BKN025 BKN120 14/09 Q1004 NOSIG
METAR RJGG 070200Z 32021KT 9999 FEW015 SCT035 BKN130 14/09 Q1005 NOSIG
METAR RJGG 070130Z 32016KT 9999 FEW010 SCT035 BKN120 14/11 Q1005 NOSIG
METAR RJGG 070100Z 28002KT 6000 -RA FEW006 SCT020 BKN040 16/15 Q1005 BECMG 31014KT
METAR RJGG 070030Z 26006KT 4500 -RA BR FEW006 SCT009 BKN040 15/14 Q1005 BECMG TL0200 9999 NSW
METAR RJGG 070000Z 21004KT 4500 -RA BR FEW020 BKN050 OVC090 15/14 Q1005 BECMG FM0100 31018KT 9999 NSW
METAR RJTT 070230Z 19018KT 9999 -RA FEW015 OVC100 17/15 Q1001 TEMPO FEW008 BKN012
METAR RJTT 070200Z 20019KT 9999 -RA FEW015 OVC100 17/15 Q1001 TEMPO FEW008 BKN012
METAR RJTT 070130Z 18015KT 9999 -RA FEW010 OVC110 18/15 Q1002 TEMPO FEW008 BKN012
METAR RJTT 070100Z 18016KT 9999 -RA FEW007 BKN013 OVC110 18/15 Q1002 NOSIG
METAR RJTT 070030Z 18017KT 9999 -RA FEW020 OVC110 18/15 Q1002 NOSIG
METAR RJTT 070000Z 19017KT 9999 FEW020 OVC120 18/14 Q1003 NOSIG
METAR RJAA 070230Z 19007KT 160V230 9999 -RA FEW012 SCT020 OVC100 17/15 Q1001 TEMPO 4000 -RA BR
METAR RJAA 070200Z 20007KT 9999 -RA FEW012 OVC110 17/15 Q1002 TEMPO 4000 -RA BR
METAR RJAA 070130Z 19009KT 160V230 9999 -RA FEW020 SCT090 OVC110 17/15 Q1002 TEMPO 4000 -RA BR
METAR RJAA 070100Z 18011KT 9999 -RA FEW030 OVC110 17/14 Q1002 TEMPO FM0130 4000 -RA BR
METAR RJAA 070030Z 19010KT 9999 -RA FEW030 OVC110 18/14 Q1002 TEMPO 4000 -RA BR
METAR RJAA 070000Z 19010KT 160V230 9999 -SHRA FEW030 BKN100 18/14 Q1003 TEMPO 4000 -RA BR
METAR RJSN 070200Z 25019KT 9999 -SHRA FEW020 BKN040 10/05 Q1007
METAR RJSN 070100Z 22015KT 9999 FEW020 BKN030 12/07 Q1006
METAR RJSN 070000Z 20010KT 9999 FEW020 BKN035 13/08 Q1005
METAR RJOO 070200Z 35018KT 9999 -SHRA SCT020 BKN035 12/07 Q1007
METAR RJOO 070100Z 34016KT 9999 -SHRA FEW020 BKN030 13/08 Q1007
METAR RJOO 070000Z 31017G27KT 240V340 9999 -SHRA FEW015 SCT025 BKN080 15/11 Q1007
METAR RJNK 070200Z 27012KT 250V310 9999 -SHRA FEW015 BKN020 BKN030 09/05 Q1011
METAR RJNK 070100Z 28008KT 240V340 9999 -SHRA FEW008 BKN015 BKN020 09/08 Q1011
METAR RJNK 070000Z 23006KT 9999 -SHRA SCT015 BKN020 OVC030 09/08 Q1010
METAR RJNW 070200Z 27005KT 230V320 9999 -SHRA FEW010 SCT020 BKN060 06/04 Q1009
METAR RJNW 070100Z 27011KT 9999 -SHRA FEW007 SCT050 BKN060 06/04 Q1009
METAR RJNW 070000Z 27011G21KT 230V310 7000 -SHRA FEW000 SCT015 BKN060 06/05 Q1008
METAR RJNT 070200Z 27005KT 9999 -SHRA FEW010 SCT015 BKN025 09/07 Q1010
METAR RJNT 070100Z 28010KT 250V310 6000 -SHRA FEW010 SCT015 BKN020 09/07 Q1010
METAR RJNT 070000Z 27006KT 240V350 9999 -SHRA FEW010 SCT020 BKN030 10/06 Q1009
METAR RJNS 070200Z 21011KT 9999 -RA FEW000 SCT010 OVC100 16/15 Q1004
METAR RJNS 070100Z 25008KT 200V270 5000 -RA BR FEW000 BKN006 BKN014 16/15 Q1005
METAR RJNS 070000Z 24006KT 190V270 9999 -RA FEW000 SCT008 BKN050 17/15 Q1005
METAR RJOC 070200Z 32014KT 9999 FEW030 13/02 Q1012
METAR RJOC 070100Z 32014KT 9999 FEW020 14/02 Q1012
METAR RJOC 070000Z VRB02KT 9999 FEW010 SCT060 BKN070 12/06 Q1011
METAR RJOB 070200Z 01006KT 310V040 9999 FEW008 BKN045 10/07 Q1009
METAR RJOB 070100Z 34006KT 280V050 9999 -SHRA FEW002 SCT015 BKN045 09/07 Q1009
METAR RJOB 070000Z 34007G17KT 280V040 9999 -SHRA FEW007 SCT020 BKN035 10/07 Q1009
METAR RJOA 070200Z 33014G24KT 300V020 9999 FEW020 14/M02 Q1009
METAR RJOA 070100Z 34008KT 300V030 9999 FEW015 BKN/// 11/01 Q1010
METAR RJOA 070000Z 33013G23KT 9999 VCSH FEW010 SCT040 BKN070 09/06 Q1009
METAR RJOR 070200Z 28006KT 260V320 9999 FEW020 SCT040 BKN070 13/05 Q1011
METAR RJOR 070100Z 17004KT 130V210 9999 FEW020 SCT040 BKN060 10/04 Q1011
METAR RJOR 070000Z 22005KT 150V280 9999 -SHRA FEW010 SCT030 BKN045 09/03 Q1011
METAR RJOM 070200Z 02014KT 9999 FEW015 SCT025 BKN040 14/09 Q1009
METAR RJOM 070100Z 36013KT 9999 FEW012 SCT040 BKN070 13/10 Q1010
METAR RJOM 070000Z 02009KT 9999 -SHRA FEW007 SCT020 BKN035 13/10 Q1010
METAR RJOK 070200Z 01012KT 9999 FEW010 BKN040 BKN/// 17/12 Q1006
METAR RJOK 070100Z 31004KT 9999 -SHRA FEW003 SCT020 BKN035 15/14 Q1007
METAR RJOK 070000Z 32005KT 9999 -SHRA FEW003 BKN020 BKN060 15/14 Q1007
METAR RJOH 070200Z 33012KT 300V360 9999 FEW030 SCT230 14/01 Q1012
METAR RJOH 070100Z 34010KT 9999 FEW030 SCT070 BKN230 14/05 Q1012
METAR RJOH 070000Z 23005KT 9999 FEW030 BKN060 BKN080 11/08 Q1011
METAR RJOS 070200Z 33014KT 300V360 9999 FEW015 BKN025 BKN050 13/08 Q1008
METAR RJOS 070100Z 32014G25KT 9999 -SHRA FEW012 BKN020 BKN050 15/10 Q1008
METAR RJOS 070000Z 33005KT 290V360 9999 FEW030 SCT050 BKN100 17/13 Q1006
METAR RJOI 070156Z 04014KT 10SM FEW025 SCT055 SCT210 17/02 A2983 RMK AO2 SLP101 T01670017 $
METAR RJOI 070056Z 03016KT 10SM FEW020 FEW070 SCT210 16/03 A2984 RMK AO2 SLP103 T01560033 $
METAR RJSA 070200Z 22012KT 9999 -SHRA FEW010 BKN035 BKN045 07/06 Q1000
METAR RJSA 070100Z 23009KT 8000 -SHRA FEW003 BKN008 BKN020 07/07 Q1000
METAR RJSA 070000Z 28008KT 7000 SHRA FEW003 BKN007 BKN015 07/07 Q1000
METAR RJOY 070200Z 35014KT 9999 -RA FEW008 SCT020 BKN050 13/08 Q1007
METAR RJOY 070100Z 36013KT 9999 -RA FEW020 SCT040 BKN070 15/10 Q1006
METAR RJOY 070000Z 16003KT 110V210 9999 -RA FEW020 SCT045 BKN070 18/12 Q1006
METAR RJOW 070200Z 36007KT 300V070 9999 FEW030 13/00 Q1013
METAR RJOW 070100Z 01010G20KT 340V040 9999 FEW025 14/M01 Q1012
METAR RJOW 070000Z 02009G19KT 340V080 9999 FEW025 BKN050 14/M00 Q1012
METAR RJOT 070200Z 29005KT 270V340 9999 -SHRA FEW003 SCT015 BKN030 10/09 Q1010
METAR RJOT 070100Z 30004KT 260V350 9999 -SHRA FEW003 SCT015 BKN030 10/10 Q1010
METAR RJOT 070000Z 34006KT 290V020 9999 -RA FEW005 SCT015 BKN035 12/12 Q1009
METAR RJSC 070200Z 01018KT 9999 FEW025 SCT040 BKN050 11/08 Q1003
METAR RJSC 070100Z 35009KT 290V020 9999 FEW060 SCT140 BKN/// 13/10 Q1002
METAR RJSC 070000Z 02004KT 9999 FEW070 BKN/// 12/09 Q1002
METAR RJSM 070200Z 28008G20KT 210V360 9999 SCT015 BKN030 BKN160 12/09 Q0999
METAR RJSM 070100Z 27011G21KT 9999 FEW015 SCT030 BKN160 15/10 Q0998
METAR RJSM 070000Z COR VRB02KT 9999 FEW030 SCT080 BKN230 12/11 Q0999
METAR RJSK 070200Z 27017KT 8000 -SHRA FEW005 SCT008 BKN015 08/06 Q1004
METAR RJSK 070100Z 27010KT 240V300 9999 -SHRA FEW004 SCT030 BKN045 09/07 Q1003
METAR RJSK 070000Z 27011KT 9999 -SHRA FEW004 SCT006 BKN030 10/08 Q1003
METAR RJSI 070200Z 30010KT 250V330 9999 FEW008 SCT020 BKN025 11/06 Q1001
METAR RJSI 070100Z 14003KT 100V190 9999 FEW004 SCT110 BKN120 12/11 Q1001
METAR RJSI 070000Z VRB02KT 7000 FEW004 SCT005 BKN006 12/11 Q1001
METAR RJSF 070200Z 32007KT 9999 -SHRA FEW010 BKN020 BKN100 14/10 Q1002
METAR RJSF 070100Z 25004KT 210V290 8000 FEW008 BKN012 BKN100 14/12 Q1002
METAR RJSF 070000Z VRB02KT 9999 FEW015 BKN110 14/12 Q1003
SPECI RODN 070205Z 30007KT 9SM -RA BKN024 BKN042 23/21 A2985 RMK AO2A CIG 024V042 SLP109 FZRANO $
SPECI RODN 070133Z 30006KT 10SM -RA SCT039 BKN047 OVC200 24/21 A2984 RMK AO2A RAB33 SLP106 FZRANO $
SPECI RODN 070045Z 29006KT 10SM SCT015 BKN046 OVC180 24/22 A2984 RMK AO2A SLP106 FZRANO $
METAR RJTO 070200Z 22017KT 9999 -RA FEW009 SCT012 BKN020 17/16 Q1004
METAR RJTO 070100Z 22016KT 9999 -RA FEW009 SCT015 BKN050 17/16 Q1004
METAR RJTO 070000Z 22015KT 9999 -RA FEW009 BKN015 OVC100 16/15 Q1005
METAR ROIG 070200Z 19007KT 140V220 9999 VCSH FEW011 SCT023 BKN050 27/24 Q1010
METAR ROIG 070100Z 20007KT 9999 FEW011 BKN050 27/24 Q1010
METAR ROIG 070000Z 19008KT 9999 FEW016 SCT045 BKN050 26/24 Q1009
METAR RJSR 070200Z 24009G24KT 200V300 4500 SHRA BR FEW005 SCT010 BKN020 08/07 Q1003
METAR RJSR 070100Z 20008KT 6000 -SHRA FEW005 SCT010 BKN020 08/07 Q1002
METAR RJSR 070000Z 25007KT 220V290 4000 SHRA BR FEW002 SCT005 BKN015 09/08 Q1002
METAR RJSS 070200Z 34007KT 7000 FEW005 SCT010 BKN110 14/11 Q1000
METAR RJSS 070100Z VRB01KT 2000 R27/1400VP2000N BCFG BR FEW001 BKN002 12/11 Q1000
METAR RJSS 070000Z 00000KT 5000 BR FEW001 SCT004 BKN006 11/10 Q1001
METAR RJSY 070200Z 27020G31KT 5000 -SHRA BR FEW005 SCT010 BKN020 08/06 Q1006
METAR RJSY 070100Z 25015KT 9999 -SHRA FEW005 SCT030 BKN040 10/07 Q1005
METAR RJSY 070000Z 28012KT 9999 -SHRA FEW008 BKN020 11/09 Q1005
SPECI ROTM 070229Z 33008KT 10SM SCT009 BKN015 OVC055 22/21 A2986 RMK AO2 T02220206 $
SPECI ROTM 070211Z 32008KT 10SM BKN011 BKN031 OVC055 22/21 A2986 RMK AO2 T02220206 $
SPECI ROTM 070111Z 31007KT 10SM FEW011 BKN036 OVC085 22/21 A2985 RMK AO2 T02220206 $
METAR ROTM 070056Z 30008KT 10SM SCT012 BKN016 BKN037 23/21 A2985 RMK AO2 RAE42 SLP094 T1 CANC T2 CANC WND WRNG CANC XWND ADV CANC P0000 T02280211 $
SPECI ROTM 070009Z 30009KT 9SM VCTS RA FEW005 SCT008 OVC012 22/22 A2984 RMK AO2 P0000 T02220217 $
METAR RJTF 070200Z 18007KT 150V220 9999 -SHRA FEW030 BKN080 BKN120 19/14 Q1001
METAR RJTF 070100Z 19006KT 150V220 8000 FEW030 SCT120 BKN150 20/14 Q1002
METAR RJTF 070000Z 20003KT 140V240 7000 FEW030 BKN150 BKN170 18/14 Q1003
METAR ROYN 070200Z AUTO 02020KT 9999 BKN011 OVC016 25/23 Q1010
METAR ROYN 070100Z AUTO 01021KT 9999 OVC011 24/23 Q1010
METAR ROYN 070000Z AUTO 03008KT 7000 BKN016 BKN038 26/25 Q1009
METAR RORS 070200Z 01010KT 320V030 8000 -SHRA FEW007 SCT009 BKN030 24/21 Q1011
METAR RORS 070100Z 19005KT 160V230 9999 SCT010 SCT025 BKN045 26/24 Q1010
METAR RORS 070000Z AUTO 19005KT 160V220 9999 FEW047 SCT050 26/24 Q1010
METAR ROMY 070200Z 22009KT 9999 VCSH SCT007 BKN010 BKN020 FEW025TCU 27/24 Q1010
METAR ROMY 070100Z 21011KT 9999 SCT007 BKN010 BKN023 26/24 Q1011
METAR ROMY 070000Z 21010KT 9999 SCT005 BKN007 BKN048 25/24 Q1010
METAR RJTI 070200Z 20010KT 170V230 8000 -RA FEW015 OVC100 17/15 Q1001
METAR RJTI 070100Z 18012KT 150V230 9000 FEW015 OVC130 17/15 Q1002
METAR RJTI 070000Z 19013KT 160V220 9999 FEW050 OVC130 17/14 Q1003
METAR RJTY 070155Z COR AUTO 00000KT 3SM FEW005 BKN120 BKN200 17/13 A2960 RMK AO2A SLP026 T01710130 $ COR 0224
METAR RJSN 070500Z 27013KT 9999 -SHRA FEW015 BKN025 BKN030 07/04 Q1008
METAR RJSN 070400Z 26012KT 9999 -SHRA FEW015 BKN030 08/05 Q1008
METAR RJSN 070300Z 26017KT 9999 -SHRA FEW015 BKN035 09/04 Q1008
METAR RJNK 070500Z VRB02KT 9999 -SHRA FEW020 BKN030 BKN050 10/05 Q1011
METAR RJNK 070400Z VRB02KT 9999 -SHRA FEW020 BKN030 BKN050 09/05 Q1010
METAR RJNK 070300Z 17007KT 9999 -SHRA FEW020 BKN030 BKN050 09/06 Q1010
METAR RJCC 070500Z 18011KT 9999 -SHRA FEW005 BKN070 BKN100 07/06 Q0996
METAR RJCC 070430Z 17008KT 110V200 9999 -SHRA FEW003 SCT005 BKN015 07/06 Q0996
METAR RJCC 070400Z 18010KT 7000 -SHRA FEW003 BKN005 BKN025 07/07 Q0996
METAR RJCC 070330Z 18011KT 7000 -SHRA FEW002 BKN003 BKN004 07/07 Q0996
METAR RJCC 070300Z 17013KT 3500 -SHRA BR FEW001 BKN002 BKN003 07/07 Q0996
METAR RJAA 070500Z 19008KT 150V230 9999 VCSH FEW009 SCT015 OVC120 17/15 Q0998 NOSIG
METAR RJAA 070430Z 20008KT 9999 -RA FEW009 BKN013 OVC100 17/15 Q0999 TEMPO TL0600 FEW005 BKN008
METAR RJAA 070400Z 18011KT 9999 -RA FEW012 BKN015 OVC100 17/15 Q1000 TEMPO FEW008 BKN012
METAR RJAA 070330Z 18010G20KT 150V220 8000 -RA FEW012 SCT015 OVC090 17/15 Q1001 TEMPO FEW008 BKN012
METAR RJAA 070300Z 20007KT 170V240 9999 -RA SCT012 OVC090 17/15 Q1001 TEMPO FEW008 BKN012
METAR RJTT 070500Z 21017KT 9999 FEW015 SCT080 OVC120 17/14 Q0998 NOSIG
METAR RJTT 070430Z 21019KT 9999 -RA FEW010 SCT050 OVC100 17/15 Q0998 NOSIG
METAR RJTT 070400Z 20021KT 9999 -RA FEW010 OVC100 17/15 Q0999 NOSIG
METAR RJTT 070330Z 20018G28KT 9999 -RA FEW010 OVC100 17/16 Q1000 NOSIG
METAR RJTT 070300Z 20017KT 9999 -RA FEW015 OVC100 17/15 Q1000 TEMPO FEW008 BKN012
METAR RJGG 070500Z 33029KT 9999 VCSH FEW015 BKN040 11/06 Q1006 TEMPO 32034G44KT
METAR RJGG 070430Z 33027KT 9999 VCSH FEW015 SCT030 BKN040 12/06 Q1005 TEMPO FM0600 32034G44KT
METAR RJGG 070400Z 33026KT 9999 FEW015 BKN035 13/08 Q1005 NOSIG
METAR RJGG 070330Z 33022KT 9999 FEW008 BKN035 13/08 Q1005 NOSIG
METAR RJGG 070300Z 33018KT 9999 FEW008 SCT025 BKN035 14/09 Q1005 NOSIG
METAR ROAH 070500Z 02017KT 9999 -RA FEW005 BKN025 BKN040 21/20 Q1011
METAR ROAH 070430Z 34013KT 4000 R36R/P2000N R36L/P2000N SHRA BR FEW007 BKN010 BKN050 22/21 Q1010
METAR ROAH 070400Z 34011KT 9999 -RA FEW006 SCT015 BKN045 22/21 Q1010
METAR ROAH 070330Z 35011KT 9999 -RA FEW007 SCT010 FEW020TCU BKN050 22/21 Q1010
METAR ROAH 070300Z 34017KT 6000 -RA FEW010 BKN025 BKN045 22/21 Q1011
METAR RJOO 070500Z 36011KT 9999 VCSH FEW020 BKN040 12/03 Q1009
METAR RJOO 070400Z 36012KT 9999 VCSH FEW020 BKN040 11/00 Q1009
METAR RJOO 070300Z 33022KT 9999 -SHRA FEW020 BKN035 11/05 Q1008
METAR RJFF 070500Z 35015KT 310V030 9999 FEW045 15/03 Q1013 NOSIG
METAR RJFF 070430Z 34019KT 9999 FEW045 15/04 Q1013 NOSIG
METAR RJFF 070400Z 34018KT 9999 FEW045 15/04 Q1013 NOSIG
METAR RJFF 070330Z 35019KT 9999 FEW040 16/04 Q1013 NOSIG
METAR RJFF 070300Z 34019KT 320V020 9999 FEW040 16/05 Q1013 NOSIG
METAR RJBB 070500Z 06013KT 9999 -SHRA FEW008 SCT020 BKN040 11/07 Q1009 NOSIG
METAR RJBB 070430Z 07014KT 9999 -SHRA FEW008 SCT020 BKN040 10/06 Q1009 NOSIG
METAR RJBB 070400Z 05011KT 9999 -SHRA FEW008 SCT020 BKN040 10/08 Q1009 NOSIG
METAR RJBB 070330Z 35014KT 9999 -SHRA FEW008 SCT020 BKN040 12/08 Q1009 NOSIG
METAR RJBB 070300Z 34017KT 9999 -SHRA FEW008 SCT020 BKN040 12/09 Q1008 NOSIG
METAR RJNT 070500Z VRB04KT 9999 -SHRA FEW003 SCT030 BKN050 08/05 Q1011
METAR RJNT 070400Z 19006KT 8000 -SHRA FEW003 SCT020 BKN050 08/05 Q1010
METAR RJNT 070300Z 26008KT 6000 -SHRA FEW010 SCT020 BKN025 07/06 Q1010
METAR RJNS 070500Z 25012KT 9999 FEW000 SCT012 OVC170 17/15 Q1001
METAR RJNS 070400Z 24010KT 9999 VCSH FEW000 SCT009 BKN015 16/15 Q1001
METAR RJNS 070300Z 24009KT 9999 -RA FEW000 SCT010 OVC090 16/15 Q1003
METAR RJNW 070500Z 29006KT 210V350 9999 FEW020 SCT030 BKN040 07/02 Q1009
METAR RJNW 070400Z 28006KT 220V330 9999 -SHRA FEW015 SCT030 BKN080 06/03 Q1009
METAR RJNW 070300Z VRB06KT 9999 -SHRA FEW010 SCT020 BKN030 07/05 Q1009
METAR RJOA 070500Z 32014KT 290V030 9999 FEW030 14/M05 Q1009
METAR RJOA 070400Z 35013KT 300V030 9999 FEW020 14/M07 Q1009
METAR RJOA 070300Z 32016G27KT 300V020 9999 FEW020 14/M04 Q1009
METAR RJOB 070500Z 33009KT 260V040 9999 FEW025 15/M01 Q1009
METAR RJOB 070400Z 36008KT 290V070 9999 FEW025 SCT060 16/02 Q1008
METAR RJOB 070300Z 28007KT 210V350 9999 FEW015 BKN060 15/01 Q1008
METAR RJOC 070500Z 31017KT 9999 FEW030 13/02 Q1013
METAR RJOC 070400Z 35018KT 9999 FEW030 13/01 Q1013
METAR RJOC 070300Z 34015KT 9999 FEW030 13/01 Q1012
METAR RJOR 070500Z 31017KT 9999 FEW020 SCT030 14/02 Q1012
METAR RJOR 070400Z 31020KT 9999 FEW020 SCT030 14/01 Q1011
METAR RJOR 070300Z 31016KT 9999 FEW020 SCT030 14/03 Q1011
METAR RJOS 070500Z 35018KT 9999 FEW015 BKN060 BKN/// 15/03 Q1008
METAR RJOS 070400Z 36014KT 9999 FEW015 SCT025 BKN045 14/05 Q1008
METAR RJOS 070300Z 33015KT 9999 SCT015 BKN025 13/07 Q1008
METAR RJOH 070500Z 34016G26KT 9999 FEW030 BKN050 13/M02 Q1013
METAR RJOH 070400Z 33013G23KT 300V360 9999 FEW030 BKN050 14/M01 Q1013
METAR RJOH 070300Z 33015KT 9999 FEW030 SCT050 14/M00 Q1012
METAR RJOK 070500Z 36019KT 9999 FEW025 BKN/// 18/05 Q1006
METAR RJOK 070400Z 36017KT 9999 FEW025 BKN/// 19/09 Q1005
METAR RJOK 070300Z 35018KT 9999 FEW020 BKN/// 20/11 Q1006
METAR RJOM 070500Z 36009KT 9999 FEW025 17/M00 Q1009
METAR RJOM 070400Z 01008KT 9999 FEW025 SCT/// 16/01 Q1009
METAR RJOM 070300Z 36009KT 9999 FEW015 SCT045 16/08 Q1010
METAR RJOI 070456Z 35013G21KT 10SM FEW035 FEW210 18/M04 A2981 RMK AO2 SLP095 T01831039 $
METAR RJOI 070356Z 06012KT 10SM FEW035 FEW210 18/00 A2981 RMK AO2 SLP095 T01780000 $
METAR RJOI 070256Z 08010KT 10SM FEW030 SCT055 SCT210 17/01 A2982 RMK AO2 SLP099 T01670011 50001 $
METAR RJOW 070500Z VRB07KT 9999 FEW030 BKN050 12/01 Q1013
METAR RJOW 070400Z 34006KT 290V030 9999 FEW035 BKN050 12/01 Q1013
METAR RJOW 070300Z 01007KT 300V060 9999 FEW030 13/01 Q1013
METAR RJOY 070500Z 02009KT 340V050 9999 VCSH FEW008 BKN045 11/04 Q1009
METAR RJOY 070400Z 02011G21KT 9999 -RA FEW005 BKN025 BKN040 10/06 Q1009
METAR RJOY 070300Z 35011KT 330V030 8000 -RA FEW008 SCT025 BKN035 11/08 Q1008
METAR RJSC 070500Z VRB08KT 9999 FEW020 SCT035 BKN050 07/04 Q1004
METAR RJSC 070400Z 03016G31KT 360V070 9999 FEW020 SCT030 BKN050 08/04 Q1004
METAR RJSC 070300Z 36013KT 9999 -SHRA FEW025 SCT035 BKN045 10/07 Q1003
METAR RJSA 070500Z 21018KT 9999 -SHRA FEW010 BKN015 05/03 Q1000
METAR RJSA 070400Z 24018KT 9999 -SHRA FEW010 BKN025 BKN035 05/03 Q1000
METAR RJSA 070300Z 24026G37KT 9999 -SHRA FEW005 SCT010 BKN025 06/04 Q1000
METAR RJOT 070500Z 23005KT 200V260 9999 FEW025 BKN060 13/02 Q1009
METAR RJOT 070400Z 22005KT 180V240 9999 FEW020 SCT035 BKN050 12/04 Q1009
METAR RJOT 070300Z 24005KT 9999 FEW001 SCT020 BKN035 10/08 Q1010
METAR RJSF 070500Z 34010KT 9999 FEW015 BKN035 09/04 Q1002
METAR RJSF 070400Z 33015KT 9999 FEW015 SCT020 BKN035 10/05 Q1002
METAR RJSF 070300Z 35016KT 9999 FEW015 SCT020 BKN035 12/09 Q1001
METAR RJSK 070500Z 23006KT 180V270 9999 -SHRA FEW005 BKN015 BKN020 06/04 Q1005
METAR RJSK 070400Z 25010KT 200V270 8000 -SHRA FEW007 SCT010 BKN015 05/03 Q1005
METAR RJSK 070300Z 27011KT 220V300 9000 -SHRA FEW007 SCT015 BKN020 06/04 Q1005
METAR RJSM 070500Z 25021G31KT 9999 FEW015 BKN030 BKN080 10/01 Q1000
METAR RJSM 070400Z 25017G28KT 9999 FEW015 BKN025 BKN080 10/03 Q1000
METAR RJSM 070300Z 25018KT 220V280 9999 FEW015 SCT025 BKN080 12/05 Q0999
METAR RJSI 070500Z VRB03KT 9999 VCSH FEW030 SCT040 BKN070 09/01 Q1002
METAR RJSI 070400Z 30010KT 260V340 9999 -SHRA FEW020 BKN030 BKN040 10/03 Q1002
METAR RJSI 070300Z 27006KT 220V300 9999 VCSH FEW025 SCT035 BKN050 11/05 Q1001
METAR RJTO 070500Z 22015KT 9999 -RA FEW008 SCT030 OVC100 16/15 Q1000
METAR RJTO 070400Z 22017KT 9999 -RA FEW008 BKN040 OVC100 16/15 Q1001
METAR RJTO 070300Z 22018KT 9999 -RA FEW006 SCT008 BKN050 16/16 Q1002
METAR RJSY 070500Z 26020KT 5000 -SHRA BR FEW003 SCT020 BKN030 06/04 Q1007
METAR RJSY 070400Z 26019KT 5000 -SHRA BR FEW003 SCT010 BKN020 06/05 Q1007
METAR RJSY 070300Z 26018KT 5000 -SHRA BR FEW003 SCT010 BKN020 07/05 Q1007
METAR RJSS 070500Z 30021KT 9999 FEW020 SCT060 BKN100 12/03 Q1000
METAR RJSS 070400Z 32012KT 270V350 9999 -SHRA FEW020 SCT040 BKN100 15/08 Q0999
METAR RJSS 070300Z 35004KT 9000 FEW020 SCT040 BKN100 15/11 Q0999
METAR ROIG 070500Z 02012KT 9999 -SHRA FEW005 SCT009 BKN012 24/23 Q1010
METAR ROIG 070400Z 02014KT 9999 -SHRA SCT005 BKN009 BKN043 23/22 Q1010
METAR ROIG 070300Z 17008KT 9999 -SHRA FEW009 SCT011 BKN042 27/24 Q1010
METAR RJSR 070500Z 24012KT 5000 -SHRA BR FEW003 SCT010 BKN015 05/04 Q1003
METAR RJSR 070400Z 21010KT 180V250 4000 -SHRA BR FEW003 SCT009 BKN015 05/04 Q1003
METAR RJSR 070300Z 25013KT 210V280 5000 -SHRA BR FEW005 SCT010 BKN020 05/04 Q1004
METAR RODN 070456Z 02006KT 4SM -DZ BR FEW006 BKN026 OVC034 21/20 A2986 RMK AO2A RAE0355DZB0355E0356DZB0359E12RAB12E51DZB51 SLP113 P0004 T02120200 FZRANO $
METAR RODN 070355Z COR 35011KT 4SM -DZ BR SCT007 OVC032 23/21 A2985 RMK AO2A RAE22DZB22E32RAB32E51DZB51 SLP109 P0007 T02260212 FZRANO $ COR 0402
SPECI RODN 070310Z 30005KT 8SM -RA BR SCT005 OVC032 22/21 A2986 RMK AO2A SLP113 FZRANO $
SPECI RODN 070303Z 28008KT 4SM -RA BR SCT005 OVC032 22/21 A2986 RMK SLP113 FZRANO $
METAR RODN 070255Z 31006KT 2SM +RA BR SCT008 BKN015 OVC065 22/20 A2986 RMK AO2A DZE0155RAB0155E14DZB14E41RAB41 SLP113 P0004 60004 T02200204 52010 FZRANO $
SPECI ROTM 070508Z 03007KT 10SM FEW008 OVC026 21/19 A2987 RMK AO2 RAE03 P0000 T02060194 $
METAR ROTM 070456Z 02007KT 10SM -RA BKN024 OVC034 21/19 A2987 RMK AO2 WSHFT 0414 SLP102 P0005 T02060194 $
SPECI ROTM 070428Z 02010KT 3SM RA BR SCT007 BKN015 OVC035 21/19 A2987 RMK AO2 WSHFT 0414 P0004 T02060194 $
SPECI ROTM 070424Z 01012KT 2 1/2SM -RA BR BKN007 OVC015 21/19 A2987 RMK AO2 CIG 005V011 P0003 T02060194 $
SPECI ROTM 070403Z 34007KT 10SM -RA BKN007 OVC012 22/21 A2987 RMK AO2 CIG 005V010 P0000 T02170206 $
METAR ROTM 070356Z 32007KT 5SM -RA BR SCT007 BKN033 OVC044 22/20 A2987 RMK AO2 RAB17 SLP101 P0006 T02170200 $
SPECI ROTM 070327Z 33005KT 5SM -RA BR SCT006 BKN033 OVC055 21/20 A2986 RMK AO2 RAB17 P0006 T02110200 $
SPECI ROTM 070318Z 33007KT 5SM -RA BR SCT006 BKN018 OVC045 21/20 A2986 RMK AO2 RAB17 P0005 T02110200 $
SPECI ROTM 070314Z 33008KT 2SM BR SCT006 BKN010 OVC034 21/20 A2987 RMK AO2 P0004 T02110200 $
SPECI ROTM 070312Z 33008KT 1 3/4SM BR BKN008 BKN017 OVC034 21/20 A2987 RMK AO2 VIS 1 1/4V3 P0004 T02110200 $
METAR ROTM 070256Z 33011KT 10SM BKN009 BKN018 OVC050 22/20 A2987 RMK AO2 SLP100 60001 T02170200 51006 $
METAR ROTM 070156Z 31006KT 10SM FEW011 BKN033 OVC055 23/21 A2986 RMK AO2 SLP098 P0001 T02280211
METAR RJTI 070500Z 20009KT 160V250 9999 FEW015 BKN120 17/14 Q0998
METAR RJTI 070400Z 20010KT 160V250 8000 -RA FEW015 OVC100 17/15 Q1000
METAR RJTI 070300Z 19013KT 8000 -RA FEW015 OVC100 16/15 Q1000
METAR ROMY 070500Z 03009KT 9999 VCSH FEW010 BKN022 24/22 Q1010
METAR ROMY 070400Z 02008KT 9999 -SHRA FEW007 BKN010 BKN020 23/22 Q1011
METAR ROMY 070300Z 01007KT 330V040 5000 -SHRA BR FEW007 BKN013 BKN022 23/22 Q1011
METAR RORS 070500Z 03011KT 9999 FEW011 BKN024 24/22 Q1010
METAR RORS 070400Z 02011KT 9999 -SHRA FEW012 BKN020 23/22 Q1011
METAR RORS 070300Z 02009KT 6000 -SHRA SCT010 BKN019 23/22 Q1011
METAR RJTF 070500Z 20009G21KT 160V230 9999 FEW030 SCT130 BKN150 18/12 Q0997
METAR RJTF 070400Z 19010KT 160V220 9999 FEW030 SCT100 BKN120 18/13 Q0999
METAR RJTF 070300Z 18009G20KT 150V210 9999 -SHRA FEW030 SCT080 BKN110 18/14 Q1000
METAR ROYN 070500Z AUTO 03020KT 9999 FEW011 BKN014 OVC024 24/22 Q1010
METAR ROYN 070400Z AUTO 03019KT 9999 SCT011 BKN013 BKN019 25/23 Q1010
METAR ROYN 070300Z AUTO 02019KT 9999 BKN011 OVC014 24/23 Q1010
METAR RJTY 070355Z 27003KT 5SM BR FEW005 BKN120 BKN180 19/13 A2957 RMK AO2A SLP015 T01860132 $
METAR RJTY 070255Z 06005KT 4SM BR FEW010 SCT120 BKN180 17/13 A2958 RMK AO2A SLP019 T01730130 57031 $
METAR RJGG 070700Z 32028KT 9999 FEW020 BKN060 12/05 Q1007 TEMPO 32034G44KT
METAR RJGG 070630Z 32024KT 9999 FEW020 BKN050 12/04 Q1007 TEMPO 32034G44KT BECMG 32034KT
METAR RJGG 070600Z 32029KT 9999 FEW020 BKN050 12/04 Q1006 TEMPO 32034G44KT
METAR RJGG 070530Z 32033KT 9999 FEW015 BKN045 11/05 Q1006 TEMPO 32034G44KT
METAR RJFF 070700Z 35014KT 9999 FEW045 14/M01 Q1013 NOSIG
METAR RJFF 070630Z 34017KT 320V020 9999 FEW045 14/00 Q1013 NOSIG
METAR RJFF 070600Z 34019KT 9999 FEW045 15/02 Q1013 NOSIG
METAR RJFF 070530Z 34017KT 310V010 9999 FEW045 15/03 Q1013 NOSIG
METAR RJOO 070700Z 35016KT 9999 FEW025 SCT040 BKN070 13/00 Q1009
METAR RJOO 070600Z 35015KT 320V030 9999 FEW025 SCT040 BKN060 13/03 Q1009
METAR RJBB 070700Z 04015KT 9999 FEW020 BKN070 13/06 Q1009 NOSIG
METAR RJBB 070630Z 09009KT 9999 FEW010 BKN070 13/05 Q1009 NOSIG
METAR RJBB 070600Z 09010KT 9999 FEW010 BKN070 12/06 Q1009 NOSIG
METAR RJBB 070530Z 05010KT 9999 FEW008 SCT040 BKN080 12/04 Q1009 NOSIG
METAR RJNK 070700Z 32013KT 9999 FEW030 SCT050 BKN100 10/M00 Q1012
METAR RJNK 070600Z 32015KT 9999 -SHRA FEW020 BKN030 BKN050 09/04 Q1011
METAR RJTT 070700Z 20016KT 9999 FEW018 BKN200 BKN/// 19/12 Q0997 BECMG FM0730 TL0830 34020KT
METAR RJTT 070630Z 21018KT 9999 FEW018 BKN200 BKN/// 18/13 Q0997 BECMG FM0730 34020KT
METAR RJTT 070600Z 20018KT 9999 FEW018 BKN170 BKN/// 18/13 Q0997 NOSIG
METAR RJTT 070530Z 21020KT 9999 FEW015 BKN120 BKN150 18/13 Q0997 NOSIG
METAR RJAA 070700Z 24006KT 210V290 9999 FEW030 SCT130 BKN190 17/12 Q0997 BECMG 32008KT TEMPO FM0830 32015G25KT
METAR RJAA 070630Z 22012KT 180V260 9999 FEW020 BKN130 BKN180 17/13 Q0997 BECMG FM0800 32012KT
METAR RJAA 070600Z 22011KT 9999 FEW017 BKN130 BKN150 17/13 Q0997 NOSIG
METAR RJAA 070530Z 20009KT 160V230 9999 -RA FEW010 SCT015 OVC120 17/15 Q0997 NOSIG
METAR RJCC 070700Z 28005KT 230V320 9999 -SHRA FEW010 BKN060 BKN140 08/06 Q0995
METAR RJCC 070630Z 20007KT 170V280 9999 -SHRA FEW010 SCT060 BKN130 07/05 Q0996
METAR RJCC 070600Z 17012KT 9999 -SHRA FEW005 SCT070 BKN110 07/06 Q0995
METAR RJCC 070530Z 16009KT 9999 FEW005 BKN070 07/06 Q0995
METAR ROAH 070700Z 04011KT 9999 -RA FEW010 BKN050 BKN060 22/20 Q1010
METAR ROAH 070630Z 03011KT 9999 -RA FEW010 BKN050 22/20 Q1010
METAR ROAH 070600Z 04011KT 9999 -RA FEW007 SCT010 BKN040 21/20 Q1010
METAR ROAH 070530Z 04011KT 9999 -RA FEW006 SCT035 BKN050 22/21 Q1010
METAR RJSN 070700Z 21006KT 170V250 9999 -SHRA FEW015 SCT035 BKN050 08/03 Q1009
METAR RJSN 070600Z 30011KT 270V330 9999 -SHRA FEW015 SCT025 BKN035 07/04 Q1009
METAR RJNT 070700Z 13005KT 090V190 9999 -SHRA FEW010 SCT020 BKN050 06/05 Q1012
METAR RJNT 070600Z 02008KT 340V050 9999 SHRA FEW003 SCT015 BKN020 06/04 Q1011
METAR RJNS 070700Z 26016KT 9999 FEW020 BKN/// 16/11 Q1000
METAR RJNS 070600Z 25012KT 9999 FEW010 SCT020 BKN/// 18/14 Q1000
METAR RJNW 070700Z 27009KT 240V340 9999 FEW025 SCT040 08/M02 Q1010
METAR RJNW 070600Z 29008G18KT 250V020 9999 FEW020 SCT035 BKN100 07/00 Q1010
METAR RJOC 070700Z 33011KT 300V010 9999 FEW035 12/01 Q1013
METAR RJOC 070600Z 32018KT 290V360 9999 FEW030 13/00 Q1013
METAR RJOB 070700Z 33009G20KT 260V040 9999 FEW025 13/M03 Q1010
METAR RJOB 070600Z 01014G27KT 330V040 9999 FEW025 14/M01 Q1009
METAR RJOA 070700Z 33016KT 300V010 9999 FEW030 12/M03 Q1011
METAR RJOA 070600Z 34014KT 300V030 9999 FEW030 13/M02 Q1010
METAR RJOK 070700Z 36020KT 9999 FEW035 18/M01 Q1007
METAR RJOK 070600Z 36019KT 9999 FEW030 SCT050 18/01 Q1006
METAR RJOH 070700Z 32012KT 280V350 9999 FEW035 BKN050 12/M00 Q1013
METAR RJOH 070600Z 31013G26KT 280V350 9999 FEW035 BKN050 13/M01 Q1013
METAR RJOS 070700Z 35014KT 9999 FEW025 SCT080 14/07 Q1009
METAR RJOS 070600Z 36013KT 9999 FEW020 BKN060 14/04 Q1009
METAR RJOR 070700Z 32014KT 9999 FEW030 SCT040 13/00 Q1012
METAR RJOR 070600Z 32017KT 9999 FEW030 SCT040 12/M01 Q1012
METAR RJOM 070700Z 32007KT 290V360 9999 FEW030 16/06 Q1010
METAR RJOM 070600Z 27008KT 9999 FEW030 16/08 Q1009
METAR RJOI 070656Z 01015G23KT 10SM FEW035 FEW210 15/M02 A2986 RMK AO2 PK WND 34026/0612 SLP112 T01501017 $
METAR RJOI 070556Z 33015G24KT 10SM FEW035 FEW210 17/M01 A2984 RMK AO2 SLP103 T01671011 10183 20144 53004 $
METAR RJSC 070700Z 04008KT 310V090 9999 FEW020 SCT030 BKN070 06/02 Q1006
METAR RJSC 070600Z 01011KT 9999 -SHRA FEW020 SCT030 BKN060 07/03 Q1005
METAR RJOT 070700Z 35009KT 290V030 9999 FEW025 BKN050 14/02 Q1009
METAR RJOT 070600Z 24005KT 200V290 9999 FEW025 BKN080 14/04 Q1009
METAR RJOW 070700Z 36007KT 290V050 9999 FEW030 BKN050 12/01 Q1014
METAR RJOW 070600Z 01007KT 300V070 9999 FEW030 BKN050 12/01 Q1013
METAR RJOY 070700Z 01012KT 9999 FEW025 SCT040 BKN060 13/02 Q1009
METAR RJOY 070600Z 36006KT 9999 FEW015 BKN040 BKN050 12/04 Q1009
METAR RJSA 070700Z 24019KT 8000 -SHRA FEW003 SCT010 BKN015 04/03 Q1001
METAR RJSA 070600Z 24020KT 8000 -SHRA FEW008 BKN012 BKN020 04/03 Q1000
METAR RJSI 070700Z VRB05KT 9999 -SHRA FEW025 BKN040 BKN090 08/01 Q1002
METAR RJSI 070600Z 26006KT 190V300 9999 -SHRA FEW025 BKN040 BKN080 08/01 Q1002
METAR RJSM 070700Z 26016KT 230V290 9999 FEW010 BKN030 BKN100 08/02 Q1000
METAR RJSM 070600Z 26019KT 9999 FEW015 SCT025 BKN080 09/01 Q1000
METAR RJSK 070700Z 27015KT 9999 -SHRA FEW004 SCT020 BKN035 06/03 Q1005
METAR RJSK 070600Z 26010KT 230V290 7000 -SHRA FEW003 SCT008 BKN010 05/04 Q1005
METAR RJSF 070700Z 33018G28KT 9999 -RA FEW015 BKN050 07/01 Q1002
METAR RJSF 070600Z 34012KT 9999 FEW015 BKN040 07/02 Q1002
METAR ROIG 070700Z 03014KT 8000 -SHRA FEW007 SCT009 BKN013 23/22 Q1009
METAR ROIG 070600Z 03014KT 9999 -SHRA FEW007 SCT009 BKN013 24/22 Q1009
METAR RJSY 070700Z 27013KT 9999 -SHRA FEW008 SCT020 BKN030 07/04 Q1007
METAR RJSY 070600Z 25016KT 9999 -SHRA FEW005 SCT035 BKN050 06/04 Q1007
METAR RJSS 070700Z 31021KT 9999 FEW015 BKN060 BKN100 10/00 Q1001
METAR RJSS 070600Z 31022KT 9999 FEW020 BKN060 BKN100 11/02 Q1000
METAR RJSR 070700Z 28012G23KT 9999 -SHRA FEW003 SCT010 BKN020 05/04 Q1003
METAR RJSR 070600Z 23011KT 210V270 8000 -SHRA FEW003 SCT010 BKN020 05/04 Q1003
METAR RJTO 070700Z 22018KT 9999 FEW006 SCT020 BKN180 16/15 Q0999
METAR RJTO 070600Z 22018KT 9999 FEW006 SCT015 BKN150 16/15 Q0999
METAR RODN 070658Z 04008KT 4SM -RA SCT011 BKN018 22/20 A2986 RMK AO2A DZE05DZB10E23DZB54E56RAB56 SLP113 P0000 T02170201 FZRANO $
METAR RODN 070555Z 02009KT 10SM -DZ SCT012 BKN017 OVC030 21/20 A2986 RMK AO2A DZE13RAB13E25DZB25E35DZB44 SLP113 P0001 60016 T02140200 10240 20211 53000 FZRANO $
METAR RORS 070700Z 04015KT 3000 -SHRA BR BKN005 BKN011 23/22 Q1010
METAR RORS 070600Z 04013KT 9999 -SHRA FEW007 SCT010 BKN015 23/21 Q1010
METAR RJTF 070700Z 29007G24KT 230V010 9999 FEW030 BKN040 BKN/// 19/06 Q0998
METAR RJTF 070600Z 22008KT 170V260 9999 FEW030 SCT150 BKN/// 19/11 Q0997
METAR ROMY 070700Z 05010KT 3000 -DZ BR FEW002 BKN008 BKN015 22/22 Q1010
METAR ROMY 070600Z 04008KT 6000 -RA SCT006 BKN012 23/22 Q1010
METAR RJTI 070700Z 25007KT 210V290 9999 FEW030 SCT170 BKN/// 19/12 Q0997
METAR RJTI 070600Z 21012KT 180V250 9999 FEW015 BKN170 18/13 Q0997
METAR ROYN 070700Z AUTO 03019KT 9999 FEW013 OVC017 24/22 Q1010
METAR ROYN 070600Z AUTO 04020KT 9999 BKN011 OVC017 24/22 Q1010
METAR ROTM 070656Z 04009KT 10SM SCT009 BKN030 OVC050 21/19 A2987 RMK AO2 SLP100 T02060194 $
METAR ROTM 070556Z 02006KT 10SM SCT007 BKN026 OVC031 21/19 A2987 RMK AO2 RAE03B12E29 SLP101 P0001 60013 T02060194 10228 20206 50000 $
METAR RJTY 070655Z 02017G23KT 10SM BKN039 BKN050 18/06 A2951 RMK AO2A SLP995 T01760055 $
METAR RJTY 070555Z 21003KT 10SM FEW032 SCT180 BKN200 20/11 A2950 RMK AO2A SLP992 T02010110 10208 20166 58026 $
METAR RJTT 070900Z 33025G36KT 9999 FEW020 BKN040 13/04 Q1001 NOSIG
METAR RJTT 070830Z 33024KT 9999 FEW010 BKN035 13/05 Q1000 TEMPO 34030G40KT
METAR RJTT 070800Z 31018KT 9999 FEW010 BKN035 16/05 Q0999 TEMPO FM0830 33026G36KT
METAR RJTT 070730Z 24012KT 210V280 9999 FEW018 SCT050 BKN/// 19/12 Q0998 BECMG TL0800 34020KT
METAR RJOO 070900Z 35013KT 9999 FEW030 SCT070 11/M02 Q1012
METAR RJOO 070800Z 34021KT 9999 FEW030 BKN070 13/M01 Q1010
METAR RJAA 070900Z 30013KT 9999 VCSH FEW015 BKN030 15/08 Q1000 TEMPO 32015G25KT
METAR RJAA 070830Z 24008KT 210V280 9999 FEW015 BKN035 BKN/// 17/12 Q0998 BECMG 32012KT TEMPO FM0900 32015G25KT
METAR RJAA 070800Z 22009KT 200V260 9999 FEW020 SCT130 BKN/// 17/12 Q0998 BECMG 32012KT TEMPO FM0900 32015G25KT
METAR RJAA 070730Z 22010KT 9999 FEW030 SCT130 BKN190 17/12 Q0998 BECMG 32010KT TEMPO FM0830 32015G25KT
METAR RJCC 070900Z 34013KT 9999 -SHRA FEW008 SCT010 BKN040 06/03 Q0997
METAR RJCC 070830Z 36012KT 9999 -SHRA FEW008 SCT010 BKN040 05/04 Q0997
METAR RJCC 070800Z 36012KT 9999 -SHRA FEW008 SCT020 BKN060 07/04 Q0997
METAR RJCC 070730Z 36012KT 9999 -SHRA FEW009 SCT060 BKN080 07/05 Q0995
METAR RJGG 070900Z 32030KT 9999 FEW020 11/02 Q1009 TEMPO 32034G44KT
METAR RJGG 070830Z 31033KT 9999 FEW010 BKN080 12/04 Q1008 TEMPO 32034G44KT
METAR RJGG 070800Z 32034KT 9999 FEW020 SCT060 BKN080 12/04 Q1007 TEMPO 32034G44KT
METAR RJGG 070730Z 32028G39KT 9999 FEW020 BKN060 12/05 Q1007 NOSIG
METAR RJBB 070900Z 01021KT 9999 FEW020 BKN060 12/03 Q1011 NOSIG
METAR RJBB 070830Z 01020KT 9999 FEW020 BKN060 12/04 Q1011 NOSIG
METAR RJBB 070800Z 01019KT 9999 FEW015 BKN060 12/04 Q1010 NOSIG
METAR RJBB 070730Z 02015KT 9999 FEW015 BKN060 13/05 Q1010 NOSIG
METAR RJNK 070900Z 33009KT 9999 FEW030 SCT050 09/M02 Q1013
METAR RJNK 070800Z 33011KT 9999 SCT030 SCT050 10/M00 Q1012
METAR RJFF 070900Z 35013KT 9999 FEW045 13/M02 Q1015 NOSIG
METAR RJFF 070830Z 35015KT 9999 FEW045 13/M02 Q1014 NOSIG
METAR RJFF 070800Z 34016KT 9999 FEW045 14/M01 Q1014 NOSIG
METAR RJFF 070730Z 34020KT 9999 FEW045 14/00 Q1014 BECMG 01008KT
METAR RJSN 070900Z 30022KT 9999 VCSH FEW015 SCT020 BKN045 07/03 Q1010
METAR RJSN 070800Z 28012KT 9999 -SHRA FEW015 SCT035 BKN050 09/01 Q1009
METAR ROAH 070900Z 04015KT 9999 -RA FEW010 SCT035 BKN060 21/19 Q1011
METAR ROAH 070830Z 03015KT 9999 -RA FEW010 SCT015 BKN035 21/19 Q1011
METAR ROAH 070800Z 03012KT 9999 -RA FEW010 SCT050 OVC120 22/20 Q1011
METAR ROAH 070730Z 04014KT 9999 -RA FEW010 SCT050 BKN060 22/20 Q1010
METAR RJNS 070900Z 26013KT 9999 FEW020 BKN/// 14/05 Q1001
METAR RJNS 070800Z 28020G30KT 9999 FEW020 SCT060 BKN/// 15/08 Q1000
METAR RJNW 070900Z 28005KT 240V340 9999 FEW025 SCT040 06/M02 Q1011
METAR RJNW 070800Z 28006KT 230V360 9999 FEW025 SCT040 07/M01 Q1011
METAR RJNT 070900Z VRB02KT 9999 VCSH FEW005 SCT050 BKN080 08/05 Q1012
METAR RJNT 070800Z VRB02KT 9999 FEW005 SCT030 BKN040 07/05 Q1012
METAR RJOA 070900Z 33010KT 9999 FEW030 09/M04 Q1013
METAR RJOA 070800Z 32013KT 280V360 9999 FEW030 11/M04 Q1012
METAR RJOB 070900Z 33007KT 270V040 9999 FEW025 10/M04 Q1012
METAR RJOB 070800Z 36008KT 300V040 9999 FEW025 11/M03 Q1011
METAR RJOC 070900Z 33013KT 9999 FEW035 11/01 Q1014
METAR RJOC 070800Z 34013KT 310V010 9999 FEW035 11/01 Q1014
METAR RJOK 070900Z 36016G28KT 9999 FEW035 16/M02 Q1009
METAR RJOK 070800Z 01017KT 9999 FEW035 17/M02 Q1008
METAR RJOH 070900Z 31009KT 280V350 9999 FEW035 BKN050 11/M01 Q1014
METAR RJOH 070800Z 32010KT 9999 FEW035 BKN050 12/M01 Q1014
METAR RJOM 070900Z 34018KT 9999 FEW035 14/01 Q1012
METAR RJOM 070800Z 35017KT 9999 FEW030 15/02 Q1011
METAR RJOS 070900Z 36020KT 9999 FEW025 BKN080 13/03 Q1010
METAR RJOS 070800Z 01012KT 9999 FEW025 BKN080 13/04 Q1010
METAR RJOR 070900Z 34016KT 9999 FEW030 BKN040 11/01 Q1013
METAR RJOR 070800Z 31016KT 9999 FEW030 BKN040 11/M00 Q1013
METAR RJOI 070856Z 36012KT 9999 FEW030 13/M02 A2993 RMK AO2A SLP135 T01281022 53031
METAR RJOI 070756Z 34011G21KT 10SM FEW035 FEW210 14/M02 A2990 RMK AO2 SLP123 T01441022 $
METAR RJSA 070900Z 25016KT 6000 -SHRA FEW003 SCT008 BKN015 03/02 Q1002
METAR RJSA 070800Z 26013KT 230V290 8000 -SHRA FEW003 SCT006 BKN010 03/02 Q1002
METAR RJOW 070900Z 36007KT 300V070 9999 FEW030 11/M02 Q1015
METAR RJOW 070800Z 36006KT 280V040 9999 FEW030 12/M01 Q1014
METAR RJOT 070900Z 35010KT 9999 FEW025 SCT050 11/M02 Q1012
METAR RJOT 070800Z 34011KT 310V010 9999 FEW025 SCT060 13/M01 Q1010
METAR RJSC 070900Z 26011KT 9999 FEW020 SCT030 BKN100 06/01 Q1006
METAR RJSC 070800Z 26010KT 9999 FEW020 SCT035 BKN090 07/01 Q1006
METAR RJOY 070900Z 34010KT 310V010 9999 FEW025 SCT070 12/M03 Q1011
METAR RJOY 070800Z 34011KT 310V020 9999 FEW025 SCT040 BKN060 12/M00 Q1010
METAR RJSF 070900Z 33017KT 290V350 9999 -RA FEW010 BKN060 05/M01 Q1004
METAR RJSF 070800Z 33018G31KT 290V350 9999 -RA FEW015 BKN050 06/M00 Q1004
METAR RJSM 070900Z 28025KT 9999 -SHRA FEW015 BKN020 BKN030 05/03 Q1002
METAR RJSM 070800Z 28022KT 9999 FEW010 SCT030 BKN120 08/01 Q1000
METAR RJSK 070900Z 29017KT 9999 FEW015 SCT030 06/00 Q1005
METAR RJSK 070800Z 28013KT 9999 -SHRA FEW005 SCT020 BKN035 05/03 Q1005
METAR RJSI 070900Z 31010G20KT 260V360 9999 -SHRA FEW020 BKN030 BKN040 06/00 Q1004
METAR RJSI 070800Z 30007KT 250V350 9999 -SHRA FEW020 BKN030 BKN040 07/02 Q1003
METAR RJSS 070900Z 30019KT 9999 FEW020 BKN090 09/M01 Q1002
METAR RJSS 070800Z 30023G35KT 9999 FEW015 BKN080 10/M00 Q1001
METAR RJSR 070900Z 25009KT 9999 -SHRA FEW005 BKN020 BKN040 05/03 Q1004
METAR RJSR 070800Z 25010KT 220V290 8000 SHRA FEW003 SCT009 BKN015 04/03 Q1004
METAR RJSY 070900Z 28017KT 9999 VCSH FEW020 SCT030 BKN050 08/02 Q1007
METAR RJSY 070800Z 28016KT 240V340 9999 -SHRA FEW010 SCT025 BKN030 07/03 Q1007
METAR ROIG 070900Z 04014KT 3000 -SHRA BR FEW003 BKN007 BKN010 23/22 Q1010
METAR ROIG 070800Z 04016KT 4000 -SHRA BR FEW005 BKN007 BKN010 23/22 Q1009
METAR RODN 070855Z 04009KT 6SM BR SCT018 BKN025 21/19 A2988 RMK AO2A DZE0756RAB0756E02DZB02E08RAB08E47DZB47E53 SLP119 P0003 60003 T02070190 53009 FZRANO $
SPECI RODN 070746Z 03010KT 10SM -DZ BKN010 OVC033 21/19 A2986 RMK DZB33 SLP113 FZRANO $
SPECI RODN 070729Z 03010KT 10SM SCT020 BKN030 22/20 A2986 RMK AO2A RAE17DZB17E29 SLP113 FZRANO $
METAR RJTO 070800Z 22018KT 9999 FEW008 BKN/// 16/14 Q0999
METAR ROYN 070900Z AUTO 03023KT 8000 BKN012 OVC016 23/22 Q1011
METAR ROYN 070800Z AUTO 05019KT 6000 -RA FEW009 SCT011 BKN017 23/22 Q1010
METAR ROMY 070900Z 06010KT 9999 -RA FEW008 SCT013 BKN020 22/21 Q1011
METAR ROMY 070800Z 04012KT 7000 -RA FEW003 BKN007 BKN012 22/21 Q1010
METAR RORS 070900Z 05011KT 9999 -SHRA SCT014 BKN023 22/21 Q1011
METAR RORS 070800Z 05014KT 8000 -SHRA FEW006 SCT013 BKN021 22/21 Q1010
METAR ROTM 070856Z 04009KT 10SM OVC032 20/18 A2990 RMK AO2 RAB12E45 SLP110 P0002 60002 T02000183 53009 $
SPECI ROTM 070839Z 04009KT 10SM -RA FEW011 SCT017 OVC030 20/18 A2989 RMK AO2 RAB12 P0002 T02000183 $
METAR ROTM 070756Z 02007KT 10SM FEW009 BKN030 OVC055 21/19 A2988 RMK AO2 SLP103 T02060189 $
METAR RJTY 070855Z 02020KT 10SM OVC044 12/05 A2958 RMK AO2A PK WND 01026/27 SLP020 T01230052 52027 $
METAR RJTY 070755Z 01019KT 10SM BKN038 OVC042 14/04 A2955 RMK AO2A SLP010 T01400040 $
METAR RJTF 070800Z 35017G27KT 9999 FEW025 BKN040 13/04 Q1000
METAR RJTT 071030Z 35027KT 9999 FEW020 BKN045 12/03 Q1002 TEMPO 35030G40KT
METAR RJTT 071000Z 35027KT 9999 FEW020 BKN040 12/03 Q1002 TEMPO 35030G40KT
METAR RJTT 070930Z 34027KT 9999 FEW020 BKN040 12/04 Q1001 TEMPO 34030G40KT
METAR RJBB 071030Z 01019KT 9999 FEW025 11/02 Q1013 NOSIG
METAR RJBB 071000Z 01018KT 9999 FEW025 12/03 Q1012 NOSIG
METAR RJBB 070930Z 01020KT 9999 FEW025 12/03 Q1012 NOSIG
METAR RJAA 071030Z 35017KT 9999 -SHRA FEW020 BKN040 10/05 Q1003 NOSIG
METAR RJAA 071000Z 34015KT 9999 -SHRA FEW015 BKN035 12/06 Q1002 NOSIG
METAR RJAA 070930Z 36018KT 9999 -SHRA FEW015 BKN030 13/06 Q1001 TEMPO 32016G26KT
METAR ROAH 071030Z 04011KT 9999 -RA FEW010 SCT040 BKN140 21/18 Q1012
METAR ROAH 071000Z 04012KT 9999 -RA FEW010 BKN040 BKN140 21/19 Q1012
METAR ROAH 070930Z 04012KT 9999 -RA FEW010 BKN035 BKN070 21/19 Q1012
METAR RJGG 071030Z 32028KT 9999 FEW020 11/01 Q1010 TEMPO 32034G44KT
METAR RJGG 071000Z 32029G39KT 9999 FEW020 11/01 Q1010 NOSIG
METAR RJGG 070930Z 31031KT 9999 FEW010 11/02 Q1009 TEMPO 32034G44KT
METAR RJFF 071030Z 36009KT 340V040 CAVOK 11/M03 Q1016 BECMG 09004KT
METAR RJFF 071000Z 36009KT 340V060 9999 FEW040 11/M03 Q1015 NOSIG
METAR RJFF 070930Z 35011KT 9999 FEW045 12/M03 Q1015 BECMG 05004KT
METAR RJCC 071030Z 32013KT 9999 FEW010 SCT030 BKN060 04/01 Q0999
METAR RJCC 071000Z 33010KT 9999 -SHRA FEW006 SCT010 BKN030 04/02 Q0999
METAR RJCC 070930Z 36011KT 9999 -SHRA FEW006 SCT008 BKN010 04/02 Q0998
METAR RJSN 071000Z 28021KT 9999 FEW020 SCT040 BKN060 07/02 Q1010
METAR RJOO 071000Z 33014KT 9999 FEW030 10/M02 Q1013
METAR RJNK 071000Z 32011KT 9999 FEW030 SCT050 09/M02 Q1013
METAR RJNT 071000Z 23007KT 190V270 9999 -SHRA FEW005 SCT020 BKN050 06/02 Q1013
METAR RJNW 071000Z 27003KT 9999 -SHRA FEW020 SCT040 BKN060 05/00 Q1012
METAR RJNS 071000Z 28017G28KT 9999 FEW020 SCT060 12/04 Q1002
METAR RJOA 071000Z 32009KT 280V350 CAVOK 08/M06 Q1013
METAR RJOB 071000Z 33006KT 250V060 9999 FEW030 08/M04 Q1013
METAR RJOC 071000Z 33010KT 9999 FEW040 10/01 Q1015
METAR RJOI 071056Z 34010KT 10SM FEW030 11/M05 A2999 RMK AO2 SLP157 T01061050 $
METAR RJOI 070956Z 35013KT 10SM FEW030 12/M03 A2996 RMK AO2 SLP145 T01171033 $
METAR RJOH 071000Z 33009KT 290V360 9999 FEW035 BKN050 10/00 Q1015
METAR RJOM 071000Z 35016KT 9999 FEW035 13/01 Q1013
METAR RJOK 071000Z 33016KT 9999 FEW035 14/M01 Q1010
METAR RJOR 071000Z 34018KT 9999 FEW030 SCT050 10/00 Q1014
METAR RJOS 071000Z 36021G31KT 9999 FEW025 12/M01 Q1011
METAR RJSA 071000Z 25011KT 9999 FEW005 SCT020 BKN050 03/02 Q1003
METAR RJOY 071000Z 34013KT 300V020 9999 FEW025 11/M03 Q1012
METAR RJSC 071000Z 28009KT 9999 FEW025 SCT050 BKN070 06/01 Q1007
METAR RJOW 071000Z 03005KT 320V090 9999 FEW030 10/M02 Q1015
METAR RJOT 071000Z 35009KT 9999 FEW030 10/M02 Q1013
METAR RJSM 071000Z 27017KT 9999 -SHRA FEW015 SCT030 05/03 Q1002
METAR RJSF 071000Z 33020G34KT 9999 -RA FEW010 BKN050 05/M02 Q1004
METAR RJSI 071000Z 30012G25KT 260V330 9999 FEW020 SCT040 BKN140 06/M01 Q1004
METAR RJSK 071000Z 29017KT 9999 FEW015 BKN030 BKN040 06/01 Q1006
METAR RJSY 071000Z 25015KT 9999 -SHRA FEW015 SCT035 BKN050 05/03 Q1008
METAR RJSR 071000Z 26013KT 9999 VCSH FEW005 SCT030 BKN050 04/02 Q1005
METAR RJSS 071000Z 30024G35KT 9999 FEW020 BKN100 09/M01 Q1003
METAR ROIG 071000Z 04016KT 6000 -SHRA FEW005 SCT009 BKN012 22/21 Q1010
SPECI RODN 070910Z 04008KT 10SM -DZ BKN044 BKN070 21/19 A2990 RMK AO2A DZB10 PRESRR SLP126 FZRANO $
METAR ROTM 071056Z 04009KT 10SM BKN100 19/16 A2994 RMK AO2 SLP127 T01940161 $
METAR ROTM 070956Z 04009KT 10SM FEW038 SCT090 BKN110 20/18 A2991 RMK RAB27E49 SLP115 P0000 T02000183
METAR ROMY 071000Z 05011KT 7000 -RA FEW004 BKN020 22/21 Q1011
METAR RORS 071000Z 04016KT 5000 -SHRA BR SCT005 BKN007 BKN010 22/21 Q1011
METAR ROYN 071000Z AUTO 03025KT 8000 BKN011 OVC015 23/21 Q1012
METAR RJTT 071300Z 34031KT 9999 FEW050 SCT070 11/M00 Q1005 TEMPO 35034G44KT
METAR RJTT 071230Z 34032G42KT 9999 FEW020 SCT050 11/00 Q1005 NOSIG
METAR RJTT 071200Z 35028KT 9999 FEW020 BKN050 12/01 Q1004 TEMPO 35034G44KT
METAR RJTT 071130Z 35027KT 9999 FEW020 BKN050 12/02 Q1004 TEMPO 35030G40KT
METAR RJTT 071100Z 35026KT 9999 FEW020 BKN045 12/03 Q1003 TEMPO 34030G40KT
METAR RJCC 071300Z VRB02KT 9999 FEW010 SCT050 BKN080 03/01 Q1001
METAR RJCC 071230Z 29003KT 220V360 9999 -SHRA FEW010 BKN050 04/01 Q1000
METAR RJCC 071200Z 05003KT 9999 -SHRA FEW010 BKN050 04/01 Q1001
METAR RJCC 071130Z 02006KT 9999 -SHRA FEW010 BKN050 04/01 Q1001
METAR RJCC 071100Z 02005KT 340V050 9999 FEW010 BKN060 04/01 Q1000
METAR RJGG 071300Z 33019KT 9999 FEW020 09/01 Q1012 NOSIG
METAR RJGG 071230Z 34020KT 9999 FEW020 10/03 Q1012 BECMG 32034KT TEMPO 32034G44KT
METAR RJGG 071200Z 34023KT 9999 FEW020 10/01 Q1011 BECMG 32034KT TEMPO 32034G44KT
METAR RJGG 071130Z 33023KT 9999 FEW010 10/01 Q1011 BECMG 32034KT TEMPO 32034G44KT
METAR RJGG 071100Z 32029KT 9999 FEW020 10/02 Q1011 TEMPO 32034G44KT
METAR ROAH 071300Z 04012KT 9999 VCSH FEW020 BKN060 BKN110 21/15 Q1014
METAR ROAH 071230Z 05012KT 9999 -RA FEW020 BKN060 21/15 Q1014
METAR ROAH 071200Z 04013KT 9999 VCSH FEW020 BKN060 21/16 Q1014
METAR ROAH 071130Z 03015KT 9999 FEW020 BKN060 21/16 Q1013
METAR ROAH 071100Z 03013KT 9999 FEW010 BKN060 21/18 Q1013
METAR RJSN 071300Z AUTO 27020KT 9999 FEW080 07/01 Q1012
METAR RJSN 071200Z 28021KT 9999 FEW020 BKN040 BKN050 08/01 Q1012
METAR RJSN 071100Z 27017KT 9999 FEW020 BKN060 08/M00 Q1011
METAR RJBB 071300Z 35015KT 9999 FEW025 10/02 Q1015 NOSIG
METAR RJBB 071230Z 36018KT 9999 FEW025 10/01 Q1014 NOSIG
METAR RJBB 071200Z 36017KT 9999 FEW025 11/01 Q1014 NOSIG
METAR RJBB 071130Z 36021KT 9999 FEW025 11/02 Q1014 NOSIG
METAR RJBB 071100Z 36019KT 9999 FEW025 11/02 Q1013 NOSIG
METAR RJOO 071300Z AUTO 31004KT 9999 NSC 08/M02 Q1014
METAR RJOO 071200Z AUTO 32011KT 9999 NCD 09/M02 Q1014
METAR RJOO 071100Z 34014KT 9999 FEW030 09/M02 Q1013
METAR RJAA 071300Z 04006KT 360V060 9999 FEW020 BKN070 09/05 Q1007 NOSIG
METAR RJAA 071230Z 03006KT 9999 FEW020 BKN060 09/05 Q1005 NOSIG
METAR RJAA 071200Z 02008KT 9999 FEW013 BKN060 09/05 Q1005 NOSIG
METAR RJAA 071130Z 36013KT 9999 FEW020 BKN050 09/05 Q1004 NOSIG
METAR RJAA 071100Z 01015KT 9999 FEW020 BKN050 09/06 Q1004 NOSIG
METAR RJNK 071300Z 36008KT 340V080 9999 FEW030 BKN050 09/01 Q1014
METAR RJNK 071200Z 34004KT 310V020 9999 FEW030 SCT050 08/M01 Q1014
METAR RJNK 071100Z 34009KT 9999 FEW030 SCT050 09/M01 Q1014
METAR RJFF 071300Z VRB02KT CAVOK 08/00 Q1018 NOSIG
METAR RJFF 071230Z 07003KT 050V110 CAVOK 09/00 Q1017 NOSIG
METAR RJFF 071200Z 01003KT 310V100 CAVOK 10/M00 Q1017 NOSIG
METAR RJFF 071130Z 02004KT 330V110 CAVOK 10/M01 Q1017 NOSIG
METAR RJFF 071100Z 04005KT 010V070 CAVOK 11/M02 Q1016 BECMG 09004KT
METAR RJNW 071300Z AUTO 00000KT 9999 FEW037 SCT050 04/01 Q1013
METAR RJNW 071200Z AUTO VRB01KT 9999 FEW032 SCT070 04/00 Q1013
METAR RJNW 071100Z AUTO VRB01KT 9999 NSC 04/M00 Q1013
METAR RJNT 071300Z AUTO 21002KT 9999 NCD 04/03 Q1015
METAR RJNT 071200Z VRB01KT 9999 FEW020 SCT070 05/03 Q1015
METAR RJNT 071100Z VRB02KT 9999 FEW020 06/03 Q1014
METAR RJNS 071300Z AUTO 25019KT 9999 NCD 09/M01 Q1004
METAR RJNS 071200Z 26020KT 9999 FEW020 09/M01 Q1003
METAR RJNS 071100Z 27016KT 9999 FEW020 11/M01 Q1002
METAR RJOC 071300Z AUTO 16006KT 9999 NCD 06/02 Q1017
METAR RJOC 071200Z AUTO 24005KT 9999 NCD 07/02 Q1016
METAR RJOC 071100Z 34009KT 9999 FEW040 09/02 Q1016
METAR RJOA 071300Z 32005KT CAVOK 06/M02 Q1016
METAR RJOA 071200Z 34004KT CAVOK 07/M03 Q1015
METAR RJOA 071100Z 31006KT CAVOK 07/M04 Q1015
METAR RJOB 071200Z 28003KT 9999 FEW030 07/M02 Q1015
METAR RJOB 071100Z 30003KT 260V010 9999 FEW030 08/M02 Q1014
METAR RJOR 071300Z AUTO 34014KT 9999 FEW042 BKN050 10/01 Q1016
METAR RJOR 071200Z 32016KT 9999 FEW030 BKN050 10/M00 Q1015
METAR RJOR 071100Z 34018KT 9999 FEW030 SCT050 10/M01 Q1015
METAR RJOH 071300Z 31003KT 290V360 9999 FEW050 09/M00 Q1017
METAR RJOH 071200Z 32005KT 280V360 9999 FEW050 09/M00 Q1016
METAR RJOH 071100Z 31005KT 290V350 9999 SCT050 10/M03 Q1016
METAR RJOK 071300Z AUTO 36011KT 9999 NCD 11/M03 Q1014
METAR RJOK 071200Z AUTO 36012KT 9999 NCD 11/M00 Q1013
METAR RJOK 071100Z 34012KT 9999 FEW035 12/M01 Q1012
METAR RJOM 071300Z AUTO 01015KT 9999 NCD 11/M01 Q1017
METAR RJOM 071200Z 02012KT 9999 FEW035 12/M01 Q1015
METAR RJOM 071100Z 35016KT 9999 FEW035 12/M02 Q1014
METAR RJOS 071300Z 33013KT 9999 FEW030 11/M02 Q1015
METAR RJOS 071200Z 33019KT 9999 FEW030 11/M02 Q1014
METAR RJOS 071100Z 35015KT 9999 FEW030 11/M01 Q1013
METAR RJOI 071256Z 34006KT 10SM FEW025 09/M02 A3004 RMK AO2 SLP173 T00891022 $
METAR RJOI 071156Z 35008KT 10SM FEW025 10/M03 A3003 RMK AO2 SLP167 70002 T01001028 10167 20100 53033 $
METAR RJSA 071300Z AUTO 24016KT 9999 FEW042 OVC050 03/M00 Q1004
METAR RJSA 071200Z 24012KT 9999 -SHRASN FEW010 SCT030 BKN045 03/00 Q1005
METAR RJSA 071100Z 25016KT 9999 -SHRA FEW010 SCT030 BKN045 03/00 Q1004
METAR RJOT 071300Z AUTO 27006KT 9999 NCD 06/M02 Q1016
METAR RJOT 071200Z 34007KT 9999 FEW030 08/M02 Q1015
METAR RJOT 071100Z 33005KT 280V360 9999 FEW030 09/M03 Q1014
METAR RJSF 071300Z AUTO 32014KT 280V350 9999 FEW033 SCT039 BKN040 04/M02 Q1006
METAR RJSF 071200Z AUTO 33016KT 9999 NSC 05/M03 Q1006
METAR RJSF 071100Z 33018G29KT 280V350 9999 FEW015 BKN070 05/M03 Q1005
METAR RJSM 071300Z 28017KT 9999 FEW015 BKN050 05/M01 Q1003
METAR RJSM 071200Z 27018G30KT 9999 FEW015 SCT030 BKN050 05/00 Q1003
METAR RJSM 071100Z 28011KT 9999 FEW015 SCT030 04/02 Q1003
METAR RJSK 071200Z 30016KT 9999 FEW020CB BKN030 BKN035 06/01 Q1007
METAR RJSK 071100Z 30014KT 9999 FEW020 SCT030 BKN035 05/00 Q1007
METAR RJSS 071300Z AUTO 31013G25KT 260V360 9999 FEW050 BKN130 07/M03 Q1006
METAR RJSS 071200Z 28024KT 9999 FEW030 SCT050 08/M01 Q1004
METAR RJSS 071100Z 29020KT 9999 FEW030 SCT050 08/M01 Q1004
METAR ROIG 071300Z AUTO 04017KT 9999 FEW008 BKN010 BKN013 22/22 Q1013
METAR ROIG 071200Z AUTO 04016KT 9999 FEW004 BKN007 BKN009 22/21 Q1012
METAR ROIG 071100Z 03017KT 6000 -SHRA FEW005 SCT010 BKN015 22/21 Q1012
METAR RODN 071255Z 04006KT 10SM BKN065 19/16 A2997 RMK AO2A SLP150 T01880156 FZRANO $
METAR RODN 071155Z 04006KT 10SM BKN065 OVC110 19/16 A2995 RMK AO2A SLP143 60003 70115 T01910156 10219 20190 52023 FZRANO $
METAR RODN 071055Z 02012KT 10SM SCT065 BKN150 20/16 A2993 RMK AO2A SLP137 T02000160 FZRANO $
METAR RJSY 071200Z 28019G29KT 9999 FEW020 SCT035 BKN045 07/01 Q1009
METAR RJSY 071100Z 30013KT 270V330 9999 -SHRA FEW020 SCT035 BKN045 06/03 Q1009
METAR ROMY 071300Z AUTO 05016KT 9999 -RA FEW005 SCT010 BKN021 21/20 Q1013
METAR ROMY 071200Z AUTO 05016KT 9999 -RA FEW003 SCT009 BKN010 22/21 Q1012
METAR ROMY 071100Z 04016KT 4000 -RA BR FEW005 BKN007 BKN013 21/21 Q1012
METAR RORS 071300Z AUTO 06017KT 9999 -RA FEW009 BKN050 OVC060 22/20 Q1013
METAR RORS 071200Z AUTO 04016KT 9999 OVC015 22/20 Q1013
METAR RORS 071100Z AUTO 05017KT 9999 -RA FEW011 OVC017 22/20 Q1012
METAR ROYN 071300Z AUTO 04021KT 8000 BKN013 BKN019 OVC024 23/21 Q1014
METAR ROYN 071200Z AUTO 04023KT 8000 FEW015 SCT018 OVC021 23/21 Q1013
METAR ROYN 071100Z AUTO 04023KT 9999 SCT014 OVC017 23/21 Q1012
METAR ROTM 071256Z 05009KT 10SM OVC055 19/14 A2998 RMK AO2 SLP139 LAST T01890144 $
METAR ROTM 071156Z 04009KT 10SM OVC055 19/15 A2996 RMK AO2 SLP133 60002 70056 T01890150 10211 20189 53021 $
METAR RJTY 071255Z 36021G28KT 10SM FEW047 BKN065 11/M06 A2973 RMK AO2A PK WND 36031/38 SLP071 T01131057 $
METAR RJTY 071155Z 36019G28KT 10SM OVC041 12/M02 A2968 RMK AO2A PK WND 34029/49 SLP054 T01181024 10202 20118 52035 $
METAR RJTY 071055Z 36014G25KT 10SM OVC044 12/M00 A2964 RMK AO2A PK WND 36027/36 SLP040 T01201005 $
METAR RJOO 071500Z AUTO 33005KT 9999 NCD 07/00 Q1016
METAR RJOO 071400Z AUTO 31006KT 9999 NSC 08/M01 Q1015
METAR RJGG 071500Z AUTO 32024KT 9999 NCD 10/01 Q1013 NOSIG
METAR RJGG 071430Z AUTO 32023KT 9999 NCD 10/02 Q1013 NOSIG
METAR RJGG 071400Z AUTO 32020KT 9999 NCD 09/01 Q1012 NOSIG
METAR RJGG 071330Z 32021KT 9999 FEW020 09/01 Q1012 NOSIG
METAR RJCC 071500Z 34008KT 9999 FEW010 BKN110 02/00 Q1001
METAR RJCC 071430Z 35008KT 9999 FEW010 BKN100 01/00 Q1001
METAR RJCC 071400Z 01005KT 9999 FEW010 BKN080 01/M01 Q1001
METAR RJCC 071330Z 28004KT 230V330 9999 -SHRA FEW010 SCT050 BKN080 03/01 Q1001
METAR RJFF 071500Z AUTO 09003KT 9999 NCD 07/01 Q1018 NOSIG
METAR RJFF 071430Z AUTO VRB02KT 9999 NCD 08/01 Q1018 NOSIG
METAR RJFF 071400Z AUTO 10003KT 9999 NCD 08/M00 Q1018 NOSIG
METAR RJFF 071330Z 00000KT CAVOK 08/00 Q1018 NOSIG
METAR RJSN 071500Z AUTO 29019KT 9999 SCT036 SCT049 BKN050 08/01 Q1012
METAR RJSN 071400Z AUTO 26015KT 9999 FEW029 SCT034 BKN044 08/02 Q1012
METAR RJAA 071500Z AUTO VRB05KT 9999 NSC 09/02 Q1009 BECMG 32008KT
METAR RJAA 071430Z AUTO 03005KT 360V060 9999 NSC 08/04 Q1009 NOSIG
METAR RJAA 071400Z AUTO 02004KT 350V060 9999 NSC 08/04 Q1008 NOSIG
METAR RJAA 071330Z 02003KT 340V050 9999 FEW020 BKN070 09/05 Q1007 NOSIG
METAR RJNK 071500Z 35010KT 9999 FEW050 SCT080 09/M02 Q1016
METAR RJNK 071400Z 35012KT 9999 FEW050 09/M02 Q1015
METAR RJTT 071500Z 33026KT 9999 FEW060 09/M03 Q1009 TEMPO 34030G40KT
METAR RJTT 071430Z 33029G41KT 9999 BKN060 10/M03 Q1008 NOSIG
METAR RJTT 071400Z 33028G41KT 9999 -RA BKN050 09/M01 Q1007 NOSIG
METAR RJTT 071330Z 33030G46KT 9999 SCT050 BKN070 11/M03 Q1006 NOSIG
METAR ROAH 071500Z AUTO 04010KT 9999 NSC 20/14 Q1015
METAR ROAH 071430Z AUTO 04010KT 9999 NSC 20/15 Q1015
METAR ROAH 071400Z AUTO 04012KT 9999 NSC 20/15 Q1015
METAR ROAH 071330Z 04012KT 9999 FEW025 SCT060 BKN120 21/15 Q1014
METAR RJBB 071500Z AUTO 34017KT 9999 NSC 10/02 Q1016 NOSIG
METAR RJBB 071430Z AUTO 34017KT 9999 NCD 10/02 Q1016 NOSIG
METAR RJBB 071400Z AUTO 34019KT 9999 NCD 10/02 Q1015 NOSIG
METAR RJBB 071330Z 34017KT 9999 FEW025 11/02 Q1015 NOSIG
METAR RJNT 071500Z AUTO VRB01KT 9999 FEW047 SCT060 BKN070 05/03 Q1016
METAR RJNT 071400Z AUTO 21003KT 170V240 9999 FEW050 04/03 Q1015
METAR RJNS 071500Z AUTO 26011KT 9999 NCD 08/M03 Q1007
METAR RJNS 071400Z AUTO 27015KT 9999 NCD 08/M02 Q1005
METAR RJNW 071500Z AUTO VRB02KT 9999 NSC 04/M01 Q1014
METAR RJNW 071400Z AUTO 27003KT 220V320 9999 FEW046 05/M02 Q1014
METAR RJOA 071500Z AUTO VRB02KT 9999 NCD 06/M02 Q1016
METAR RJOA 071400Z AUTO 32008KT 9999 NCD 06/M02 Q1016
METAR RJOC 071500Z AUTO 19007KT 9999 NCD 05/01 Q1018
METAR RJOC 071400Z AUTO 16009KT 9999 NCD 06/02 Q1017
METAR RJOK 071500Z AUTO 01010KT 340V050 9999 NCD 10/M05 Q1015
METAR RJOK 071400Z AUTO 36009KT 9999 NCD 10/M03 Q1015
METAR RJOH 071500Z 19004KT 9999 FEW050 05/05 Q1018
METAR RJOH 071400Z VRB01KT 9999 FEW050 07/M00 Q1017
METAR RJOS 071500Z 33015KT 9999 FEW030 10/M02 Q1016
METAR RJOS 071400Z 33015G25KT 9999 FEW030 10/M02 Q1015
METAR RJOR 071500Z AUTO 34013KT 9999 SCT046 10/M01 Q1017
METAR RJOR 071400Z AUTO 34014KT 9999 FEW048 10/M01 Q1016
METAR RJOM 071500Z AUTO 06004KT 9999 NCD 10/M01 Q1017
METAR RJOM 071400Z AUTO 07005KT 040V100 9999 NCD 10/M01 Q1017
METAR RJOI 071456Z 31005KT 10SM FEW025 07/M01 A3007 RMK AO2 SLP181 T00671006 401830067 51013 $
METAR RJOT 071500Z AUTO 25007KT 9999 NCD 05/M01 Q1017
METAR RJOT 071400Z AUTO 25005KT 9999 NCD 05/M01 Q1016
METAR RJSA 071500Z AUTO 26012KT 3900 BR BKN002 OVC005 01/00 Q1005
METAR RJSA 071400Z AUTO 24017KT 9999 FEW049 OVC060 03/M01 Q1003
METAR RJSF 071500Z AUTO 31014G24KT 270V340 9999 FEW045 04/M04 Q1008
METAR RJSF 071400Z AUTO 32013KT 280V340 9999 FEW029 04/M03 Q1007
METAR RJSM 071500Z 28011KT 9999 FEW015 BKN050 05/M02 Q1004
METAR RJSM 071400Z 27010KT 240V300 9999 FEW015 SCT050 05/M03 Q1004
METAR RJSS 071500Z AUTO 28021KT 9999 NCD 07/M03 Q1007
METAR RJSS 071400Z AUTO 30012G23KT 280V340 9999 FEW050 07/M03 Q1007
METAR ROIG 071500Z AUTO 05017KT 6000 -RA FEW006 SCT009 BKN010 22/21 Q1014
METAR ROIG 071400Z AUTO 04017KT 9999 FEW013 BKN017 OVC025 22/21 Q1014
METAR RODN 071455Z 04007KT 10SM BKN065 19/15 A2999 RMK AO2A DZB09E18 SLP157 P0000 60000 T01940146 402440185 52013 FZRANO $
SPECI RODN 071418Z 03005KT 10SM BKN065 19/15 A2999 RMK AO2A DZE1355DZB09E18 SLP157 FZRANO $
SPECI RODN 071409Z 04006KT 10SM -DZ BKN065 19/15 A2998 RMK AO2A DZB09 SLP154 FZRANO $
METAR RODN 071355Z 04006KT 10SM BKN065 19/15 A2998 RMK AO2A SLP154 T01890150 FZRANO $
METAR ROYN 071500Z AUTO 04023KT 8000 OVC017 23/20 Q1014
METAR ROYN 071400Z AUTO 04021KT 9999 OVC016 23/20 Q1014
METAR ROMY 071500Z AUTO 06017KT 9999 FEW011 OVC023 21/18 Q1014
METAR ROMY 071400Z AUTO 06018KT 9999 -RA FEW005 SCT010 BKN013 21/20 Q1014
METAR RORS 071500Z AUTO 06018KT 9999 -RA FEW011 SCT017 BKN022 21/19 Q1014
METAR RORS 071400Z AUTO 06018KT 4100 -RA BR FEW008 SCT010 OVC015 22/20 Q1014
METAR ROTM 071356Z 04008KT 10SM BKN055 OVC100 19/13 A2999 RMK AO2 SLP143 T01890133 $
METAR RJTY 071355Z 35020G30KT 10SM CLR 10/M08 A2979 RMK AO2A PK WND 32033/17 SLP091 T01041078 $
METAR RJTT 071700Z 34017KT 9999 FEW060 09/M04 Q1011 NOSIG
METAR RJTT 071630Z 33020KT 9999 FEW060 09/M04 Q1011 TEMPO TL1800 34020G30KT
METAR RJTT 071600Z 33022KT 9999 FEW060 09/M04 Q1010 TEMPO 34025G35KT
METAR RJTT 071530Z 34025KT 9999 FEW060 09/M03 Q1010 TEMPO 34030G40KT
METAR ROAH 071700Z AUTO 04011KT 9999 NSC 20/14 Q1015
METAR ROAH 071630Z AUTO 05009KT 9999 NSC 20/14 Q1015
METAR ROAH 071600Z AUTO 04010KT 9999 NSC 20/14 Q1015
METAR ROAH 071530Z AUTO 04010KT 9999 NSC 20/14 Q1015
METAR RJAA 071700Z AUTO 30006KT 9999 NCD 07/M02 Q1011 NOSIG
METAR RJAA 071630Z AUTO 30006KT 9999 NCD 07/M03 Q1010 NOSIG
METAR RJAA 071600Z AUTO 31009KT 9999 NCD 08/M04 Q1010 NOSIG
METAR RJAA 071530Z AUTO 31014G24KT 9999 NSC 09/M04 Q1009 NOSIG
METAR RJBB 071700Z AUTO 36015KT 9999 NCD 10/02 Q1017 NOSIG
METAR RJBB 071630Z AUTO 01014KT 9999 NCD 10/02 Q1017 NOSIG
METAR RJBB 071600Z AUTO 36014KT 9999 NCD 10/02 Q1017 NOSIG
METAR RJBB 071530Z AUTO 35016KT 9999 NSC 10/02 Q1016 NOSIG
METAR RJCC 071700Z 33010KT 9999 -SHRA FEW008 SCT010 BKN020 02/01 Q1003
METAR RJCC 071630Z 31007KT 9999 -SHRASN FEW010 SCT020 02/00 Q1002
METAR RJCC 071600Z 32014KT 9999 -SHRASN FEW010 BKN050 03/01 Q1002
METAR RJCC 071530Z 32013KT 9999 -SHSNRA FEW010 SCT050 03/00 Q1002
METAR RJFF 071700Z AUTO VRB02KT 9999 NCD 06/01 Q1019 NOSIG
METAR RJFF 071630Z AUTO 12003KT 9999 NCD 06/02 Q1019 NOSIG
METAR RJFF 071600Z AUTO VRB01KT 9999 NCD 06/01 Q1019 NOSIG
METAR RJFF 071530Z AUTO 09003KT 050V120 9999 NCD 07/01 Q1019 NOSIG
METAR RJGG 071700Z AUTO 33020KT 9999 NCD 09/02 Q1015 NOSIG
METAR RJGG 071630Z AUTO 32022KT 9999 NCD 10/02 Q1014 NOSIG
METAR RJGG 071600Z AUTO 32024KT 9999 NCD 09/02 Q1014 NOSIG
METAR RJGG 071530Z AUTO 32026KT 9999 NCD 09/01 Q1014 NOSIG
METAR RJNK 071700Z 01011KT 9999 FEW030 BKN050 BKN080 09/M01 Q1017
METAR RJNK 071600Z 36011KT 9999 SCT050 BKN080 09/M02 Q1016
METAR RJOO 071700Z AUTO VRB02KT 9999 NCD 07/M00 Q1016
METAR RJOO 071600Z AUTO 36007KT 9999 NCD 07/M00 Q1016
METAR RJSN 071700Z AUTO 27014KT 9999 FEW060 OVC070 08/M02 Q1014
METAR RJSN 071600Z AUTO 29019KT 9999 FEW047 SCT050 BKN060 08/M01 Q1013
METAR RJNW 071700Z AUTO VRB01KT 9999 -RASN SCT034 BKN040 BKN044 05/M01 Q1016
METAR RJNW 071600Z AUTO 27004KT 200V340 9999 FEW041 BKN050 05/M01 Q1015
METAR RJNS 071700Z AUTO 26008KT 9999 NCD 07/M04 Q1010
METAR RJNS 071600Z AUTO 25009KT 220V290 9999 NCD 07/M04 Q1009
METAR RJNT 071700Z AUTO 13003KT 070V210 9999 FEW048 SCT060 BKN070 04/03 Q1017
METAR RJNT 071600Z AUTO VRB01KT 9999 FEW045 BKN050 BKN060 05/03 Q1017
METAR RJOC 071700Z AUTO 19008KT 9999 NCD 04/01 Q1018
METAR RJOC 071600Z AUTO 18009KT 9999 NCD 05/02 Q1018
METAR RJOA 071700Z AUTO VRB02KT 9999 NCD 05/M02 Q1017
METAR RJOA 071600Z AUTO VRB02KT 9999 NCD 05/M01 Q1017
METAR RJOM 071700Z AUTO 13004KT 9999 NCD 06/00 Q1018
METAR RJOM 071600Z AUTO 13005KT 9999 NCD 06/01 Q1018
METAR RJOR 071700Z AUTO 01011KT 9999 FEW041 SCT044 BKN048 09/00 Q1018
METAR RJOR 071600Z AUTO 34011KT 9999 FEW042 BKN050 10/01 Q1017
METAR RJOS 071700Z 31010KT 9999 FEW030 09/M01 Q1017
METAR RJOS 071600Z 32015KT 9999 FEW030 10/M01 Q1016
METAR RJOH 071700Z 19005KT 9999 FEW050 05/05 Q1018
METAR RJOH 071600Z 19006KT 9999 FEW050 05/05 Q1018
METAR RJOK 071700Z AUTO 36010KT 9999 NCD 09/M04 Q1016
METAR RJOK 071600Z AUTO 36012KT 9999 NCD 10/M05 Q1016
METAR RJOI 071656Z 30006KT 10SM CLR 06/00 A3009 RMK AO2 SLP188 T00560000 $
METAR RJOI 071556Z 30006KT 10SM CLR 06/00 A3007 RMK AO2 SLP183 T00610000 $
METAR RJOT 071700Z AUTO 23009KT 9999 NCD 05/M00 Q1018
METAR RJOT 071600Z AUTO 22009KT 9999 NCD 05/M00 Q1017
METAR RJSA 071700Z AUTO 27013G23KT 240V310 9999 FEW002 SCT012 BKN014 01/M00 Q1007
METAR RJSA 071600Z AUTO 23015KT 9999 -SNRA FEW008 SCT031 BKN050 02/00 Q1006
METAR RJSF 071700Z AUTO 32007KT 280V360 9999 FEW046 BKN060 04/M03 Q1011
METAR RJSF 071600Z AUTO 32015G28KT 280V350 9999 FEW050 04/M04 Q1009
METAR RJSM 071700Z 26010KT 9999 FEW015 BKN030 BKN080 03/01 Q1006
METAR RJSM 071600Z 27012KT 9999 FEW015 SCT050 BKN080 03/01 Q1005
METAR ROIG 071700Z AUTO 05021KT 9999 FEW009 SCT010 BKN013 21/20 Q1013
METAR ROIG 071600Z AUTO 05020KT 9999 FEW003 SCT005 BKN007 22/21 Q1013
METAR RJSS 071700Z AUTO 22007KT 170V250 9999 FEW047 06/M01 Q1009
METAR RJSS 071600Z AUTO 26013KT 9999 SCT060 07/M01 Q1009
METAR RODN 071655Z 05006KT 10SM BKN065 19/15 A3000 RMK AO2A DZB34E44 SLP161 P0000 T01860149 FZRANO $
SPECI RODN 071634Z 04008KT 10SM -DZ BKN065 19/15 A2999 RMK AO2A DZB34 SLP157 FZRANO $
METAR RODN 071555Z COR AUTO 05006KT 10SM BKN065 19/15 A3000 RMK AO2 SLP160 T01900145 FZRANO $ COR 1606
METAR ROMY 071700Z AUTO 06014KT 9999 FEW020 OVC038 22/18 Q1014
METAR ROMY 071600Z AUTO 06016KT 9999 SCT023 BKN033 OVC036 22/19 Q1014
METAR ROYN 071700Z AUTO 04020KT 8000 OVC016 23/21 Q1014
METAR ROYN 071600Z AUTO 04022KT 6000 OVC017 23/20 Q1014
METAR RORS 071700Z AUTO 06017KT 9999 SCT025 OVC029 22/18 Q1013
METAR RORS 071600Z AUTO 07016KT 9999 BKN025 BKN031 OVC037 21/18 Q1014
METAR ROTM 071656Z AUTO 03005KT 10SM OVC055 18/14 A3001 RMK AO2 SLP149 T01830139 $
METAR ROTM 071556Z AUTO 04006KT 10SM OVC055 18/14 A3000 RMK AO2 SLP147 T01830139 $
METAR RJFF 071900Z AUTO 14004KT 9999 NCD 06/01 Q1019 NOSIG
METAR RJFF 071830Z AUTO 12003KT 9999 NCD 06/01 Q1019 NOSIG
METAR RJFF 071800Z AUTO 14004KT 9999 NCD 06/01 Q1019 NOSIG
METAR RJFF 071730Z AUTO VRB02KT 9999 NCD 06/01 Q1019 NOSIG
METAR RJBB 071900Z AUTO 36014KT 9999 NCD 10/02 Q1018 NOSIG
METAR RJBB 071830Z AUTO 35016KT 9999 NCD 10/02 Q1018 NOSIG
METAR RJBB 071800Z AUTO 35016KT 9999 NCD 10/03 Q1017 NOSIG
METAR RJBB 071730Z AUTO 35016KT 9999 FEW046 10/02 Q1017 NOSIG
METAR RJCC 071900Z 34009KT 9999 -SHRASN FEW005 SCT008 BKN010 02/01 Q1005
METAR RJCC 071830Z 32007KT 9999 -SHRASN FEW008 SCT010 BKN020 02/01 Q1004
METAR RJCC 071800Z 31004KT 9999 -SHRASN FEW008 BKN010 BKN020 02/01 Q1004
METAR RJCC 071730Z 32008KT 9999 -SHRASN FEW008 SCT010 BKN020 02/01 Q1003
METAR RJNK 071900Z 09002KT 9999 -SHRA SCT030 BKN050 07/01 Q1018
METAR RJNK 071800Z 10004KT 010V130 9999 FEW030 SCT050 BKN080 07/01 Q1017
METAR RJOO 071900Z AUTO 34005KT 9999 NCD 07/M02 Q1018
METAR RJOO 071800Z AUTO 33005KT 280V050 9999 NCD 08/M01 Q1017
METAR RJSN 071900Z AUTO 28016KT 9999 BKN050 BKN070 OVC080 09/00 Q1016
METAR RJSN 071800Z AUTO 26014KT 9999 FEW050 BKN060 OVC070 08/M00 Q1015
METAR ROAH 071900Z AUTO 04012KT 9999 NSC 20/15 Q1014
METAR ROAH 071830Z AUTO 05008KT 9999 NSC 20/15 Q1014
METAR ROAH 071800Z AUTO 04007KT 9999 NSC 20/15 Q1015
METAR ROAH 071730Z AUTO 05010KT 9999 NSC 20/14 Q1015
METAR RJTT 071900Z 33016KT CAVOK 09/M04 Q1013 NOSIG
METAR RJTT 071830Z 33019KT CAVOK 09/M04 Q1013 NOSIG
METAR RJTT 071800Z 33018KT CAVOK 09/M04 Q1012 NOSIG
METAR RJTT 071730Z 33020KT CAVOK 09/M04 Q1012 NOSIG
METAR RJGG 071900Z AUTO 34016KT 9999 NCD 09/00 Q1016 NOSIG
METAR RJGG 071830Z AUTO 34018KT 9999 NCD 09/01 Q1016 NOSIG
METAR RJGG 071800Z AUTO 33019KT 9999 NCD 09/01 Q1016 NOSIG
METAR RJGG 071730Z AUTO 33021KT 9999 NCD 09/00 Q1015 NOSIG
METAR RJAA 071900Z AUTO 31003KT 9999 NCD 05/M02 Q1013 NOSIG
METAR RJAA 071830Z AUTO 33004KT 9999 NCD 05/M03 Q1012 NOSIG
METAR RJAA 071800Z AUTO 31004KT 9999 NCD 06/M03 Q1012 NOSIG
METAR RJAA 071730Z AUTO 31004KT 9999 NCD 07/M03 Q1011 NOSIG
METAR RJNS 071900Z AUTO 28009KT 9999 NCD 06/M02 Q1012
METAR RJNS 071800Z AUTO 28010KT 9999 FEW048 06/M03 Q1011
METAR RJNT 071900Z AUTO VRB02KT 9999 FEW060 BKN070 05/03 Q1019
METAR RJNT 071800Z AUTO VRB01KT 9999 FEW047 SCT050 BKN060 05/03 Q1018
METAR RJNW 071900Z AUTO VRB01KT 9999 FEW037 SCT041 BKN044 04/00 Q1017
METAR RJNW 071800Z AUTO 00000KT 9999 FEW037 OVC050 04/00 Q1017
METAR RJOA 071900Z AUTO 31002KT 9999 NCD 03/M02 Q1018
METAR RJOA 071800Z AUTO VRB01KT 9999 NCD 04/M01 Q1018
METAR RJOC 071900Z AUTO 18007KT 9999 NCD 04/01 Q1019
METAR RJOC 071800Z AUTO 18007KT 160V240 9999 NCD 03/01 Q1019
METAR RJOH 071900Z 19007KT 9999 FEW050 04/04 Q1019
METAR RJOH 071800Z 19005KT 9999 FEW050 04/04 Q1019
METAR RJOK 071900Z AUTO 35012KT 9999 NCD 09/M03 Q1017
METAR RJOK 071800Z AUTO 35013KT 9999 NCD 10/M04 Q1016
METAR RJOM 071900Z AUTO 13005KT 9999 NCD 05/00 Q1019
METAR RJOM 071800Z AUTO 13004KT 9999 NCD 06/01 Q1019
METAR RJOR 071900Z AUTO 01007KT 350V060 9999 NCD 09/M01 Q1019
METAR RJOR 071800Z AUTO 01010KT 350V050 9999 FEW045 09/M00 Q1018
METAR RJOS 071900Z 29004KT 9999 FEW030 08/M00 Q1018
METAR RJOS 071800Z 31007KT 9999 FEW030 09/M01 Q1017
METAR RJOI 071856Z 31008KT 10SM CLR 05/00 A3012 RMK AO2 SLP199 T00500000 $
METAR RJOI 071756Z 31007KT 10SM CLR 05/00 A3011 RMK AO2 SLP195 T00500000 10100 20050 53014 $
METAR RJOT 071900Z AUTO 21007KT 9999 NCD 05/M01 Q1019
METAR RJOT 071800Z AUTO 22009KT 9999 NCD 05/M01 Q1018
METAR RJSA 071900Z AUTO 22012KT 9999 SCT035 SCT038 BKN040 01/00 Q1008
METAR RJSA 071800Z AUTO 23011KT 9999 -SNRA FEW005 SCT010 BKN013 01/00 Q1008
METAR RJSF 071900Z AUTO 32012KT 270V340 9999 FEW035 BKN050 OVC060 05/M03 Q1012
METAR RJSF 071800Z AUTO 32009G19KT 240V360 9999 -SNRA BKN036 BKN038 BKN040 05/M02 Q1011
METAR RJSM 071900Z 27014KT 9999 FEW015 SCT080 04/M00 Q1008
METAR RJSM 071800Z 26011KT 9999 FEW015 BKN080 04/00 Q1007
METAR RJSS 071900Z AUTO 31008KT 9999 FEW029 BKN050 OVC060 06/00 Q1012
METAR RJSS 071800Z AUTO 27004KT 180V360 9999 FEW042 SCT060 06/M02 Q1010
METAR ROIG 071900Z AUTO 06018KT 9999 SCT020 OVC024 22/19 Q1013
METAR ROIG 071800Z AUTO 06018KT 9999 SCT018 OVC029 22/20 Q1013
METAR RODN 071755Z 03009KT 10SM BKN065 19/15 A2998 RMK AO2A SLP154 60000 T01930150 10195 20185 58005 FZRANO $
METAR ROYN 071900Z AUTO 06016KT 9999 FEW015 SCT017 OVC020 23/20 Q1013
METAR ROYN 071800Z AUTO 06014KT 9999 SCT015 OVC019 23/21 Q1013
METAR RORS 071900Z AUTO 07015KT 9999 FEW029 22/17 Q1013
METAR RORS 071800Z AUTO 07016KT 9999 SCT027 22/17 Q1013
METAR ROMY 071900Z AUTO 06015KT 9999 FEW023 22/18 Q1013
METAR ROMY 071800Z AUTO 06016KT 9999 FEW023 BKN060 22/17 Q1013
METAR ROTM 071856Z AUTO 08%Q (L0 19/14 A2999 RMK AO2 SLP143 T01890139 $
METAR ROTM 071756Z AUTO 03005KT 10SM OVC060 18/14 A2999 RMK AO2 SLP142 T01830144 10189 20183 58005 $
METAR RJTY 071755Z 02012KT 10SM CLR 07/M05 A2995 RMK AO2A SLP146 T00651055 10120 20062 52032 $
METAR RJFF 072030Z AUTO 15005KT 9999 NCD 06/01 Q1020 NOSIG
METAR RJFF 072000Z AUTO 14004KT 9999 NCD 06/01 Q1019 NOSIG
METAR RJFF 071930Z AUTO 12003KT 9999 NCD 05/01 Q1019 NOSIG
METAR RJAA 072030Z AUTO 00000KT 9999 NCD 03/M01 Q1015 NOSIG
METAR RJAA 072000Z AUTO 30004KT 9999 NCD 04/M02 Q1014 NOSIG
METAR RJAA 071930Z AUTO 30003KT 9999 NCD 04/M02 Q1014 NOSIG
METAR ROAH 072030Z AUTO 04012KT 9999 NSC 20/14 Q1015
METAR ROAH 072000Z AUTO 04011KT 9999 NSC 20/15 Q1015
METAR ROAH 071930Z AUTO 04012KT 9999 NSC 20/15 Q1015
METAR RJGG 072030Z AUTO 33015KT 9999 NCD 09/00 Q1017 NOSIG
METAR RJGG 072000Z AUTO 34013KT 9999 NCD 08/M00 Q1017 NOSIG
METAR RJGG 071930Z AUTO 33014KT 9999 NCD 09/01 Q1017 NOSIG
METAR RJCC 072030Z 31005KT 5000 -SHSNRA FEW003 SCT008 BKN010 01/01 Q1007
METAR RJCC 072000Z 33008KT 6000 -SHRASN FEW003 SCT008 BKN010 01/01 Q1006
METAR RJCC 071930Z 33011KT 5000 -SHRASN BR FEW005 SCT008 BKN010 01/00 Q1005
METAR RJBB 072030Z AUTO 01007KT 330V030 9999 FEW048 09/02 Q1019 NOSIG
METAR RJBB 072000Z AUTO 35014KT 9999 NCD 09/01 Q1019 NOSIG
METAR RJBB 071930Z AUTO 36013KT 9999 FEW045 09/01 Q1018 NOSIG
METAR RJTT 072030Z 32022KT 9999 FEW030 09/M05 Q1015 NOSIG
METAR RJTT 072000Z 33016KT 9999 FEW030 09/M05 Q1014 NOSIG
METAR RJTT 071930Z 33017KT 9999 FEW030 09/M05 Q1014 NOSIG
METAR RJOO 072000Z AUTO 35003KT 330V040 9999 NCD 07/M02 Q1018
METAR RJSN 072000Z AUTO 31019KT 9999 BKN036 BKN042 08/01 Q1017
METAR RJNK 072000Z VRB01KT 9999 FEW030 BKN050 07/02 Q1019
METAR RJNT 072000Z AUTO VRB01KT 9999 BKN050 BKN060 OVC070 05/03 Q1019
METAR RJNW 072000Z AUTO 00000KT 9999 SCT038 SCT045 BKN050 04/01 Q1018
METAR RJNS 072000Z AUTO 29009KT 9999 NCD 06/M02 Q1013
METAR RJOC 072000Z AUTO 22005KT 9999 NCD 03/01 Q1020
METAR RJOA 072000Z AUTO 31001KT 9999 NCD 03/M02 Q1019
METAR RJOM 072000Z AUTO 12007KT 9999 NCD 06/00 Q1020
METAR RJOH 072000Z 19006KT 9999 FEW050 04/04 Q1020
METAR RJOS 072000Z 27006KT 9999 FEW030 SCT045 08/M00 Q1019
METAR RJOR 072000Z AUTO 16004KT 110V180 9999 FEW045 06/01 Q1019
METAR RJOK 072000Z AUTO 35011KT 9999 NCD 09/M03 Q1018
METAR RJOI 071956Z 31008KT 10SM CLR 04/00 A3013 RMK AO2 SLP203 T00440000 $
METAR RJOT 072000Z AUTO VRB03KT 9999 NCD 04/M00 Q1019
METAR RJSA 072000Z AUTO 24012KT 9999 BKN017 BKN032 BKN050 01/M00 Q1010
METAR RJSF 072000Z AUTO 32014G24KT 9999 FEW043 OVC060 05/M03 Q1012
METAR RJSM 072000Z 27010KT 9999 FEW010 SCT035 03/00 Q1009
METAR ROIG 072000Z AUTO 06014KT 9999 SCT024 OVC033 22/18 Q1013
METAR RJSS 072000Z AUTO 33003KT 270V010 9999 FEW050 SCT060 BKN070 06/M00 Q1013
METAR ROMY 072000Z AUTO 06014KT 9999 BKN022 BKN025 BKN027 21/18 Q1013
METAR ROYN 072000Z AUTO 07014KT 6000 FEW009 BKN020 BKN022 22/20 Q1013
METAR RORS 072000Z AUTO 07013KT 9999 FEW025 SCT031 BKN044 22/17 Q1013
METAR ROTM 071956Z AUTO 03006KT 10SM OVC060 18/14 A2999 RMK AO2 SLP143 T01830139 $
METAR RJGG 072130Z 32014KT 9999 FEW020 10/01 Q1018 NOSIG
METAR RJGG 072100Z 33014KT 9999 FEW020 09/02 Q1018 NOSIG
METAR ROAH 072130Z 04010KT CAVOK 20/14 Q1015
METAR ROAH 072100Z 05011KT 9999 FEW020 SCT060 BKN080 20/14 Q1015
METAR RJAA 072130Z 33005KT 9999 FEW030 07/M01 Q1016 NOSIG
METAR RJAA 072100Z VRB02KT 9999 FEW030 04/M02 Q1016 BECMG 32006KT
METAR RJBB 072130Z 04009KT 9999 FEW020 09/00 Q1020 NOSIG
METAR RJBB 072100Z 02005KT 320V070 9999 FEW020 09/01 Q1020 NOSIG
METAR RJFF 072130Z 11003KT 090V180 CAVOK 06/02 Q1020 NOSIG
METAR RJFF 072100Z 13004KT CAVOK 06/01 Q1020 NOSIG
METAR RJTT 072130Z 32019KT 9999 FEW030 10/M04 Q1016 TEMPO 34018G28KT
METAR RJTT 072100Z 33022KT 9999 FEW030 10/M05 Q1016 TEMPO 34018G28KT
METAR RJCC 072130Z 32012KT 9999 FEW010 SCT020 03/02 Q1008
METAR RJCC 072100Z 33007KT 5000 -SHRASN BR FEW004 SCT010 BKN020 02/01 Q1007
METAR RJSN 072100Z AUTO 31017KT 9999 FEW043 08/M00 Q1018
METAR RJOO 072100Z AUTO VRB02KT 9999 NCD 06/M02 Q1019
METAR RJNK 072100Z 08002KT 9999 FEW030 BKN050 07/02 Q1019
METAR RJNW 072100Z AUTO VRB01KT 9999 NSC 03/01 Q1019
METAR RJNS 072100Z AUTO 31004KT 9999 NCD 07/01 Q1014
METAR RJNT 072100Z AUTO 19002KT 9999 FEW060 OVC070 05/03 Q1020
METAR RJOC 072100Z AUTO 21006KT 9999 NCD 03/02 Q1020
METAR RJOA 072100Z AUTO 32001KT 9999 NCD 04/M02 Q1020
METAR RJOK 072100Z AUTO 35009KT 9999 NCD 09/M02 Q1019
METAR RJOS 072100Z 28003KT 9999 FEW030 BKN045 08/00 Q1020
METAR RJOR 072100Z AUTO 13005KT 110V180 9999 FEW047 05/02 Q1020
METAR RJOM 072100Z AUTO 11007KT 9999 NCD 06/00 Q1020
METAR RJOH 072100Z 19004KT 150V210 9999 FEW005 04/04 Q1020
METAR RJOI 072056Z 31008KT 10SM CLR 04/00 A3016 RMK AO2 SLP211 T00440000 53016 $
METAR RJSA 072100Z AUTO 24010KT 9999 FEW027 BKN031 BKN034 02/00 Q1011
METAR RJOT 072100Z AUTO 21006KT 170V230 9999 NCD 05/M00 Q1020
METAR RJSM 072100Z 28015KT 9999 FEW020 BKN040 03/01 Q1010
METAR RJSF 072100Z AUTO 31016G26KT 270V340 9999 FEW046 SCT050 BKN060 05/M04 Q1014
SPECI RODN 072118Z 03008KT 10SM BKN075 19/14 A3001 RMK SLP164 FZRANO $
METAR RODN 072056Z 04008KT 10SM BKN075 18/14 A2999 RMK AO2A SLP157 T01810140 52004 FZRANO $
METAR ROIG 072100Z AUTO 07014KT 9999 SCT025 OVC036 22/18 Q1014
METAR RJSS 072100Z AUTO 30010KT 9999 BKN060 08/M03 Q1014
METAR ROMY 072100Z AUTO 07015KT 9999 FEW023 21/17 Q1014
METAR RORS 072100Z AUTO 08015KT 9999 FEW026 22/17 Q1013
METAR ROYN 072100Z AUTO 07011KT 9999 FEW019 OVC022 22/20 Q1014
METAR ROTM 072056Z AUTO 03009KT 10SM OVC070 18/13 A3000 RMK AO2 SLP144 T01830133 53002 $
METAR RJBB 072230Z 04007KT 9999 FEW030 10/00 Q1021 NOSIG
METAR RJBB 072200Z 04010KT 9999 FEW030 10/01 Q1021 NOSIG
METAR ROAH 072230Z 05011KT CAVOK 20/15 Q1016
METAR ROAH 072200Z 05011KT CAVOK 20/14 Q1016
METAR RJTT 072230Z 32017KT CAVOK 12/M04 Q1017 NOSIG
METAR RJTT 072200Z 33016KT CAVOK 11/M05 Q1017 NOSIG
METAR RJSN 072230Z 30012KT 9999 FEW030 SCT050 10/00 Q1019
METAR RJSN 072200Z AUTO 31013KT 9999 FEW048 SCT050 09/00 Q1019
METAR RJGG 072230Z 32014KT 9999 FEW020 10/02 Q1019 NOSIG
METAR RJGG 072200Z 32013KT 9999 FEW020 10/02 Q1019 NOSIG
METAR RJFF 072230Z 15004KT CAVOK 08/02 Q1021 NOSIG
METAR RJFF 072200Z 14004KT CAVOK 07/02 Q1021 NOSIG
METAR RJCC 072230Z 34008KT 9999 FEW010 SCT040 05/03 Q1009
METAR RJCC 072200Z 36005KT 9999 FEW010 SCT040 03/01 Q1009
METAR RJAA 072230Z 32009KT 9999 FEW030 10/M02 Q1017 NOSIG
METAR RJAA 072200Z 33009KT 9999 FEW030 08/M01 Q1016 NOSIG
METAR RJNK 072200Z VRB02KT 9999 FEW030 BKN050 08/01 Q1020
METAR RJOO 072200Z VRB01KT 9999 FEW030 09/M01 Q1020
METAR RJNS 072230Z 34003KT 320V040 9999 FEW030 10/02 Q1016
METAR RJNS 072200Z AUTO 34004KT 9999 NCD 09/02 Q1015
METAR RJNW 072200Z AUTO VRB01KT 9999 FEW047 BKN050 07/00 Q1019
METAR RJNT 072200Z VRB02KT 9999 FEW030 SCT060 06/03 Q1020
METAR RJOA 072230Z 00000KT CAVOK 06/M02 Q1021
METAR RJOA 072200Z AUTO 00000KT 9999 NCD 06/M02 Q1020
METAR RJOC 072230Z 18008KT 9999 FEW025 06/02 Q1021
METAR RJOC 072200Z AUTO 18006KT 9999 NCD 05/02 Q1021
METAR RJOB 072200Z VRB01KT CAVOK 06/M00 Q1020
METAR RJOH 072200Z 19006KT 9999 FEW005 06/06 Q1021
METAR RJOS 072200Z 29004KT 9999 FEW030 SCT045 09/00 Q1021
METAR RJOR 072200Z 13006KT 9999 FEW035 06/02 Q1021
METAR RJOM 072200Z 12007KT CAVOK 06/00 Q1021
METAR RJOK 072200Z 33014KT CAVOK 10/M02 Q1020
METAR RJOI 072156Z 32006KT 9999 SKC 06/00 A3018 RMK AO2A SLP219 T00560000
METAR RJSA 072230Z 26012KT 9999 FEW015 SCT030 BKN040 04/M01 Q1013
METAR RJSA 072200Z AUTO 27011KT 9999 FEW036 SCT039 BKN042 04/M01 Q1012
METAR RJOT 072200Z 22005KT CAVOK 06/01 Q1021
METAR RJSF 072200Z AUTO 32014G30KT 270V350 9999 FEW045 SCT047 06/M03 Q1015
METAR RJSM 072200Z 27017KT 9999 FEW020 06/01 Q1011
METAR RJSK 072200Z 29017KT 9999 -SHRA FEW010 SCT035 BKN045 06/M00 Q1015
METAR RJSS 072230Z 29019KT 9999 FEW040 09/M04 Q1015
METAR RJSS 072200Z AUTO 29020KT 9999 NCD 09/M04 Q1014
METAR ROIG 072200Z AUTO 06015KT 9999 FEW024 OVC034 22/19 Q1014
METAR RJSY 072200Z 29014KT 260V320 9999 FEW030 BKN045 08/M02 Q1017
METAR RODN 072155Z 03010KT 10SM BKN075 19/14 A3001 RMK SLP164 T01910143 FZRANO $
METAR ROMY 072200Z AUTO 07015KT 9999 BKN040 OVC048 22/17 Q1014
METAR ROYN 072200Z AUTO 07013KT 9999 OVC027 23/19 Q1014
METAR RORS 072200Z AUTO 07015KT 9999 OVC043 22/17 Q1014
METAR ROTM 072156Z 05008KT 10SM OVC065 18/13 A3003 RMK AO2 SLP154 T01830133 $
METAR RJTY 072155Z 01010KT 10SM CLR 10/M07 A3006 RMK AO2A SLP184 T01031070 $
METAR RJFF 072330Z 14005KT 080V200 CAVOK 11/00 Q1021 NOSIG
METAR RJFF 072300Z 15004KT 120V220 CAVOK 10/01 Q1021 NOSIG
METAR RJAA 072330Z 30009KT 270V340 9999 FEW030 11/M02 Q1018 NOSIG
METAR RJAA 072300Z 32011KT 280V340 9999 FEW030 11/M02 Q1017 NOSIG
METAR ROAH 072330Z 06011KT CAVOK 20/15 Q1017
METAR ROAH 072300Z 05012KT CAVOK 20/15 Q1017
METAR RJTT 072330Z 32021KT CAVOK 13/M04 Q1017 NOSIG
METAR RJTT 072300Z 33021KT CAVOK 12/M04 Q1017 NOSIG
METAR RJGG 072330Z 33013KT 9999 FEW030 11/02 Q1020 NOSIG
METAR RJGG 072300Z 34012KT 9999 FEW030 11/01 Q1020 NOSIG
METAR RJCC 072330Z 32014KT 9999 FEW015 BKN040 06/M01 Q1010
METAR RJCC 072300Z 33014KT 9999 FEW010 SCT040 06/00 Q1010
METAR RJBB 072330Z 02004KT 340V050 9999 FEW025 10/00 Q1022 NOSIG
METAR RJBB 072300Z 02006KT 340V060 9999 FEW025 10/M00 Q1022 NOSIG
METAR RJNK 072300Z 05006KT 010V090 9999 FEW030 BKN050 11/01 Q1021
METAR RJNS 072300Z VRB02KT 9999 FEW030 12/03 Q1017
METAR RJNW 072300Z VRB03KT 9999 FEW040 08/M02 Q1020
METAR RJNT 072300Z VRB02KT 9999 FEW030 09/03 Q1021
METAR RJOO 072300Z VRB02KT 9999 FEW030 10/M02 Q1021
METAR RJSN 072300Z 28011KT 9999 FEW030 BKN040 10/00 Q1019
METAR RJOA 072300Z 10003KT 080V140 CAVOK 07/M01 Q1021
METAR RJOB 072300Z VRB02KT CAVOK 08/M00 Q1021
METAR RJOH 072300Z 20003KT 160V230 9999 FEW008 08/07 Q1021
METAR RJOK 072300Z 35012KT CAVOK 12/M01 Q1020
METAR RJOM 072300Z 12003KT CAVOK 09/00 Q1021
METAR RJOC 072300Z 18007KT 9999 FEW025 07/03 Q1021
METAR RJOI 072256Z 34004KT 10SM CLR 08/01 A3019 RMK AO2 SLP222 T00830006 $
METAR RJOS 072300Z 02010KT 9999 FEW030 SCT045 11/01 Q1022
METAR RJOW 072300Z 16008KT CAVOK 08/01 Q1021
METAR RJOY 072300Z VRB03KT 9999 FEW030 10/00 Q1021
METAR RJSA 072300Z 26011KT 9999 FEW015 BKN030 BKN040 05/00 Q1013
METAR RJSC 072300Z 28006KT 210V360 9999 FEW045 SCT050 08/M03 Q1016
METAR RJOR 072300Z 14005KT 100V170 9999 FEW035 09/02 Q1021
METAR RJOT 072300Z 25004KT 220V280 9999 FEW030 09/02 Q1021
METAR RJSS 072300Z 30014KT 9999 FEW040 10/M03 Q1015
METAR RJSR 072300Z 28013KT 250V320 9999 FEW015 SCT040 07/M00 Q1015
METAR RJSF 072300Z 32018KT 270V350 9999 SCT045 07/M04 Q1016
METAR RJSI 072300Z 32005KT 250V030 9999 -SHRA FEW030 SCT035 BKN045 06/M01 Q1014
METAR RJSK 072300Z 29016KT 9999 -SHRA FEW015 SCT030 BKN035 06/M00 Q1016
METAR RJSM 072300Z 28020KT 9999 FEW015 BKN040 BKN050 07/M00 Q1013
METAR RJTI 072330Z 30017G29KT CAVOK 12/M04 Q1018
METAR RJTF 072330Z 34008KT 290V030 9999 FEW030 12/M05 Q1018
METAR ROYN 072300Z AUTO 08014KT 9999 OVC022 23/20 Q1015
METAR RJSY 072300Z 28015KT 9999 FEW030 BKN045 09/M02 Q1018
METAR RJTO 072300Z 04014KT CAVOK 12/00 Q1017
METAR ROIG 072300Z 07016KT 9999 FEW021 BKN030 23/19 Q1015
METAR RORS 072300Z AUTO 08013KT 9999 FEW031 OVC046 22/16 Q1015
METAR ROMY 072300Z 07014KT 9999 FEW022 BKN040 22/16 Q1016
METAR ROTM 072256Z 05007KT 10SM BKN065 19/14 A3005 RMK AO2 SLP163 T01940139 $
METAR RODN 072255Z 04011KT 10SM BKN075 20/15 A3004 RMK SLP174 T02020150 FZRANO $
METAR RJOI 072356Z 05006KT 10SM CLR 11/02 A3018 RMK AO2 SLP221 T01060022 10106 20039 50009 $
METAR ROTM 072356Z 05012KT 10SM OVC070 20/13 A3007 RMK AO2 SLP168 T02000133 10200 20178 51024 $
METAR RJTY 072355Z 02016KT 10SM CLR 13/M07 A3010 RMK AO2A SLP197 T01341068 10135 20050 52023 $
METAR RODN 072355Z 04013KT 10SM BKN080 21/15 A3005 RMK SLP177 T02070150 10207 20180 52024 FZRANO $
METAR RJCH 072300Z 29016KT 9999 FEW030 07/00 Q1011
METAR RJCM 072300Z VRB05KT 9999 FEW030 SCT040 05/M03 Q1005
METAR RJCK 072300Z 30007KT 270V360 9999 FEW030 05/M01 Q1006
METAR RJCN 072330Z 29011G21KT 250V340 9999 -SHSN FEW015 BKN040 05/M05 Q1005
METAR RJCB 072300Z 31009KT 270V340 9999 FEW030 06/M03 Q1006
METAR RJCW 072330Z 26018KT 9999 FEW030 07/M03 Q1005
METAR RJCO 072300Z 32016KT 9999 FEW020 BKN030 BKN040 05/M01 Q1010
METAR RJEC 072300Z 31011KT 9999 FEW015 BKN025 03/M01 Q1008
METAR RJAH 072300Z VRB02KT 9999 FEW025 10/M01 Q1017
METAR RJAF 072330Z 17003KT 120V250 9999 FEW035 04/M05 Q1019
METAR RJTR 072355Z AUTO 36007KT 10SM CLR 14/M06 A3007 RMK AO2 SLP185 T01361056 10137 20074 52026 $
METAR RJTR 072255Z AUTO 31006KT 10SM CLR 12/M06 A3005 RMK AO2 SLP179 T01161058 $
METAR RJBD 072330Z 35011KT 9999 FEW030 11/M01 Q1020
METAR RJBD 072300Z AUTO 36011KT 330V030 9999 NCD 10/M00 Q1019
METAR RJDC 072300Z 08006KT CAVOK 09/04 Q1021
METAR RJDC 072230Z 05005KT 9999 FEW020 08/01 Q1021
METAR RJBE 072300Z 28005KT 9999 FEW035 10/M01 Q1021
METAR RJBT 072330Z VRB01KT 9999 FEW030 09/01 Q1021
METAR RJFU 072300Z VRB01KT CAVOK 10/00 Q1020
METAR RJFT 072300Z VRB03KT CAVOK 09/M04 Q1020
METAR RJFT 072230Z 01004KT 340V040 CAVOK 08/M07 Q1020
METAR RJFS 072300Z 02006KT CAVOK 08/03 Q1021
METAR RJFR 072300Z VRB02KT 9999 FEW020 10/04 Q1021
METAR RJFO 072300Z VRB02KT CAVOK 11/01 Q1021
METAR RJFO 072230Z 26003KT CAVOK 10/01 Q1021
METAR RJFM 072300Z 28005KT 260V320 9999 FEW030 11/04 Q1020
METAR RJFM 072230Z 29005KT 9999 FEW030 10/04 Q1020
METAR RJFK 072300Z VRB02KT 9999 FEW040 09/01 Q1020
METAR RJFE 072300Z VRB01KT CAVOK 12/04 Q1020
METAR RJFG 072330Z 06008KT 010V110 9999 FEW020 14/07 Q1019
METAR RJFG 072300Z AUTO 06009KT 360V120 9999 NCD 14/06 Q1019
METAR ROMD 072300Z AUTO 02012KT 9999 NSC 21/16 Q1016
