TAF AMD ROAH 070023Z 0700/0806 31016KT 9999 FEW010 BKN015 
  BECMG 0703/0705 03018KT
TAF AMD RJOO 070012Z 0700/0806 34018KT 9999 FEW020 SCT035 
  TEMPO 0700/0709 34020G30KT 
  BECMG 0712/0715 32008KT 
  BECMG 0800/0803 22006KT
TAF RJBB 062306Z 0700/0806 26008KT 9999 FEW020 BKN040 
  BECMG 0700/0702 01010KT 
  BECMG 0803/0806 29006KT
TAF RJSN 062305Z 0700/0806 22010KT 9999 FEW012 BKN020 
  TEMPO 0702/0704 4000 SHRA BR 
  BECMG 0704/0706 28014KT
TAF RJNK 062305Z 0700/0806 30010KT 8000 -SHRA FEW008 BKN015 
  BECMG 0712/0715 35010KT 
  BECMG 0803/0806 32010KT
TAF RJAA 062305Z 0700/0806 18008KT 6000 -RA FEW008 BKN015 
  TEMPO 0700/0702 4000 -RA BR FEW003 BKN008 
  TEMPO 0702/0705 3000 RA BR FEW002 BKN005 
  TEMPO 0705/0708 4000 -RA BR FEW003 BKN008 
  BECMG 0708/0710 32012KT
TAF RJTT 062305Z 0700/0806 20012KT 9999 -RA FEW015 BKN040 
  BECMG 0706/0708 30014KT 
  BECMG 0708/0710 34028KT 
  TEMPO 0708/0718 34030G40KT 
  BECMG 0718/0721 34016KT 
  BECMG 0803/0806 14008KT
TAF RJGG 062305Z 0700/0806 31018KT 9999 FEW030 
  TEMPO 0700/0702 4000 -SHRA BR 
  BECMG 0704/0706 32030KT 
  TEMPO 0706/0715 32034G44KT 
  BECMG 0718/0721 33016KT
TAF RJFF 062305Z 0700/0806 35016KT 9999 FEW040 
  BECMG 0708/0710 36006KT 
  BECMG 0712/0715 15004KT 
  BECMG 0800/0803 32011KT
TAF RJCC 062305Z 0700/0806 17014KT 9999 FEW001 SCT008 BKN012 
  TEMPO 0700/0703 3000 -SHRA BR FEW003 BKN005 
  BECMG 0706/0708 33010KT 
  BECMG 0803/0806 26012KT=
TAF AMD RJSA 070012Z 0700/0806 24018KT 9999 -SHRA FEW012 BKN020 
  TEMPO 0700/0703 FEW002 BKN005 
  TEMPO 0703/0711 24022G32KT 
  TEMPO 0715/0718 3000 -SHRA BR
TAF RJOT 062305Z 0700/0806 30012KT 9999 FEW025 SCT045 
  BECMG 0712/0715 21006KT 
  BECMG 0800/0803 03006KT=
TAF AMD RODN 070105Z 0701/0806 26010G15KT 9999 SCT015 BKN045 QNH2980INS 
  TEMPO 0701/0703 4000 SHRA BKN015 
  BECMG 0703/0704 29012G18KT 8000 -SHRA SCT020 BKN050 QNH2979INS 
  BECMG 0709/0710 01010G15KT 9999 NSW SCT030 BKN060 QNH2980INS 
  BECMG 0712/0713 03012KT 9999 SCT040 BKN060 QNH2982INS 
  BECMG 0722/0723 05010G15KT 9999 SCT060 QNH2984INS TX25/0704Z TN19/0720Z
TAF RJSS 062305Z 0700/0806 08004KT 9999 FEW020 SCT030 BKN040 
  TEMPO 0700/0703 2000 BR FEW001 BKN003 
  BECMG 0704/0706 30020KT 
  TEMPO 0706/0715 30030G40KT
TAF ROIG 062305Z 0700/0806 23012KT 9999 FEW010 BKN015 
  BECMG 0702/0704 01012KT 
  TEMPO 0703/0706 4000 SHRA BR FEW006 BKN008 FEW015CB 
  BECMG 0800/0803 07014KT=
TAF ROTM AMD 070200Z 0702/0721 30010KT 9999 SCT012 BKN020 BKN035 QNH2984INS 
  TEMPO 0704/0708 -SHRA 
  FM071100 02015G22KT 9999 SCT020 BKN050 QNH2993INS 
  FM071400 03013G20KT 9999 FEW035 BKN065 QNH2997INS TX24/0621Z TN17/0719Z AMD 0201
TAF RORS 062305Z 0700/0806 22008KT 9999 FEW008 BKN012 
  BECMG 0702/0704 01016KT 
  TEMPO 0703/0706 4000 SHRA BR FEW006 BKN008 FEW015CB 
  BECMG 0803/0806 09014KT=
TAF AMD RJOB 070413Z 0704/0806 34012KT 9999 FEW025 SCT045 
  BECMG 0707/0709 30006KT
TAF RJOA 062305Z 0700/0806 32015KT 9999 FEW025 SCT040 
  TEMPO 0700/0709 32018G28KT 
  BECMG 0710/0712 32005KT 
  BECMG 0721/0800 13006KT
TAF RJOC 062305Z 0700/0806 18005KT 9999 FEW030 SCT050 
  BECMG 0700/0702 32014KT 
  BECMG 0709/0711 34008KT 
  BECMG 0715/0718 17006KT 
  BECMG 0800/0803 01006KT=
TAF AMD RJOI 070400Z 0704/0721 05010KT 9999 FEW030 SCT055 SCT210 521109 QNH2980INS 
  FM070500 02012G22KT 9999 FEW040 FEW070 520006 QNH2980INS 
  FM070800 36012G24KT 9999 FEW035 520006 QNH2990INS 
  BECMG 0711/0713 34008KT 9999 FEW030 500000 QNH3000INS 
  FM071800 34006KT 9999 FEW025 QNH3006INS T21/0706Z T06/0721Z AMD 0400
TAF RJOM 062306Z 0700/0806 34014KT 9999 FEW030 
  BECMG 0715/0718 10006KT 
  BECMG 0721/0800 34014KT
TAF RJOK 062306Z 0700/0806 35016KT 9999 FEW025 
  TEMPO 0700/0711 35020G30KT 
  BECMG 0715/0718 34006KT 
  BECMG 0800/0803 18010KT
TAF RJOH 062305Z 0700/0806 24006KT 9999 FEW030 SCT050 
  BECMG 0700/0702 31012KT 
  BECMG 0715/0718 23004KT 
  BECMG 0800/0803 07008KT=
TAF AMD RODN 070415Z 0704/0806 01012G18KT 6000 SHRA SCT008 BKN030 QNH2980INS 
  BECMG 0709/0710 03010G15KT 9999 NSW SCT010 BKN030 QNH2980INS 
  BECMG 0712/0713 05012KT 9999 SCT020 BKN040 QNH2982INS 
  BECMG 0722/0723 06010G15KT 9999 SCT060 QNH2984INS TX25/0704Z TN19/0720Z
TAF RJSS 062305Z 0700/0806 08004KT 9999 FEW020 SCT030 BKN040 
  TEMPO 0700/0703 2000 BR FEW001 BKN003 
  BECMG 0704/0706 30020KT 
  TEMPO 0706/0715 30030G40KT
TAF ROIG 062305Z 0700/0806 23012KT 9999 FEW010 BKN015 
  BECMG 0702/0704 01012KT 
  TEMPO 0703/0706 4000 SHRA BR FEW006 BKN008 FEW015CB 
  BECMG 0800/0803 07014KT=
TAF AMD RORS 070202Z 0702/0806 01016KT 9999 FEW010 BKN015 
  TEMPO 0702/0704 4000 SHRA BR FEW006 BKN008 FEW015CB 
  BECMG 0803/0806 09014KT
TAF ROTM AMD 070200Z 0702/0721 30010KT 9999 SCT012 BKN020 BKN035 QNH2984INS 
  TEMPO 0704/0708 -SHRA 
  FM071100 02015G22KT 9999 SCT020 BKN050 QNH2993INS 
  FM071400 03013G20KT 9999 FEW035 BKN065 QNH2997INS TX24/0621Z TN17/0719Z AMD 0201=
TAF AMD RJCC 070601Z 0706/0812 17010KT 9999 FEW012 BKN020 
  BECMG 0707/0709 32012KT 
  BECMG 0803/0806 25014KT 
  TEMPO 0803/0809 25016G26KT 
  BECMG 0809/0812 16008KT
TAF RJSN 070505Z 0706/0812 28014KT 9999 FEW030 BKN050 
  TEMPO 0712/0718 28020G30KT 
  BECMG 0809/0812 20006KT
TAF RJAA 070505Z 0706/0812 21008KT 9999 FEW015 BKN030 
  BECMG 0707/0709 32012KT 
  TEMPO 0708/0715 32015G25KT 
  BECMG 0806/0809 16010KT
TAF RJBB 070505Z 0706/0812 06012KT 9999 FEW020 
  BECMG 0707/0709 34016KT 
  BECMG 0803/0806 30006KT
TAF RJTT 070505Z 0706/0812 20020KT 9999 FEW015 BKN030 
  BECMG 0706/0708 34024KT 
  TEMPO 0708/0717 34030G40KT 
  BECMG 0800/0803 36014KT 
  BECMG 0803/0806 12012KT 
  BECMG 0806/0809 19014KT
TAF RJFF 070505Z 0706/0812 34016KT 9999 FEW040 
  BECMG 0710/0712 15004KT 
  BECMG 0800/0803 32011KT
TAF ROAH 070505Z 0706/0812 03016KT 9999 FEW015 BKN025 
  TEMPO 0706/0709 4000 SHRA BR FEW005 BKN008 
  BECMG 0809/0812 10010KT
TAF RJGG 070505Z 0706/0812 32030KT 9999 FEW030 
  TEMPO 0706/0712 32034G44KT 
  BECMG 0721/0800 33016KT 
  BECMG 0803/0806 27006KT 
  BECMG 0806/0809 14010KT
TAF RJNK 070505Z 0706/0812 32012KT 9999 FEW020 BKN040 
  BECMG 0712/0714 35010KT 
  BECMG 0800/0803 32008KT 
  BECMG 0809/0812 13004KT
TAF RJOO 070505Z 0706/0812 34016KT 9999 FEW020 
  TEMPO 0706/0709 34020G30KT 
  BECMG 0716/0718 32006KT 
  BECMG 0800/0803 22006KT=
TAF RJNT 070505Z 0706/0812 29008KT 9999 FEW020 BKN040 
  BECMG 0708/0710 19004KT 
  BECMG 0800/0803 01006KT 
  BECMG 0809/0812 22004KT
TAF RJNS 070505Z 0706/0812 27016KT 9999 FEW030 
  TEMPO 0706/0713 27020G30KT 
  BECMG 0721/0800 10004KT 
  BECMG 0800/0803 16010KT 
  BECMG 0806/0809 29006KT=
TAF RJOA 070505Z 0706/0812 32017KT 9999 FEW020 
  TEMPO 0706/0709 32018G28KT 
  BECMG 0710/0712 29006KT 
  BECMG 0721/0800 14006KT 
  BECMG 0809/0812 28006KT
TAF RJOB 070505Z 0706/0812 34011KT 9999 FEW030 
  BECMG 0707/0709 30006KT
TAF RJOC 070505Z 0706/0812 32010KT 9999 FEW030 
  TEMPO 0706/0708 32015G25KT 
  BECMG 0715/0717 17006KT 
  BECMG 0800/0803 36006KT=
TAF AMD RJOI 070600Z 0706/0805 35015G26KT 9999 FEW040 FEW070 520006 QNH2980INS 
  FM070800 34012G24KT 9999 FEW035 520006 QNH2990INS 
  TEMPO 0708/0711 36015G25KT 
  BECMG 0711/0713 34008KT 9999 FEW030 500000 QNH3002INS 
  FM071800 33006KT 9999 FEW025 QNH3007INS 
  FM072200 VRB06KT 9999 FEW030 QNH3010INS 
  BECMG 0801/0803 16007KT 9999 FEW035 QNH3008INS T19/0705Z T06/0721Z AMD 0607
TAF RJOM 070505Z 0706/0812 35012KT 9999 FEW020 
  BECMG 0714/0716 07006KT 
  BECMG 0721/0800 35012KT 
  BECMG 0806/0809 20006KT
TAF RJOK 070505Z 0706/0812 35016KT 9999 FEW020 
  TEMPO 0706/0710 35020G30KT 
  BECMG 0800/0803 18010KT 
  BECMG 0809/0812 36006KT
TAF RJOH 070505Z 0706/0812 31010KT 9999 FEW020 
  TEMPO 0706/0708 32015G25KT 
  BECMG 0718/0721 19004KT 
  BECMG 0800/0803 08008KT=
TAF RJOT 070505Z 0706/0812 30010KT 9999 FEW025 BKN040 
  BECMG 0713/0715 21006KT 
  BECMG 0800/0803 08006KT
TAF RJSA 070505Z 0706/0812 25020KT 9000 -SHRA FEW015 BKN030 
  TEMPO 0706/0713 25022G32KT 
  TEMPO 0715/0718 3000 -SHSNRA=
TAF RJSN 070505Z 0706/0812 28014KT 9999 FEW030 BKN050 
  TEMPO 0712/0718 28020G30KT 
  BECMG 0809/0812 20006KT
TAF RJSI 070505Z 0706/0812 27010KT 9999 FEW020 BKN040 
  BECMG 0707/0709 30010KT 
  BECMG 0715/0717 36004KT 
  BECMG 0721/0800 29012KT 
  BECMG 0806/0809 27008KT
TAF RJSF 070505Z 0706/0812 33018KT 9999 FEW015 BKN030 
  TEMPO 0706/0712 33020G30KT 
  BECMG 0809/0812 10006KT
TAF RJSK 070505Z 0706/0812 29018KT 9999 FEW015 BKN030 
  BECMG 0809/0812 15004KT=
TAF AMD RODN 070548Z 0705/0806 01012G18KT 6000 SHRA SCT008 BKN020 QNH2985INS 
  TEMPO 0705/0709 BKN009 
  BECMG 0709/0710 03010G15KT 9999 NSW SCT010 BKN015 QNH2987INS 
  BECMG 0712/0713 05012KT 9999 SCT020 BKN030 QNH2990INS 
  BECMG 0722/0723 06010G15KT 9999 BKN040 QNH2992INS TX25/0705Z TN19/0720Z
TAF RJSS 070505Z 0706/0812 30020KT 9999 FEW030 
  TEMPO 0706/0713 30030G40KT 
  BECMG 0806/0809 28008KT
TAF ROIG 070505Z 0706/0812 04016KT 9999 FEW012 BKN020 
  TEMPO 0706/0709 4000 SHRA BR FEW005 BKN008 
  BECMG 0809/0812 10012KT=
TAF AMD RJTY 070629Z 0706/0811 35009KT 9000 BR SCT020 BKN100 OVC150 510009 540909 QNH2951INS 
  TEMPO 0705/0707 35012G18KT 6000 -SHRA BR BKN020 BKN100 OVC150 510009 
  BECMG 0707/0708 01015G25KT 9999 NSW SCT050 520009 540909 QNH2951INS 
  TEMPO 0709/0711 35025G35KT 530005 
  BECMG 0721/0722 03012G18KT 9999 SKC 520009 530909 QNH2996INS WND 16012KT AFT 06Z TX20/0706Z TN06/0721Z
TAF RORS 070505Z 0706/0812 05016KT 9999 FEW012 BKN020 
  TEMPO 0706/0709 4000 SHRA BR FEW005 BKN008 
  BECMG 0803/0806 10012KT
TAF ROTM AMD 070200Z 0702/0721 30010KT 9999 SCT012 BKN020 BKN035 QNH2984INS 
  TEMPO 0704/0708 -SHRA 
  FM071100 02015G22KT 9999 SCT020 BKN050 QNH2993INS 
  FM071400 03013G20KT 9999 FEW035 BKN065 QNH2997INS TX24/0621Z TN17/0719Z AMD 0201=
